{
"type": "FeatureCollection",
"name": "Brown_lagoon_2004_contours",
"crs": { "type": "name", "properties": { "name": "urn:ogc:def:crs:OGC:1.3:CRS84" } },
"features": [
{ "type": "Feature", "properties": { "depth_m": 10.0, "survey_year": 2004, "name_1": "Brown" }, "geometry": { "type": "LineString", "coordinates": [ [ 73.668010352152635, -53.071921490422987 ], [ 73.668039879750665, -53.071962069848212 ], [ 73.668075170137939, -53.071986630140749 ] ] } },
{ "type": "Feature", "properties": { "depth_m": 10.0, "survey_year": 2004, "name_1": "Brown" }, "geometry": { "type": "LineString", "coordinates": [ [ 73.66181236882359, -53.072444019203672 ], [ 73.661842919299559, -53.072431937354168 ], [ 73.66182405702898, -53.072341825217762 ], [ 73.661797563695984, -53.07225612225195 ], [ 73.661796045055794, -53.072251610171868 ], [ 73.661784802636404, -53.072161583724785 ], [ 73.661800952655057, -53.072146822523166 ], [ 73.661881965182886, -53.072072776460821 ], [ 73.661954463031719, -53.072009997722944 ], [ 73.66200548322243, -53.071984265491288 ], [ 73.66210571382129, -53.07194603426823 ], [ 73.662234424127121, -53.071896939730379 ], [ 73.662256706615835, -53.07189037993286 ], [ 73.662407642581528, -53.071836546591058 ], [ 73.662474933366511, -53.071809743574399 ], [ 73.662558488840261, -53.071785595864483 ], [ 73.662709235837497, -53.071737837110845 ], [ 73.662748402125132, -53.07172291736849 ], [ 73.662860030588021, -53.071688526096246 ], [ 73.663010724000827, -53.071642475185939 ], [ 73.663029932825992, -53.071636181126621 ], [ 73.663161440612399, -53.071595664800739 ], [ 73.663311462403911, -53.071549444210163 ], [ 73.663312145141887, -53.071549233863045 ], [ 73.663463569681966, -53.071479541245544 ], [ 73.663480597865032, -53.071461444188806 ], [ 73.66353286164636, -53.071372131245255 ], [ 73.663585528136693, -53.071282822801713 ], [ 73.663620777602929, -53.071223048802608 ], [ 73.663649615724566, -53.071193642609742 ], [ 73.663743123940137, -53.071104792797989 ], [ 73.66377411614485, -53.071091479152138 ], [ 73.663866215885704, -53.07110617512982 ], [ 73.663922657409358, -53.071114852221555 ], [ 73.66407121537641, -53.071137690778706 ], [ 73.664220222490201, -53.071146021763695 ], [ 73.664369683602686, -53.071139683540274 ], [ 73.664519203260426, -53.071131451710585 ], [ 73.664668937932731, -53.071116268184959 ], [ 73.664678540931405, -53.071115294406518 ], [ 73.664818672502903, -53.071101084470207 ], [ 73.664968406970942, -53.071085900566317 ], [ 73.665118069181304, -53.071073049495581 ], [ 73.665267627264498, -53.07106356260801 ], [ 73.665416893141568, -53.071063523608345 ], [ 73.665566008853759, -53.071068341469761 ], [ 73.66571456223835, -53.071091350337433 ], [ 73.665863115784347, -53.071114359020534 ], [ 73.665962117124124, -53.071129692704787 ], [ 73.66601164493548, -53.071138162034586 ], [ 73.66616020811874, -53.071160869036575 ], [ 73.666308614950907, -53.071188640844774 ], [ 73.666418056129046, -53.071224703761359 ], [ 73.666456385941615, -53.071236998098442 ], [ 73.666603777365253, -53.071297652183908 ], [ 73.666672697972999, -53.071317457506076 ], [ 73.66675191926214, -53.07133402481341 ], [ 73.666900226888174, -53.071365039760757 ], [ 73.666995225635233, -53.071410971257855 ], [ 73.667046597139986, -53.071458793030303 ], [ 73.667089848626674, -53.071501931263882 ], [ 73.667192109573989, -53.07158034543027 ], [ 73.667210613141989, -53.071593184015498 ], [ 73.667339495711289, -53.071641241524105 ], [ 73.667446652891499, -53.071685727708726 ], [ 73.667486875765661, -53.071702347989266 ], [ 73.667634859310965, -53.071743918638369 ], [ 73.667772757411655, -53.071779279383897 ], [ 73.66778295411126, -53.071781894080623 ], [ 73.667789865208377, -53.071783666263471 ] ] } },
{ "type": "Feature", "properties": { "depth_m": 10.0, "survey_year": 2004, "name_1": "Brown" }, "geometry": { "type": "LineString", "coordinates": [ [ 73.661874071521652, -53.074602879958384 ], [ 73.661881124528094, -53.074589966665179 ], [ 73.661915366922855, -53.074500451774973 ], [ 73.661913467269059, -53.074410530440971 ], [ 73.661907559230002, -53.074320564028739 ], [ 73.661908238981908, -53.074230671699027 ], [ 73.661924372571022, -53.074140953155734 ], [ 73.662023725966833, -53.074052170420998 ], [ 73.662041348803285, -53.074022282694955 ], [ 73.662073688908691, -53.073962832253187 ], [ 73.662043711271295, -53.073946080152652 ], [ 73.661946063598975, -53.073871497148652 ], [ 73.661922782407103, -53.073781335360167 ], [ 73.661928541770692, -53.073691500145976 ], [ 73.661942625585169, -53.073667832480972 ] ] } },
{ "type": "Feature", "properties": { "depth_m": 10.0, "survey_year": 2004, "name_1": "Brown" }, "geometry": { "type": "LineString", "coordinates": [ [ 73.671653104185197, -53.075114330500583 ], [ 73.671635579962413, -53.075148763077749 ], [ 73.671557924015644, -53.075224834958711 ], [ 73.671544810959858, -53.07523764958146 ], [ 73.671464966242169, -53.075326657988676 ], [ 73.671404477897013, -53.075360189789791 ], [ 73.671253823996167, -53.075404829054932 ], [ 73.671228781593712, -53.075413920571556 ], [ 73.671102808171341, -53.075461211111815 ], [ 73.67103585227639, -53.075501665805959 ], [ 73.670950547224109, -53.075558009264824 ], [ 73.670854187552195, -53.07558953655942 ] ] } },
{ "type": "Feature", "properties": { "depth_m": 10.0, "survey_year": 2004, "name_1": "Brown" }, "geometry": { "type": "LineString", "coordinates": [ [ 73.668191190183123, -53.07622029970014 ], [ 73.66809301112157, -53.076245320267645 ], [ 73.667989499925653, -53.076276701762886 ] ] } },
{ "type": "Feature", "properties": { "depth_m": 10.0, "survey_year": 2004, "name_1": "Brown" }, "geometry": { "type": "LineString", "coordinates": [ [ 73.663147433463521, -53.076301758653955 ], [ 73.663137219029167, -53.076222284890612 ], [ 73.663138893944492, -53.076132403774345 ], [ 73.663060459509154, -53.076041622593884 ], [ 73.663024903658524, -53.076003221913318 ], [ 73.662975804260583, -53.075950771458857 ], [ 73.662879856056463, -53.075866570181311 ], [ 73.662868765312965, -53.075859668728093 ], [ 73.662733015394721, -53.075787809947514 ], [ 73.662692219517083, -53.075767784737785 ], [ 73.662585740596654, -53.075723074934714 ], [ 73.662437470232362, -53.075690474030687 ], [ 73.662336825464948, -53.075673890022223 ], [ 73.662289084813324, -53.075661591865462 ], [ 73.662141088350324, -53.075620169880693 ], [ 73.661992896462053, -53.075585059894344 ], [ 73.661970882797178, -53.075579875617514 ], [ 73.661844719030782, -53.075549491367482 ] ] } },
{ "type": "Feature", "properties": { "depth_m": 10.0, "survey_year": 2004, "name_1": "Brown" }, "geometry": { "type": "LineString", "coordinates": [ [ 73.667883854428055, -53.07631036684802 ], [ 73.66779244975082, -53.076309983334703 ], [ 73.667642229862167, -53.076340334677923 ], [ 73.667515089499318, -53.076361290011938 ] ] } },
{ "type": "Feature", "properties": { "depth_m": 10.0, "survey_year": 2004, "name_1": "Brown" }, "geometry": { "type": "LineString", "coordinates": [ [ 73.664550921271683, -53.076567254153453 ], [ 73.664500169157677, -53.076570380345878 ], [ 73.664350134706197, -53.076594634527822 ], [ 73.664311811971785, -53.076595075433858 ] ] } },
{ "type": "Feature", "properties": { "depth_m": 20.0, "survey_year": 2004, "name_1": "Brown" }, "geometry": { "type": "LineString", "coordinates": [ [ 73.670544277463748, -53.074208616093628 ], [ 73.670530320776862, -53.074237420270336 ], [ 73.670542329209709, -53.074271859342403 ], [ 73.67056610643921, -53.074327719990364 ], [ 73.670656313723896, -53.074418627713406 ], [ 73.670686189627048, -53.074447665424792 ], [ 73.670749884297607, -53.074509572937231 ], [ 73.670831248353437, -53.074584602279764 ], [ 73.670848440001421, -53.074600573770489 ], [ 73.67094439071488, -53.074691545421999 ], [ 73.670976455590548, -53.074716746339369 ], [ 73.671074793212455, -53.074782901773659 ], [ 73.671122770850246, -53.074812935999589 ], [ 73.671202695277699, -53.074874230054945 ], [ 73.671242676893229, -53.074964576410842 ], [ 73.671203658313672, -53.075054040549261 ], [ 73.671125147988931, -53.075143063634478 ], [ 73.671112199495695, -53.075156237037127 ], [ 73.671040862758204, -53.075232022169743 ], [ 73.670958605949295, -53.075296341298127 ], [ 73.670931739849934, -53.075320703219589 ], [ 73.670855417924656, -53.07540975057173 ], [ 73.670804678723059, -53.075447246232351 ], [ 73.670701140633184, -53.075497927015221 ], [ 73.670653451659135, -53.075510461527394 ], [ 73.670503535985105, -53.075531095949323 ], [ 73.670353299226534, -53.075562146526806 ], [ 73.670285078245826, -53.07558317807927 ] ] } },
{ "type": "Feature", "properties": { "depth_m": 20.0, "survey_year": 2004, "name_1": "Brown" }, "geometry": { "type": "LineString", "coordinates": [ [ 73.668982114878176, -53.075937889674549 ], [ 73.668848360457616, -53.0759556146458 ], [ 73.668712768400738, -53.076015096413691 ] ] } },
{ "type": "Feature", "properties": { "depth_m": 20.0, "survey_year": 2004, "name_1": "Brown" }, "geometry": { "type": "LineString", "coordinates": [ [ 73.668680873223693, -53.076024424918799 ], [ 73.668547109509319, -53.076042730589101 ], [ 73.668411521726455, -53.076101625491745 ] ] } },
{ "type": "Feature", "properties": { "depth_m": 20.0, "survey_year": 2004, "name_1": "Brown" }, "geometry": { "type": "LineString", "coordinates": [ [ 73.668379629601205, -53.076110959838367 ], [ 73.668245903606888, -53.076128347047934 ], [ 73.668108758724443, -53.07618813683893 ], [ 73.668094665216444, -53.076191728514921 ], [ 73.667958537094279, -53.076186455267212 ], [ 73.667945575202467, -53.076185497059761 ], [ 73.667873771810022, -53.076185506326091 ], [ 73.667796291700043, -53.076185534443518 ], [ 73.667646189554745, -53.076212086423347 ], [ 73.667496715250351, -53.07621829976447 ], [ 73.66734753371621, -53.076215031350905 ], [ 73.667198259113221, -53.07621477694061 ], [ 73.667048895493082, -53.076217404351098 ], [ 73.66689931968402, -53.076226899730919 ], [ 73.666749698085837, -53.076237874941164 ], [ 73.666600099343242, -53.076248107927618 ], [ 73.66645052150335, -53.076257662134111 ], [ 73.666440970810868, -53.076259356982646 ], [ 73.666300477868063, -53.076282285297303 ], [ 73.666150795862123, -53.076295203350568 ], [ 73.666001249968545, -53.07630371539058 ], [ 73.665851627610266, -53.076314698678829 ], [ 73.665716455658909, -53.0763411348087 ] ] } },
{ "type": "Feature", "properties": { "depth_m": 20.0, "survey_year": 2004, "name_1": "Brown" }, "geometry": { "type": "LineString", "coordinates": [ [ 73.665695970840332, -53.0763441943365 ], [ 73.6655516251313, -53.076361161798296 ], [ 73.665402119956724, -53.076368345684607 ], [ 73.665252539927067, -53.07637794796387 ], [ 73.665102341435144, -53.076407540794001 ], [ 73.66496447453649, -53.076422600077443 ] ] } },
{ "type": "Feature", "properties": { "depth_m": 20.0, "survey_year": 2004, "name_1": "Brown" }, "geometry": { "type": "LineString", "coordinates": [ [ 73.664950626678291, -53.076423609658178 ], [ 73.664911557854097, -53.076422006355607 ], [ 73.664803462597988, -53.076417640772867 ], [ 73.664654247455829, -53.076415441289726 ], [ 73.664505142510237, -53.076409681532482 ], [ 73.664355968753313, -53.076406146172403 ], [ 73.664206588670737, -53.076409276851066 ], [ 73.664085562212506, -53.076412735684357 ], [ 73.664057152333129, -53.076414223857583 ], [ 73.663907581343921, -53.076423518606639 ], [ 73.66375788012698, -53.076437016768367 ], [ 73.663619172619534, -53.076407498565025 ], [ 73.663610377114736, -53.076379530805035 ], [ 73.663603135497667, -53.076317418523871 ], [ 73.663537779369406, -53.076226784551345 ], [ 73.66348344757813, -53.076136274368295 ], [ 73.663469195409064, -53.076117960016994 ], [ 73.663409733370415, -53.076045546440241 ], [ 73.663330929367305, -53.075954761287541 ], [ 73.663325176152497, -53.075948051635145 ], [ 73.66324834829733, -53.07586393364744 ], [ 73.663180267154999, -53.075806900983366 ], [ 73.663134740719016, -53.075772757362877 ], [ 73.663034181337835, -53.075703765305782 ], [ 73.663001525525388, -53.075681360650677 ], [ 73.662887934462006, -53.075605849954627 ], [ 73.662846024154248, -53.075589713343703 ], [ 73.662740221969543, -53.075555252020266 ], [ 73.662592123304506, -53.075517125762445 ], [ 73.662547479487415, -53.075496458088125 ], [ 73.662445391160873, -53.075434919153736 ], [ 73.662332996031054, -53.075404147117659 ], [ 73.662297325947421, -53.075395735258049 ], [ 73.662149349027203, -53.075353711912435 ], [ 73.662081363122468, -53.075311418049033 ], [ 73.662061372553353, -53.075221293313625 ], [ 73.662041382064473, -53.075131168574046 ], [ 73.662067830360456, -53.075041566006647 ], [ 73.66211544533256, -53.074952201429134 ], [ 73.662164203109413, -53.074874565151575 ], [ 73.66217150915017, -53.074862931826097 ], [ 73.66222189665902, -53.07477359837808 ], [ 73.662240119602941, -53.074683903292488 ], [ 73.662265444166465, -53.074594288044167 ], [ 73.662282688328162, -53.074504581946186 ], [ 73.662289784234375, -53.074414761754142 ], [ 73.662299170361933, -53.074324967308051 ], [ 73.662310805258898, -53.07423519814143 ], [ 73.662326355345073, -53.074145472987837 ], [ 73.662338353152208, -53.074072146748485 ], [ 73.662341037970307, -53.07405573807921 ], [ 73.662412020851846, -53.073966636077941 ], [ 73.662357585247875, -53.073876124155575 ], [ 73.662344715113875, -53.073866892618625 ], [ 73.662222224963941, -53.073784702391421 ], [ 73.662213413753733, -53.073694703347456 ], [ 73.662202361007857, -53.073643646578397 ], [ 73.662199123098674, -53.073604642694534 ], [ 73.662195280075778, -53.07351469950494 ], [ 73.662207521901692, -53.073477156676255 ], [ 73.662232191975036, -53.073425214529628 ], [ 73.662244096052817, -53.073335448383524 ], [ 73.662242837646048, -53.073245534250617 ], [ 73.662245732951618, -53.073155666816398 ], [ 73.662249558920877, -53.073065809844287 ], [ 73.662275278054452, -53.072976199011535 ], [ 73.662374130926736, -53.072917826088137 ], [ 73.662455802855263, -53.072888328476445 ], [ 73.662525091729734, -53.072863303200783 ], [ 73.66267606795796, -53.072808270073324 ], [ 73.662700070105828, -53.072801174098913 ], [ 73.662827088126079, -53.07275180619488 ], [ 73.662976975973066, -53.072731880239623 ], [ 73.663126559584271, -53.072721771413811 ], [ 73.663157297325725, -53.072716412090323 ], [ 73.663277182839323, -53.07267809348091 ], [ 73.663427109695249, -53.072656892663048 ], [ 73.663576801807181, -53.072643267848036 ], [ 73.663641692353735, -53.072631953464068 ], [ 73.663727237042067, -53.072605638687143 ], [ 73.66387725768665, -53.072581392819352 ], [ 73.664026808188709, -53.072572329409198 ], [ 73.66417646615011, -53.072559792014779 ], [ 73.664246257770188, -53.072548841990695 ], [ 73.664326733797054, -53.072527551347051 ], [ 73.664437802548022, -53.072461092182181 ], [ 73.664478819552144, -53.07243654914415 ], [ 73.664585279199116, -53.07237284748323 ], [ 73.664630944023614, -53.072344274701905 ], [ 73.664730571652129, -53.07228457809174 ], [ 73.66478308550785, -53.072251429114893 ], [ 73.664874937402047, -53.072196298125952 ], [ 73.664935232559799, -53.072158382173384 ], [ 73.665019281257329, -53.072108017740945 ], [ 73.665086903631291, -53.072080702897594 ], [ 73.66523674993384, -53.07206200974413 ], [ 73.665386500166704, -53.072046419066979 ], [ 73.665536286799536, -53.072029647546586 ], [ 73.665582803847485, -53.072024439019209 ], [ 73.665686073319165, -53.072012875836826 ], [ 73.665835859725547, -53.071996103937728 ], [ 73.665985646018711, -53.071979331849278 ], [ 73.66613537313755, -53.07196447060312 ], [ 73.666284701881722, -53.071962497543311 ], [ 73.666433829826047, -53.071967022670222 ], [ 73.666582445972594, -53.071988114452111 ], [ 73.666693267072432, -53.072036887702275 ], [ 73.666729803952336, -53.07204993927197 ], [ 73.666877948175014, -53.072086323227062 ], [ 73.667026395143594, -53.072112912768347 ], [ 73.667138659364056, -53.072131777745263 ], [ 73.667174892811019, -53.07213786641902 ], [ 73.667323134078813, -53.072171129169178 ], [ 73.667390431548796, -53.072224497760885 ], [ 73.667468599439772, -53.072294307948638 ], [ 73.667490015239323, -53.072315512982733 ], [ 73.667582944805318, -53.072406453604081 ], [ 73.667613631080471, -53.0724315625258 ], [ 73.667672021025894, -53.072497351002198 ], [ 73.667758365496027, -53.072578475449397 ], [ 73.667767799769422, -53.072588323376053 ], [ 73.667851981940359, -53.072679165836377 ], [ 73.667902976257096, -53.072729426213435 ], [ 73.667968108826855, -53.072770365855646 ], [ 73.668050147127317, -53.072797455855223 ], [ 73.668198299845514, -53.072833682675622 ], [ 73.668324086521906, -53.072864250380469 ], [ 73.668346459665045, -53.072869687310181 ], [ 73.668491640470393, -53.072956025432404 ], [ 73.668493020436514, -53.072957529906283 ], [ 73.66857615442737, -53.073046871076869 ], [ 73.668638297967334, -53.073086989757407 ], [ 73.66872258432835, -53.073138409420601 ], [ 73.668784873784176, -53.073174387366009 ], [ 73.668882655824987, -53.073230100190962 ], [ 73.668931843377322, -53.073249036501743 ], [ 73.66907969241818, -53.073295184230524 ], [ 73.669183314114164, -53.073323363231516 ], [ 73.669227720156215, -53.073335546875796 ], [ 73.669375740479097, -53.073376158904708 ], [ 73.669523760485845, -53.073416790124746 ] ] } },
{ "type": "Feature", "properties": { "depth_m": 30.0, "survey_year": 2004, "name_1": "Brown" }, "geometry": { "type": "LineString", "coordinates": [ [ 73.66595741331146, -53.072892726011979 ], [ 73.666107159430481, -53.072877353071377 ], [ 73.666255243688497, -53.072915752273346 ], [ 73.666298035384358, -53.072931457756376 ], [ 73.666403075550051, -53.072962328010341 ], [ 73.666551003551234, -53.073005802338756 ], [ 73.666616061387472, -53.073024921998588 ], [ 73.666698931852906, -53.073049276484831 ], [ 73.666846860455053, -53.073092750448573 ], [ 73.666934088779371, -53.073118385398068 ], [ 73.666994930708043, -53.073131647819338 ], [ 73.667143743046566, -53.073146525047619 ], [ 73.667293379723105, -53.073134710490166 ], [ 73.667429813094913, -53.073123938229188 ], [ 73.667443016320959, -53.073122895743992 ], [ 73.667449663680756, -53.073124160541504 ], [ 73.667590921259304, -53.073167168211846 ], [ 73.667728177456354, -53.073217179277293 ], [ 73.667738568236473, -53.073219806890144 ], [ 73.667886752656685, -53.073255045103735 ], [ 73.66802296688418, -53.073310379550399 ], [ 73.668034065123237, -53.073318543618278 ], [ 73.668147065613951, -53.073401668615077 ], [ 73.668180485572705, -53.073410961771231 ], [ 73.668328539233812, -53.07345047032544 ], [ 73.668433714008799, -53.073494776731806 ], [ 73.668475855330257, -53.073513893483799 ], [ 73.668623805380591, -53.07355678063486 ], [ 73.668739388211364, -53.073588097018472 ], [ 73.668771841333779, -53.073596892327622 ], [ 73.668919879644335, -53.07363693641112 ], [ 73.669067918232173, -53.073676980311902 ], [ 73.669217140974524, -53.073678631168939 ], [ 73.66936651946547, -53.073675230851123 ], [ 73.66951590218531, -53.073671692514473 ], [ 73.669665284883948, -53.07366815399012 ], [ 73.66981426024509, -53.073677830401287 ], [ 73.669827049460991, -53.073690161030697 ], [ 73.669946625014035, -53.073781397623442 ], [ 73.669959793278252, -53.073799205155062 ], [ 73.670006262787552, -53.073871964145617 ], [ 73.670029292455098, -53.073962121457008 ], [ 73.670036093546315, -53.074052097370831 ], [ 73.670045953027895, -53.074142107467281 ], [ 73.670071300970648, -53.07423229067745 ], [ 73.670093075226717, -53.074318163693142 ], [ 73.670094120137549, -53.074322445616723 ], [ 73.670118873758497, -53.07441262217052 ], [ 73.670194898548814, -53.074503371733009 ], [ 73.670235284883432, -53.074547488741132 ], [ 73.67027938673543, -53.074594215824824 ], [ 73.670370512636396, -53.074685134026694 ], [ 73.670380050810707, -53.074693893473942 ], [ 73.670471775900538, -53.074776165426854 ], [ 73.67052531408072, -53.074824185815331 ], [ 73.670576156286458, -53.074867231564177 ], [ 73.670563794901582, -53.074956993330368 ], [ 73.670519375693502, -53.075016946951699 ], [ 73.670505838912575, -53.075046245661461 ], [ 73.670465303176755, -53.075135692612704 ], [ 73.670424573029081, -53.075225137377302 ], [ 73.670383842709583, -53.0753145821256 ], [ 73.670360342851367, -53.07533354204157 ], [ 73.670252235692459, -53.075403011312901 ], [ 73.670208245402833, -53.07542499466507 ], [ 73.670057428670987, -53.075474869302425 ], [ 73.670011023453057, -53.075490215305678 ], [ 73.669906884473093, -53.075515890298057 ], [ 73.669756370145947, -53.07555593287293 ], [ 73.669686119741712, -53.075576483162003 ], [ 73.669605749443321, -53.07559941678371 ], [ 73.669455143029097, -53.075642427320467 ], [ 73.669380159036351, -53.075662961971133 ], [ 73.669304577512435, -53.07568410172226 ], [ 73.669153930069314, -53.075728423120296 ], [ 73.669066578637768, -53.075749354769783 ], [ 73.669003495951955, -53.075765817900908 ], [ 73.6688528145079, -53.07581122206475 ], [ 73.668757069201135, -53.075835792292345 ], [ 73.668702288569932, -53.075851575157692 ], [ 73.668551712138949, -53.07589355554844 ], [ 73.668447963034495, -53.075922233527258 ], [ 73.668401101357489, -53.075936639541325 ], [ 73.668251360274397, -53.075951532351809 ], [ 73.668100764978789, -53.075994098132036 ], [ 73.668060013995998, -53.076007791443573 ], [ 73.667949948450271, -53.076043821273359 ], [ 73.667800232363049, -53.076057887044044 ], [ 73.667650806176724, -53.07606256001381 ], [ 73.667501828469611, -53.076052707753718 ], [ 73.667352511173931, -53.076053854042357 ], [ 73.66720301989028, -53.076060633369636 ], [ 73.66705364612362, -53.076063606560297 ], [ 73.666904825953409, -53.076048658688393 ], [ 73.666755718434104, -53.076043014735724 ], [ 73.666606131438286, -53.076052889498293 ], [ 73.666456243314087, -53.076072506422825 ], [ 73.666306872276934, -53.076075387895102 ], [ 73.666157649276187, -53.076073479282407 ], [ 73.666008395433067, -53.07607256873402 ], [ 73.665859136979321, -53.076071807440393 ], [ 73.665854589146022, -53.076072983956522 ], [ 73.665708377750718, -53.076119583788149 ], [ 73.665558172240608, -53.076149443120705 ], [ 73.665521320628386, -53.076159146703333 ], [ 73.665407664314984, -53.076189074016703 ], [ 73.665257156115572, -53.076228704720322 ], [ 73.665193851372948, -53.07624537357696 ], [ 73.665106647642418, -53.076268335231532 ], [ 73.664956475002967, -53.076297101490503 ], [ 73.664807010867605, -53.076302962661117 ], [ 73.664657850049224, -53.076299020464219 ], [ 73.66450874550506, -53.076293260713904 ], [ 73.664359641003969, -53.076287500777021 ], [ 73.664210839666396, -53.076271948300288 ], [ 73.664067220856751, -53.076232729917457 ], [ 73.664062882670962, -53.076229125594963 ], [ 73.663952930495228, -53.076141546766991 ], [ 73.663917173949827, -53.076113697108973 ], [ 73.6638358186365, -53.076050331819786 ], [ 73.663771549875023, -53.075995559906396 ], [ 73.663734043599092, -53.075959288988763 ], [ 73.663658368503292, -53.075868539192257 ], [ 73.663627433602628, -53.075828758945512 ], [ 73.663587842422459, -53.07577784717531 ], [ 73.663498751180342, -53.075686946589094 ], [ 73.663482914313803, -53.075675006226028 ], [ 73.663375144400305, -53.075595658219058 ], [ 73.663336962180864, -53.075567545613872 ], [ 73.663251151751794, -53.075504365381796 ], [ 73.663190889437516, -53.075464001720817 ], [ 73.663058480343523, -53.075412300766658 ], [ 73.663043347264903, -53.075407910485346 ], [ 73.662895224094598, -53.075370582888254 ], [ 73.662747275214542, -53.075327638960729 ], [ 73.662735511520097, -53.075318771547508 ], [ 73.662644700273219, -53.075227850971203 ], [ 73.662602301908393, -53.075188690167735 ], [ 73.662548753185845, -53.075136872594761 ], [ 73.66257520043402, -53.075047269907998 ], [ 73.662609158809573, -53.074967433171373 ], [ 73.662613917349873, -53.07495780512194 ], [ 73.662656844121926, -53.074868387638666 ], [ 73.662669211346909, -53.074778626678558 ], [ 73.662686204975557, -53.074688917712677 ], [ 73.662704830655514, -53.074599227085947 ], [ 73.662703721769532, -53.074509314661384 ], [ 73.662695076884305, -53.074419317538478 ], [ 73.662699268354828, -53.074329464681966 ], [ 73.66270903068397, -53.074239674434679 ], [ 73.662723784259185, -53.074149940281302 ], [ 73.662739562764742, -53.074060217643982 ], [ 73.662755200805421, -53.073970493424973 ], [ 73.662791822268318, -53.073890003563697 ], [ 73.662795342183131, -53.07388104457992 ], [ 73.662792264268077, -53.073875738602325 ], [ 73.662719005495532, -53.073790286693161 ], [ 73.662718500280292, -53.073700381041768 ], [ 73.662717995063872, -53.073610475389039 ], [ 73.662700701423105, -53.073520381049768 ], [ 73.662676572978157, -53.073430209888151 ], [ 73.662687368486985, -53.073340431242713 ], [ 73.662767730305291, -53.073251434439833 ], [ 73.662813012754, -53.073206094823369 ], [ 73.662848425582936, -53.073162441330375 ], [ 73.662934733960569, -53.073073511242001 ], [ 73.662966766810072, -53.07306142374081 ], [ 73.663116835538048, -53.073035691135196 ], [ 73.663266203532558, -53.073032576652345 ], [ 73.663415696948391, -53.073025411568459 ], [ 73.663565190317854, -53.073018246296414 ], [ 73.663714638216859, -53.073012547897839 ], [ 73.663863931125775, -53.073011854417857 ], [ 73.664012919304227, -53.073021004779761 ], [ 73.664161697129046, -53.073036953161939 ], [ 73.664310133427193, -53.073063940204243 ], [ 73.664456799569379, -53.073090605201912 ], [ 73.664458559587885, -53.073091260747091 ], [ 73.66460656348562, -53.073132234159736 ], [ 73.664755561170963, -53.073141095346038 ], [ 73.664905583320007, -53.073116841956853 ], [ 73.665005509439297, -53.073096762855847 ], [ 73.665055827464116, -53.073085406064997 ], [ 73.665205993845163, -53.073056477315873 ], [ 73.665356198797028, -53.07302629470874 ], [ 73.665429245761914, -53.073011616361249 ], [ 73.66550656044835, -53.072991037487313 ], [ 73.665656761388263, -53.072960970284022 ], [ 73.665806809761889, -53.072935831392712 ], [ 73.66585301345981, -53.072926468716098 ], [ 73.66595741331146, -53.072892726011979 ] ] } },
{ "type": "Feature", "properties": { "depth_m": 40.0, "survey_year": 2004, "name_1": "Brown" }, "geometry": { "type": "LineString", "coordinates": [ [ 73.666984648323492, -53.07346455076938 ], [ 73.667133635361395, -53.073473808349839 ], [ 73.667282732666294, -53.073479497148199 ], [ 73.667431884826215, -53.073483410572564 ], [ 73.667432422986565, -53.07348356718574 ], [ 73.667579731438408, -53.073529611681685 ], [ 73.667728321219897, -53.073551748954152 ], [ 73.66787727283382, -53.073562168685022 ], [ 73.667948401517464, -53.073579244589475 ], [ 73.668025029633228, -53.073611303712632 ], [ 73.668154102911231, -53.073671447149081 ], [ 73.668171795375358, -53.073692564104746 ], [ 73.668226267558623, -53.073762154799397 ], [ 73.668317295253843, -53.073814866052494 ], [ 73.668432889415953, -53.073854367169481 ], [ 73.66846496911846, -53.073866732986239 ], [ 73.668612092240096, -53.073936463522209 ], [ 73.668675763165339, -53.073946984795619 ], [ 73.668760760003877, -53.073956134649293 ], [ 73.668897182102441, -53.073949462000925 ], [ 73.668910258759269, -53.073948867693709 ], [ 73.669059577004333, -53.073947452187888 ], [ 73.669208900965444, -53.073945850915315 ], [ 73.669358225594493, -53.073944227538462 ], [ 73.669420389887293, -53.073955313941347 ], [ 73.669505869999767, -53.073997104327901 ], [ 73.66953955374295, -53.074046546336177 ], [ 73.669580926745724, -53.074136908840927 ], [ 73.669605383818208, -53.074227082194213 ], [ 73.669622380024308, -53.074317172122491 ], [ 73.669643316508726, -53.074380809290666 ], [ 73.669652327630914, -53.074407406850959 ], [ 73.669679915101312, -53.074497615182992 ], [ 73.669741223161509, -53.074588200499832 ], [ 73.669784734958171, -53.07463573229915 ], [ 73.669824370786841, -53.074679029930266 ], [ 73.669901413308551, -53.074769791054429 ], [ 73.669928985660945, -53.074798814001937 ], [ 73.669978172843869, -53.074860548962654 ], [ 73.670030829947038, -53.074951037421059 ], [ 73.670066706290115, -53.075041338296771 ], [ 73.670070498639845, -53.075050767288836 ], [ 73.670100656876372, -53.075131617636089 ], [ 73.670065550657014, -53.075211323598779 ], [ 73.670060089577262, -53.075221064099715 ], [ 73.669914219173037, -53.075277918276889 ], [ 73.669858555628664, -53.075308711260611 ], [ 73.669762499396896, -53.075357094294887 ], [ 73.669691144866007, -53.07539673958815 ], [ 73.66961078782731, -53.075435985883857 ], [ 73.669461763864859, -53.075484074746342 ], [ 73.669460009941531, -53.075484576621271 ], [ 73.66930940115688, -53.07552767230473 ], [ 73.6691594021367, -53.075570593231717 ], [ 73.669158792073986, -53.075570767795341 ], [ 73.669009225775824, -53.075580043781855 ], [ 73.668968918514892, -53.075568462606569 ], [ 73.668861124117427, -53.075541835620889 ], [ 73.668787397986179, -53.075566431952815 ], [ 73.668710360332057, -53.075589929451787 ], [ 73.668559592973395, -53.075638128090951 ], [ 73.66850766543925, -53.075653201955454 ], [ 73.668409006724772, -53.075680446331575 ], [ 73.668258268688334, -53.075727673430698 ], [ 73.668206786777674, -53.075739734627859 ], [ 73.668107752746977, -53.075767693775887 ], [ 73.667956992040146, -53.075815634539019 ], [ 73.667914523052445, -53.07582636298833 ], [ 73.667806295364102, -53.07586149019528 ], [ 73.667656067808082, -53.075892140959937 ], [ 73.667506313567301, -53.075907456163755 ], [ 73.667472814654644, -53.075911317145348 ], [ 73.667356498940322, -53.075924723257849 ], [ 73.667207334224358, -53.075920943423988 ], [ 73.667069798620801, -53.075906803212789 ], [ 73.667058596695128, -53.075903334342819 ], [ 73.666911911567979, -53.075819290565448 ], [ 73.666894821129006, -53.075814943072722 ], [ 73.666763887409346, -53.075778606445567 ], [ 73.666660233719313, -53.075722414724034 ], [ 73.666617111456006, -53.075697534188677 ], [ 73.666467551318007, -53.075706577522915 ], [ 73.666367552330684, -53.075719134711349 ], [ 73.666317641866115, -53.075726921449764 ], [ 73.666167292841322, -53.075761482297402 ], [ 73.666016943578555, -53.075796042953357 ], [ 73.665979356225662, -53.075804683087384 ], [ 73.665866594077784, -53.075830603417579 ], [ 73.66571582245416, -53.075878808329435 ], [ 73.665680293049462, -53.075891229751434 ], [ 73.665564758249715, -53.075936463815843 ], [ 73.66543470507068, -53.075978375448109 ], [ 73.66541394543404, -53.075985977557544 ], [ 73.665262805018372, -53.076046071598562 ], [ 73.665215869078352, -53.076065820738641 ], [ 73.665111554448771, -53.076109712861303 ], [ 73.66500775988186, -53.076153385978216 ], [ 73.664960347033315, -53.076171944674307 ], [ 73.664810556803431, -53.076188359192997 ], [ 73.664661475884287, -53.076181847747591 ], [ 73.664513226817135, -53.076148458372991 ], [ 73.664511237181728, -53.076147814264118 ], [ 73.664403530715788, -53.076056705443399 ], [ 73.664367721913209, -53.076026414697324 ], [ 73.664293326058186, -53.075965568478409 ], [ 73.664222056424435, -53.075909585173449 ], [ 73.664179797586002, -53.075874394093411 ], [ 73.664091508046397, -53.07578350295978 ], [ 73.664077139934733, -53.075768586331641 ], [ 73.664006416331986, -53.075692647662237 ], [ 73.663932943481242, -53.075604361145309 ], [ 73.66393094111055, -53.075601900279928 ], [ 73.663827354417521, -53.075510837175827 ], [ 73.663787443255259, -53.075482277475771 ], [ 73.663698651189804, -53.075419491910168 ], [ 73.663641225683065, -53.075383384992733 ], [ 73.663553071562887, -53.075327956951753 ], [ 73.663494711896973, -53.075294078398798 ], [ 73.663385676673883, -53.075236176759276 ], [ 73.663347827473615, -53.075216757431711 ], [ 73.663201643501779, -53.075144209401778 ], [ 73.663200840003853, -53.075142779854062 ], [ 73.663163001772347, -53.075053875318609 ], [ 73.663159943150788, -53.074963941004221 ], [ 73.663155273870657, -53.074873988592493 ], [ 73.663150604606713, -53.074784036179373 ], [ 73.663145935358955, -53.074694083764868 ], [ 73.663151816920845, -53.074604249889319 ], [ 73.663151996939561, -53.074514351954612 ], [ 73.663140955404316, -53.074424327941927 ], [ 73.663129913911845, -53.074334303927174 ], [ 73.663127338108168, -53.07424437502565 ], [ 73.663145945272049, -53.074154684120842 ], [ 73.66320526971127, -53.07406545066862 ], [ 73.663235077789025, -53.074037476627197 ], [ 73.663320695281939, -53.073976847429677 ], [ 73.663387700108302, -53.073929398448037 ], [ 73.663446876787887, -53.073888364899176 ], [ 73.663539808557161, -53.073837889149168 ], [ 73.663610274404505, -53.073800300230978 ], [ 73.663691589877786, -53.073756923612976 ], [ 73.663841969202394, -53.073721222981767 ], [ 73.663962243035314, -53.073714352850295 ], [ 73.663991507518588, -53.073712681222347 ], [ 73.664141045778862, -53.073704139274604 ], [ 73.664290583983188, -53.073695597138531 ], [ 73.664439423258884, -53.073709638001617 ], [ 73.664508963271302, -53.073720490415127 ], [ 73.664587996944277, -53.073732265071101 ], [ 73.664736654138267, -53.073752198020109 ], [ 73.664885245443998, -53.073774265123191 ], [ 73.665033767550582, -53.073798574123721 ], [ 73.665144881044185, -53.073817526111547 ], [ 73.665182282214076, -53.073823129093007 ], [ 73.665197593049569, -53.073818117449314 ], [ 73.665332681774672, -53.073786740918045 ], [ 73.665483222505529, -53.073745779141269 ], [ 73.665551320205154, -53.073732185109243 ], [ 73.665633423526316, -53.073715795135641 ], [ 73.665783624341358, -53.073685810938912 ], [ 73.665933824950642, -53.073655826551118 ], [ 73.665977707050587, -53.073647066370384 ], [ 73.666084025354152, -53.073625841972266 ], [ 73.666234225551918, -53.073595857202314 ], [ 73.666384410707863, -53.07356635235088 ], [ 73.666408755123072, -53.073561998352965 ], [ 73.666534513501887, -53.073539506377116 ], [ 73.666684616112192, -53.0735126602127 ], [ 73.666834704224172, -53.073486277250829 ], [ 73.666888780565884, -53.073477477527142 ], [ 73.666984648323492, -53.07346455076938 ] ] } },
{ "type": "Feature", "properties": { "depth_m": 50.0, "survey_year": 2004, "name_1": "Brown" }, "geometry": { "type": "LineString", "coordinates": [ [ 73.667275678468314, -53.073707931336308 ], [ 73.667424991043106, -53.073706675087031 ], [ 73.667573800103355, -53.073721727188754 ], [ 73.667683737976844, -53.073756081247105 ], [ 73.667720470227977, -53.073806069701178 ], [ 73.667744652076834, -53.073846663217878 ], [ 73.667798565868779, -53.07393716677845 ], [ 73.667863658033653, -53.074003245798174 ], [ 73.667903145582571, -53.074028237542308 ], [ 73.668009552790039, -53.074112759059311 ], [ 73.668017941757668, -53.074119422577404 ], [ 73.66813273841646, -53.074210607503453 ], [ 73.668155256279348, -53.074228493764615 ], [ 73.668302671251979, -53.07428878993003 ], [ 73.668367408608702, -53.074303133921902 ], [ 73.668450557779366, -53.074333816072553 ], [ 73.668599335395058, -53.074349968440885 ], [ 73.668749531772832, -53.074320131465917 ], [ 73.668810669172643, -53.074308093779166 ], [ 73.668899556651354, -53.074295847897389 ], [ 73.668991006236354, -53.07431011118517 ], [ 73.669033701180993, -53.074400488668154 ], [ 73.669044007482029, -53.074452296393417 ], [ 73.669051843909955, -53.07449059150558 ], [ 73.669191062015329, -53.074524345365511 ], [ 73.669257285325173, -53.074582789203639 ], [ 73.669308166667108, -53.074673258135107 ], [ 73.669275869577802, -53.074762796832417 ], [ 73.669243572351391, -53.074852335518798 ], [ 73.669220679344107, -53.074941979373897 ], [ 73.669200375816686, -53.07503165218521 ], [ 73.669174218733829, -53.07507053323279 ], [ 73.669143757550543, -53.075120918827267 ], [ 73.669021461174282, -53.075183337024569 ], [ 73.668971393428407, -53.075208890746104 ], [ 73.668869794620335, -53.075260744881724 ], [ 73.668799028604752, -53.075296862409537 ], [ 73.668718127523235, -53.075338152541143 ], [ 73.66862666307955, -53.075384833817552 ], [ 73.668566489404512, -53.075414603154194 ], [ 73.668452955845154, -53.075472789963634 ], [ 73.668415200567068, -53.07547971663778 ], [ 73.668263579668832, -53.075555575403818 ], [ 73.668254189603076, -53.075560465396578 ], [ 73.668113265943745, -53.07558906351661 ], [ 73.667995003536632, -53.075647464156305 ], [ 73.667961846657448, -53.075658360759114 ], [ 73.667811394971523, -53.075696298466482 ], [ 73.66773046109131, -53.075734402382423 ], [ 73.667660225250756, -53.075757484264145 ], [ 73.66751040376279, -53.075774992535123 ], [ 73.667389669046926, -53.075730586202589 ], [ 73.667363363640135, -53.075702430056197 ], [ 73.667272645078654, -53.075639375646965 ], [ 73.667217755470219, -53.075583518470197 ], [ 73.667191665880139, -53.075548568718681 ], [ 73.667165590671857, -53.075458376742112 ], [ 73.667123818150287, -53.075368008922752 ], [ 73.667076280215909, -53.075330826904079 ], [ 73.666928146561887, -53.075293736449147 ], [ 73.666913359548261, -53.075275751338197 ], [ 73.666813482747884, -53.075184732419935 ], [ 73.666782496288647, -53.075176270291983 ], [ 73.666756639633903, -53.075184095518402 ], [ 73.666631988291996, -53.075216050942387 ], [ 73.666481770231542, -53.075246439766516 ], [ 73.666390638808394, -53.075269893907794 ], [ 73.666331401759763, -53.075281688617132 ], [ 73.666181435012064, -53.075303932022457 ], [ 73.666031635001715, -53.075320776318947 ], [ 73.665881892131168, -53.075335768459446 ], [ 73.665815239305957, -53.075353343440078 ], [ 73.665731195072425, -53.075381618522712 ], [ 73.665580346173698, -53.075432368520048 ], [ 73.665556641314694, -53.075440343501988 ], [ 73.665429496922457, -53.075483118323476 ], [ 73.665298042287532, -53.075527342994043 ], [ 73.665278627139031, -53.075534520380884 ], [ 73.665127797362473, -53.075584617348539 ], [ 73.665039442224412, -53.075614341916186 ], [ 73.664976825735252, -53.075639288124265 ], [ 73.664826569491638, -53.075670824673651 ], [ 73.664737464270459, -53.075700853514043 ], [ 73.664675700012708, -53.075722172003829 ], [ 73.664634656084161, -53.075699699786384 ], [ 73.664529427409647, -53.07562496649701 ], [ 73.664524746428455, -53.075608566339191 ], [ 73.664383460825789, -53.075517894534862 ], [ 73.6643827478795, -53.075517072602722 ], [ 73.664373983941033, -53.075427074298034 ], [ 73.664324041380496, -53.075336613759134 ], [ 73.664389510875395, -53.075247448716702 ], [ 73.664391888452357, -53.07524559377768 ], [ 73.664468886974063, -53.075158439727176 ], [ 73.66452038758402, -53.075069117824853 ], [ 73.664547793548238, -53.075031479279595 ], [ 73.664587928273349, -53.074979975919632 ], [ 73.664646547323912, -53.074890733852826 ], [ 73.66464188193936, -53.074800781557187 ], [ 73.664633519292494, -53.07471078776679 ], [ 73.664624240149848, -53.074620783688701 ], [ 73.664610596312599, -53.074530730623927 ], [ 73.664613249662878, -53.074440860458751 ], [ 73.664715864846329, -53.074424112333048 ], [ 73.66486640455453, -53.07438327510522 ], [ 73.664916239306038, -53.074354360552036 ], [ 73.665017819125438, -53.074314146892718 ], [ 73.665133944022671, -53.07426690313681 ], [ 73.665168989114903, -53.074252910347745 ], [ 73.665319855188244, -53.074201486760352 ], [ 73.665357725877172, -53.074179513491629 ], [ 73.665471148463041, -53.074136236505176 ], [ 73.665571946731646, -53.074092016203643 ], [ 73.665622414097314, -53.074071865258261 ], [ 73.665772920399178, -53.074032040385688 ], [ 73.665922728805555, -53.074014782863635 ], [ 73.666070682127412, -53.074057538727715 ], [ 73.666219850588746, -53.074060986421948 ], [ 73.666370112677598, -53.074029044910901 ], [ 73.66647800618027, -53.074102174095295 ], [ 73.66651700455418, -53.074106168690982 ], [ 73.666523249183655, -53.074102681136594 ], [ 73.666668900660724, -53.074021336191961 ], [ 73.666681052323455, -53.074014549583453 ], [ 73.666820796170569, -53.073936503494068 ], [ 73.666838854819275, -53.073926417815649 ], [ 73.666972691083714, -53.073851670597293 ], [ 73.666996656671074, -53.073838285833197 ], [ 73.667124585400174, -53.073766837501658 ], [ 73.667154457878866, -53.073750153636105 ], [ 73.667275678468314, -53.073707931336308 ] ] } },
{ "type": "Feature", "properties": { "depth_m": 50.0, "survey_year": 2004, "name_1": "Brown" }, "geometry": { "type": "LineString", "coordinates": [ [ 73.663949244536894, -53.075077841356787 ], [ 73.664083997660569, -53.075154119096673 ], [ 73.664095671957398, -53.07516994456261 ], [ 73.664147609724964, -53.075244733206908 ], [ 73.664092028450042, -53.075287642830354 ], [ 73.664021814009686, -53.075243320867457 ], [ 73.663945018730132, -53.07521433538529 ], [ 73.663841584016254, -53.075151397208018 ], [ 73.663949244536894, -53.075077841356787 ] ] } }
]
}
