{
"type": "FeatureCollection",
"name": "Brown_lagoon_2003_shore_track",
"crs": { "type": "name", "properties": { "name": "urn:ogc:def:crs:OGC:1.3:CRS84" } },
"features": [
{ "type": "Feature", "properties": { "survey_date": "2003-12-25", "role": "partial shoreline survey; no zero-depth constraint" }, "geometry": { "type": "MultiLineString", "coordinates": [ [ [ 73.673211781237299, -53.07595041404916 ], [ 73.673210298785577, -53.075947309459814 ] ], [ [ 73.673210298785577, -53.075947309459814 ], [ 73.673211650330515, -53.075944912517556 ] ], [ [ 73.673211650330515, -53.075944912517556 ], [ 73.673212035494572, -53.075941610296354 ] ], [ [ 73.673212035494572, -53.075941610296354 ], [ 73.67320732909927, -53.075916979202837 ] ], [ [ 73.67320732909927, -53.075916979202837 ], [ 73.673203109636887, -53.07589738882838 ] ], [ [ 73.673203109636887, -53.07589738882838 ], [ 73.673204519704356, -53.075869540097045 ] ], [ [ 73.673204519704356, -53.075869540097045 ], [ 73.673205438724622, -53.075836687459237 ] ], [ [ 73.673205438724622, -53.075836687459237 ], [ 73.673168288097301, -53.075818643847242 ] ], [ [ 73.673168288097301, -53.075818643847242 ], [ 73.673133924897343, -53.075793307166549 ] ], [ [ 73.673133924897343, -53.075793307166549 ], [ 73.673100188446028, -53.075767590895445 ] ], [ [ 73.673100188446028, -53.075767590895445 ], [ 73.673066240508973, -53.075737344900126 ] ], [ [ 73.673066240508973, -53.075737344900126 ], [ 73.67301765145082, -53.075726557155726 ] ], [ [ 73.67301765145082, -53.075726557155726 ], [ 73.672969273925489, -53.07573015392704 ] ], [ [ 73.672969273925489, -53.07573015392704 ], [ 73.672911869466532, -53.07573593255885 ] ], [ [ 73.672911869466532, -53.07573593255885 ], [ 73.672863860619614, -53.075725501831904 ] ], [ [ 73.672863860619614, -53.075725501831904 ], [ 73.672812495068584, -53.075703450949703 ] ], [ [ 73.672812495068584, -53.075703450949703 ], [ 73.672774806151423, -53.075678261363521 ] ], [ [ 73.672774806151423, -53.075678261363521 ], [ 73.672766964274985, -53.075639873863338 ] ], [ [ 73.672766964274985, -53.075639873863338 ], [ 73.672773206763168, -53.075601105861345 ] ], [ [ 73.672773206763168, -53.075601105861345 ], [ 73.672777119383483, -53.075563441013259 ] ], [ [ 73.672777119383483, -53.075563441013259 ], [ 73.672738000782587, -53.075536931919515 ] ], [ [ 73.672738000782587, -53.075536931919515 ], [ 73.67268655516807, -53.07551336797237 ] ], [ [ 73.67268655516807, -53.07551336797237 ], [ 73.672651140553995, -53.075483065039407 ] ], [ [ 73.672651140553995, -53.075483065039407 ], [ 73.672630081495882, -53.0754498737342 ] ], [ [ 73.672630081495882, -53.0754498737342 ], [ 73.672610140279644, -53.075412906515425 ] ], [ [ 73.672610140279644, -53.075412906515425 ], [ 73.672584760732249, -53.075377690106258 ] ], [ [ 73.672584760732249, -53.075377690106258 ], [ 73.672592934205056, -53.075346034054299 ] ], [ [ 73.672592934205056, -53.075346034054299 ], [ 73.672639744880428, -53.075321536223875 ] ], [ [ 73.672639744880428, -53.075321536223875 ], [ 73.672696787705618, -53.075309395075166 ] ], [ [ 73.672696787705618, -53.075309395075166 ], [ 73.67275807731572, -53.075310850075589 ] ], [ [ 73.67275807731572, -53.075310850075589 ], [ 73.672816393426814, -53.075311426819972 ] ], [ [ 73.672816393426814, -53.075311426819972 ], [ 73.672866487537121, -53.075314178207869 ] ], [ [ 73.672866487537121, -53.075314178207869 ], [ 73.672893401540492, -53.075301251423085 ] ], [ [ 73.672893401540492, -53.075301251423085 ], [ 73.672911437621551, -53.075289401506843 ] ], [ [ 73.672911437621551, -53.075289401506843 ], [ 73.672912675604962, -53.075289872005321 ] ], [ [ 73.672912675604962, -53.075289872005321 ], [ 73.6729130133333, -53.075288112836006 ] ], [ [ 73.6729130133333, -53.075288112836006 ], [ 73.672916424435698, -53.075288401700618 ] ], [ [ 73.672916424435698, -53.075288401700618 ], [ 73.67291734692013, -53.07528456877057 ] ], [ [ 73.67291734692013, -53.07528456877057 ], [ 73.672919662968368, -53.075283088778953 ] ], [ [ 73.672919662968368, -53.075283088778953 ], [ 73.672917495805549, -53.075290746550635 ] ], [ [ 73.672917495805549, -53.075290746550635 ], [ 73.672926247473825, -53.075308726136214 ] ], [ [ 73.672926247473825, -53.075308726136214 ], [ 73.672965400473856, -53.075337317633554 ] ], [ [ 73.672965400473856, -53.075337317633554 ], [ 73.673010340983382, -53.075363727963037 ] ], [ [ 73.673010340983382, -53.075363727963037 ], [ 73.673060522128736, -53.075380594515195 ] ], [ [ 73.673060522128736, -53.075380594515195 ], [ 73.673127832840493, -53.07539421788838 ] ], [ [ 73.673127832840493, -53.07539421788838 ], [ 73.673168119242362, -53.075393575739255 ] ], [ [ 73.673168119242362, -53.075393575739255 ], [ 73.673179878723104, -53.075383064523514 ] ], [ [ 73.673179878723104, -53.075383064523514 ], [ 73.673185579933246, -53.075369996426041 ] ], [ [ 73.673185579933246, -53.075369996426041 ], [ 73.673167923493168, -53.075342407959148 ] ], [ [ 73.673167923493168, -53.075342407959148 ], [ 73.673122994625928, -53.075316199194937 ] ], [ [ 73.673122994625928, -53.075316199194937 ], [ 73.67308374087844, -53.075293648794947 ] ], [ [ 73.67308374087844, -53.075293648794947 ], [ 73.673035853947439, -53.075268781578643 ] ], [ [ 73.673035853947439, -53.075268781578643 ], [ 73.672995654100831, -53.075238455948238 ] ], [ [ 73.672995654100831, -53.075238455948238 ], [ 73.672952638222313, -53.075203443883353 ] ], [ [ 73.672952638222313, -53.075203443883353 ], [ 73.672900173205747, -53.075172019501011 ] ], [ [ 73.672900173205747, -53.075172019501011 ], [ 73.672826773220336, -53.075149581721881 ] ], [ [ 73.672826773220336, -53.075149581721881 ], [ 73.672759370583904, -53.075124255785454 ] ], [ [ 73.672759370583904, -53.075124255785454 ], [ 73.672694307305079, -53.07513086316132 ] ], [ [ 73.672694307305079, -53.07513086316132 ], [ 73.672632303331213, -53.075144633687835 ] ], [ [ 73.672632303331213, -53.075144633687835 ], [ 73.672567828578309, -53.075152974536159 ] ], [ [ 73.672567828578309, -53.075152974536159 ], [ 73.672497329599366, -53.075165854608869 ] ], [ [ 73.672497329599366, -53.075165854608869 ], [ 73.672429965214931, -53.075187233684275 ] ], [ [ 73.672429965214931, -53.075187233684275 ], [ 73.672359056875734, -53.07519968478087 ] ], [ [ 73.672359056875734, -53.07519968478087 ], [ 73.672294215837169, -53.075175093774504 ] ], [ [ 73.672294215837169, -53.075175093774504 ], [ 73.672265566429672, -53.075132779174304 ] ], [ [ 73.672265566429672, -53.075132779174304 ], [ 73.672251598093425, -53.07508999639181 ] ], [ [ 73.672251598093425, -53.07508999639181 ], [ 73.672238351863058, -53.075048052339731 ] ], [ [ 73.672238351863058, -53.075048052339731 ], [ 73.672217424480166, -53.075008900267278 ] ], [ [ 73.672217424480166, -53.075008900267278 ], [ 73.672200558958636, -53.074967857074299 ] ], [ [ 73.672200558958636, -53.074967857074299 ], [ 73.672169621435671, -53.074927286144529 ] ], [ [ 73.672169621435671, -53.074927286144529 ], [ 73.672167842087617, -53.074881388591159 ] ], [ [ 73.672167842087617, -53.074881388591159 ], [ 73.672124638572754, -53.074852071080279 ] ], [ [ 73.672124638572754, -53.074852071080279 ], [ 73.672109531818691, -53.07481024739117 ] ], [ [ 73.672109531818691, -53.07481024739117 ], [ 73.672102496993475, -53.074768020231616 ] ], [ [ 73.672102496993475, -53.074768020231616 ], [ 73.672054770266968, -53.074741039955796 ] ], [ [ 73.672054770266968, -53.074741039955796 ], [ 73.672024019566749, -53.074703236390086 ] ], [ [ 73.672024019566749, -53.074703236390086 ], [ 73.672023951791701, -53.074660420822681 ] ], [ [ 73.672023951791701, -53.074660420822681 ], [ 73.671996392761201, -53.07462465314179 ] ], [ [ 73.671996392761201, -53.07462465314179 ], [ 73.671932545509975, -53.074613303585821 ] ], [ [ 73.671932545509975, -53.074613303585821 ], [ 73.671908578069619, -53.074571427718709 ] ], [ [ 73.671908578069619, -53.074571427718709 ], [ 73.671881518738473, -53.074535580182499 ] ], [ [ 73.671881518738473, -53.074535580182499 ], [ 73.671830117301255, -53.074503067713188 ] ], [ [ 73.671830117301255, -53.074503067713188 ], [ 73.671799564567621, -53.074464615420929 ] ], [ [ 73.671799564567621, -53.074464615420929 ], [ 73.671770835364882, -53.074425069616495 ] ], [ [ 73.671770835364882, -53.074425069616495 ], [ 73.671738267626552, -53.074388408094968 ] ], [ [ 73.671738267626552, -53.074388408094968 ], [ 73.67170671170156, -53.074347489413178 ] ], [ [ 73.67170671170156, -53.074347489413178 ], [ 73.671671198756613, -53.07430302314993 ] ], [ [ 73.671671198756613, -53.07430302314993 ], [ 73.671630138927327, -53.074263305492913 ] ], [ [ 73.671630138927327, -53.074263305492913 ], [ 73.671594537294922, -53.074221143248209 ] ], [ [ 73.671594537294922, -53.074221143248209 ], [ 73.671550889430605, -53.074185636347366 ] ], [ [ 73.671550889430605, -53.074185636347366 ], [ 73.671501174569954, -53.074154365199178 ] ], [ [ 73.671501174569954, -53.074154365199178 ], [ 73.671475211679294, -53.074111674941229 ] ], [ [ 73.671475211679294, -53.074111674941229 ], [ 73.671452881218215, -53.074068288954756 ] ], [ [ 73.671452881218215, -53.074068288954756 ], [ 73.671430692952626, -53.074026395091302 ] ], [ [ 73.671430692952626, -53.074026395091302 ], [ 73.671419223682278, -53.073988007437642 ] ], [ [ 73.671419223682278, -53.073988007437642 ], [ 73.671434389139165, -53.073946430860886 ] ], [ [ 73.671434389139165, -53.073946430860886 ], [ 73.671405088330303, -53.073918540392036 ] ], [ [ 73.671405088330303, -53.073918540392036 ], [ 73.671351048764222, -53.073894514466204 ] ], [ [ 73.671351048764222, -53.073894514466204 ], [ 73.671310530621938, -53.073857879115657 ] ], [ [ 73.671310530621938, -53.073857879115657 ], [ 73.671269030723337, -53.073818273283251 ] ], [ [ 73.671269030723337, -53.073818273283251 ], [ 73.671249091172612, -53.073776077258593 ] ], [ [ 73.671249091172612, -53.073776077258593 ], [ 73.671215487514388, -53.073737311147916 ] ], [ [ 73.671215487514388, -53.073737311147916 ], [ 73.671195927648256, -53.073701403355656 ] ], [ [ 73.671195927648256, -53.073701403355656 ], [ 73.671181423188543, -53.073654846738741 ] ], [ [ 73.671181423188543, -53.073654846738741 ], [ 73.671183698328591, -53.073610722311358 ] ], [ [ 73.671183698328591, -53.073610722311358 ], [ 73.67117573625238, -53.073569314504233 ] ], [ [ 73.67117573625238, -53.073569314504233 ], [ 73.671159267257465, -53.073524993329961 ] ], [ [ 73.671159267257465, -53.073524993329961 ], [ 73.671128690380499, -53.07348780277799 ] ], [ [ 73.671128690380499, -53.07348780277799 ], [ 73.671096999468617, -53.073449562330822 ] ], [ [ 73.671096999468617, -53.073449562330822 ], [ 73.671068994695503, -53.073409850029073 ] ], [ [ 73.671068994695503, -53.073409850029073 ], [ 73.671039131986674, -53.07337855767004 ] ], [ [ 73.671039131986674, -53.07337855767004 ], [ 73.671006669920928, -53.073348350129976 ] ], [ [ 73.671006669920928, -53.073348350129976 ], [ 73.670967578990911, -53.073312365289688 ] ], [ [ 73.670967578990911, -53.073312365289688 ], [ 73.670941943429483, -53.073275947280536 ] ], [ [ 73.670941943429483, -53.073275947280536 ], [ 73.670894958084446, -53.073242370756056 ] ], [ [ 73.670894958084446, -53.073242370756056 ], [ 73.670856867186203, -53.073207897477751 ] ], [ [ 73.670856867186203, -53.073207897477751 ], [ 73.670807511385576, -53.073173308236484 ] ], [ [ 73.670807511385576, -53.073173308236484 ], [ 73.670769751942927, -53.073137188968794 ] ], [ [ 73.670769751942927, -53.073137188968794 ], [ 73.670701213724087, -53.073123476804327 ] ], [ [ 73.670701213724087, -53.073123476804327 ], [ 73.670638430167969, -53.073102246735878 ] ], [ [ 73.670638430167969, -53.073102246735878 ], [ 73.670597952485238, -53.073063275084984 ] ], [ [ 73.670597952485238, -53.073063275084984 ], [ 73.670558579344359, -53.073024453307703 ] ], [ [ 73.670558579344359, -53.073024453307703 ], [ 73.670524411077594, -53.072990341093977 ] ], [ [ 73.670524411077594, -53.072990341093977 ], [ 73.670497282152837, -53.072950764296763 ] ], [ [ 73.670497282152837, -53.072950764296763 ], [ 73.670458575403259, -53.072913575321039 ] ], [ [ 73.670458575403259, -53.072913575321039 ], [ 73.67040927259022, -53.072881405708358 ] ], [ [ 73.67040927259022, -53.072881405708358 ], [ 73.670367722502107, -53.072850947200656 ] ], [ [ 73.670367722502107, -53.072850947200656 ], [ 73.670344969315749, -53.072813489659104 ] ], [ [ 73.670344969315749, -53.072813489659104 ], [ 73.670321531560091, -53.07277596602772 ] ], [ [ 73.670321531560091, -53.07277596602772 ], [ 73.6702655894765, -53.072741518711986 ] ], [ [ 73.6702655894765, -53.072741518711986 ], [ 73.670188254832524, -53.072730929954766 ] ], [ [ 73.670188254832524, -53.072730929954766 ], [ 73.670131338336276, -53.07270471280966 ] ], [ [ 73.670131338336276, -53.07270471280966 ], [ 73.670084723962788, -53.072672120011326 ] ], [ [ 73.670084723962788, -53.072672120011326 ], [ 73.670035927071439, -53.072639341878293 ] ], [ [ 73.670035927071439, -53.072639341878293 ], [ 73.669981490732226, -53.072601287391102 ] ], [ [ 73.669981490732226, -53.072601287391102 ], [ 73.669934098190325, -53.072573802937036 ] ], [ [ 73.669934098190325, -53.072573802937036 ], [ 73.669883418847277, -53.072543507409783 ] ], [ [ 73.669883418847277, -53.072543507409783 ], [ 73.669831390704715, -53.072509659220053 ] ], [ [ 73.669831390704715, -53.072509659220053 ], [ 73.669790879540287, -53.072473703951637 ] ], [ [ 73.669790879540287, -53.072473703951637 ], [ 73.669745875353712, -53.072441044512175 ] ], [ [ 73.669745875353712, -53.072441044512175 ], [ 73.669709702656817, -53.072413012952076 ] ], [ [ 73.669709702656817, -53.072413012952076 ], [ 73.669675336634583, -53.0723844334128 ] ], [ [ 73.669675336634583, -53.0723844334128 ], [ 73.669642744528417, -53.072351477590907 ] ], [ [ 73.669642744528417, -53.072351477590907 ], [ 73.669620072269609, -53.072315975232563 ] ], [ [ 73.669620072269609, -53.072315975232563 ], [ 73.669571738790921, -53.072287073175779 ] ], [ [ 73.669571738790921, -53.072287073175779 ], [ 73.669512980151225, -53.072260408105763 ] ], [ [ 73.669512980151225, -53.072260408105763 ], [ 73.669489509272267, -53.072230673760416 ] ], [ [ 73.669489509272267, -53.072230673760416 ], [ 73.669455672859755, -53.072200563687851 ] ], [ [ 73.669455672859755, -53.072200563687851 ], [ 73.669432927222559, -53.072168756257341 ] ], [ [ 73.669432927222559, -53.072168756257341 ], [ 73.66941063625633, -53.072148831485222 ] ], [ [ 73.66941063625633, -53.072148831485222 ], [ 73.669373064881171, -53.072128271943114 ] ], [ [ 73.669373064881171, -53.072128271943114 ], [ 73.669334834425044, -53.072094716276261 ] ], [ [ 73.669334834425044, -53.072094716276261 ], [ 73.669297364576082, -53.072065928405429 ] ], [ [ 73.669297364576082, -53.072065928405429 ], [ 73.669263321065372, -53.072031650896101 ] ], [ [ 73.669263321065372, -53.072031650896101 ], [ 73.669232872716492, -53.072001415931126 ] ], [ [ 73.669232872716492, -53.072001415931126 ], [ 73.669210384133919, -53.071970284681242 ] ], [ [ 73.669210384133919, -53.071970284681242 ], [ 73.669176769636138, -53.071942865915183 ] ], [ [ 73.669176769636138, -53.071942865915183 ], [ 73.66913041363452, -53.071920144836106 ] ], [ [ 73.66913041363452, -53.071920144836106 ], [ 73.669081869371581, -53.071892778404937 ] ], [ [ 73.669081869371581, -53.071892778404937 ], [ 73.669042577032471, -53.071857174529377 ] ], [ [ 73.669042577032471, -53.071857174529377 ], [ 73.669003457966184, -53.071823311243392 ] ], [ [ 73.669003457966184, -53.071823311243392 ], [ 73.668980951365896, -53.071789868419025 ] ], [ [ 73.668980951365896, -53.071789868419025 ], [ 73.668968585047168, -53.071754714056844 ] ], [ [ 73.668968585047168, -53.071754714056844 ], [ 73.668945962051936, -53.071714834885469 ] ], [ [ 73.668945962051936, -53.071714834885469 ], [ 73.668912438188272, -53.071678584386603 ] ], [ [ 73.668912438188272, -53.071678584386603 ], [ 73.668882542716986, -53.071643796686921 ] ], [ [ 73.668882542716986, -53.071643796686921 ], [ 73.6688566757269, -53.071605968682171 ] ], [ [ 73.6688566757269, -53.071605968682171 ], [ 73.668828076292755, -53.071570202972026 ] ], [ [ 73.668828076292755, -53.071570202972026 ], [ 73.668796335490569, -53.071536158753702 ] ], [ [ 73.668796335490569, -53.071536158753702 ], [ 73.66875643374992, -53.07150256981059 ] ], [ [ 73.66875643374992, -53.07150256981059 ], [ 73.668717194140001, -53.071470986737815 ] ], [ [ 73.668717194140001, -53.071470986737815 ], [ 73.668676136604162, -53.071439933498418 ] ], [ [ 73.668676136604162, -53.071439933498418 ], [ 73.66863563306768, -53.071411149225014 ] ], [ [ 73.66863563306768, -53.071411149225014 ], [ 73.668590120248098, -53.071380331984741 ] ], [ [ 73.668590120248098, -53.071380331984741 ], [ 73.668544872525416, -53.071354036064498 ] ], [ [ 73.668544872525416, -53.071354036064498 ], [ 73.668500615856502, -53.071326437778872 ] ], [ [ 73.668500615856502, -53.071326437778872 ], [ 73.668461091986501, -53.071297741721395 ] ], [ [ 73.668461091986501, -53.071297741721395 ], [ 73.668418686078979, -53.071268990022823 ] ], [ [ 73.668418686078979, -53.071268990022823 ], [ 73.668387107120083, -53.071241667523665 ] ], [ [ 73.668387107120083, -53.071241667523665 ], [ 73.668365325108255, -53.071208857489829 ] ], [ [ 73.668365325108255, -53.071208857489829 ], [ 73.668326439874008, -53.071175772425853 ] ], [ [ 73.668326439874008, -53.071175772425853 ], [ 73.66829438131245, -53.071146969275063 ] ], [ [ 73.66829438131245, -53.071146969275063 ], [ 73.66824299570311, -53.071127560099079 ] ], [ [ 73.66824299570311, -53.071127560099079 ], [ 73.668197467044791, -53.071100564174223 ] ], [ [ 73.668197467044791, -53.071100564174223 ], [ 73.668148423816106, -53.071070986520269 ] ], [ [ 73.668148423816106, -53.071070986520269 ], [ 73.668110054164501, -53.071037068388002 ] ], [ [ 73.668110054164501, -53.071037068388002 ], [ 73.668082613328522, -53.070998180648218 ] ], [ [ 73.668082613328522, -53.070998180648218 ], [ 73.668056279522119, -53.070959165949155 ] ], [ [ 73.668056279522119, -53.070959165949155 ], [ 73.668016048050376, -53.070924108587747 ] ], [ [ 73.668016048050376, -53.070924108587747 ], [ 73.667963326827106, -53.070900833022243 ] ], [ [ 73.667963326827106, -53.070900833022243 ], [ 73.667908006620067, -53.070876891844129 ] ], [ [ 73.667908006620067, -53.070876891844129 ], [ 73.667861504371288, -53.070844555617555 ] ], [ [ 73.667861504371288, -53.070844555617555 ], [ 73.667809674106209, -53.070817953770302 ] ], [ [ 73.667809674106209, -53.070817953770302 ], [ 73.66775630299891, -53.070794463166173 ] ], [ [ 73.66775630299891, -53.070794463166173 ], [ 73.667707131594469, -53.070775006626626 ] ], [ [ 73.667707131594469, -53.070775006626626 ], [ 73.667664705069754, -53.070747584041577 ] ], [ [ 73.667664705069754, -53.070747584041577 ], [ 73.667636502116338, -53.07071077423852 ] ], [ [ 73.667636502116338, -53.07071077423852 ], [ 73.667607328952315, -53.070669420807413 ] ], [ [ 73.667607328952315, -53.070669420807413 ], [ 73.667570620745394, -53.070631316478739 ] ], [ [ 73.667570620745394, -53.070631316478739 ], [ 73.667529735787241, -53.070597384369179 ] ], [ [ 73.667529735787241, -53.070597384369179 ], [ 73.66748614436969, -53.070563609825911 ] ], [ [ 73.66748614436969, -53.070563609825911 ], [ 73.667441720032485, -53.070527227828634 ] ], [ [ 73.667441720032485, -53.070527227828634 ], [ 73.667386791548509, -53.07050053445694 ] ], [ [ 73.667386791548509, -53.07050053445694 ], [ 73.667333344113487, -53.070471027596717 ] ], [ [ 73.667333344113487, -53.070471027596717 ], [ 73.667285869478164, -53.070440675128047 ] ], [ [ 73.667285869478164, -53.070440675128047 ], [ 73.667238497183348, -53.070408992367661 ] ], [ [ 73.667238497183348, -53.070408992367661 ], [ 73.667187462798864, -53.070377720763148 ] ], [ [ 73.667187462798864, -53.070377720763148 ], [ 73.667150976002176, -53.070347982175264 ] ], [ [ 73.667150976002176, -53.070347982175264 ], [ 73.667096422679478, -53.070324475328526 ] ], [ [ 73.667096422679478, -53.070324475328526 ], [ 73.667052389562087, -53.070297531668103 ] ], [ [ 73.667052389562087, -53.070297531668103 ], [ 73.667011147198053, -53.070274084001667 ] ], [ [ 73.667011147198053, -53.070274084001667 ], [ 73.666960989704492, -53.070244539211359 ] ], [ [ 73.666960989704492, -53.070244539211359 ], [ 73.666907236837716, -53.070225520960442 ] ], [ [ 73.666907236837716, -53.070225520960442 ], [ 73.666859969843586, -53.070198515822604 ] ], [ [ 73.666859969843586, -53.070198515822604 ], [ 73.666800827088025, -53.070183755028054 ] ], [ [ 73.666800827088025, -53.070183755028054 ], [ 73.666757081567255, -53.070158673610308 ] ], [ [ 73.666757081567255, -53.070158673610308 ], [ 73.666712125884146, -53.070127494184383 ] ], [ [ 73.666712125884146, -53.070127494184383 ], [ 73.666657849248281, -53.070101183556119 ] ], [ [ 73.666657849248281, -53.070101183556119 ], [ 73.666603144379167, -53.070083663918261 ] ], [ [ 73.666603144379167, -53.070083663918261 ], [ 73.666550849651699, -53.07005582018116 ] ], [ [ 73.666550849651699, -53.07005582018116 ], [ 73.66649499510865, -53.070026044129023 ] ], [ [ 73.66649499510865, -53.070026044129023 ], [ 73.666438276609384, -53.069999402169479 ] ], [ [ 73.666438276609384, -53.069999402169479 ], [ 73.666387628570774, -53.069968752157735 ] ], [ [ 73.666387628570774, -53.069968752157735 ], [ 73.666331399187413, -53.069940777017692 ] ], [ [ 73.666331399187413, -53.069940777017692 ], [ 73.666292703597819, -53.06990700296285 ] ], [ [ 73.666292703597819, -53.06990700296285 ], [ 73.6662438601345, -53.069875924515458 ] ], [ [ 73.6662438601345, -53.069875924515458 ], [ 73.666182179360121, -53.069849756316643 ] ], [ [ 73.666182179360121, -53.069849756316643 ], [ 73.666147390596606, -53.069816642723417 ] ], [ [ 73.666147390596606, -53.069816642723417 ], [ 73.666096055806335, -53.069789392095572 ] ], [ [ 73.666096055806335, -53.069789392095572 ], [ 73.666043958255145, -53.069760116436598 ] ], [ [ 73.666043958255145, -53.069760116436598 ], [ 73.665983400803512, -53.069725718695054 ] ], [ [ 73.665983400803512, -53.069725718695054 ], [ 73.665915097052647, -53.069697061384893 ] ], [ [ 73.665915097052647, -53.069697061384893 ], [ 73.665853686654401, -53.069671625133395 ] ], [ [ 73.665853686654401, -53.069671625133395 ], [ 73.665794763904344, -53.06964654577903 ] ], [ [ 73.665794763904344, -53.06964654577903 ], [ 73.665732428810159, -53.069621091003945 ] ], [ [ 73.665732428810159, -53.069621091003945 ], [ 73.665669913097744, -53.069600660479331 ] ], [ [ 73.665669913097744, -53.069600660479331 ], [ 73.665623410872215, -53.069571366471813 ] ], [ [ 73.665623410872215, -53.069571366471813 ], [ 73.66556055772773, -53.069548094860529 ] ], [ [ 73.66556055772773, -53.069548094860529 ], [ 73.665506986092396, -53.069520027766565 ] ], [ [ 73.665506986092396, -53.069520027766565 ], [ 73.665449116784643, -53.069498882391031 ] ], [ [ 73.665449116784643, -53.069498882391031 ], [ 73.665383147201169, -53.06948859954349 ] ], [ [ 73.665383147201169, -53.06948859954349 ], [ 73.665326855111857, -53.069466410080423 ] ], [ [ 73.665326855111857, -53.069466410080423 ], [ 73.665281438738617, -53.069439372920499 ] ], [ [ 73.665281438738617, -53.069439372920499 ], [ 73.665242368504352, -53.069409935583856 ] ], [ [ 73.665242368504352, -53.069409935583856 ], [ 73.665192662927609, -53.069390898121064 ] ], [ [ 73.665192662927609, -53.069390898121064 ], [ 73.665154569201732, -53.069362804028088 ] ], [ [ 73.665154569201732, -53.069362804028088 ], [ 73.66512500423039, -53.069328916258677 ] ], [ [ 73.66512500423039, -53.069328916258677 ], [ 73.665076104583775, -53.069300812381748 ] ], [ [ 73.665076104583775, -53.069300812381748 ], [ 73.665020822561715, -53.06927618792438 ] ], [ [ 73.665020822561715, -53.06927618792438 ], [ 73.664955839752807, -53.069255296919223 ] ], [ [ 73.664955839752807, -53.069255296919223 ], [ 73.664893898823749, -53.069231947084134 ] ], [ [ 73.664893898823749, -53.069231947084134 ], [ 73.66483095239974, -53.069216544781554 ] ], [ [ 73.66483095239974, -53.069216544781554 ], [ 73.664774356227809, -53.06920719745419 ] ], [ [ 73.664774356227809, -53.06920719745419 ], [ 73.66471003646987, -53.069197447871595 ] ], [ [ 73.66471003646987, -53.069197447871595 ], [ 73.664637291176177, -53.069192183199085 ] ], [ [ 73.664637291176177, -53.069192183199085 ], [ 73.664563038931291, -53.069193558664587 ] ], [ [ 73.664563038931291, -53.069193558664587 ], [ 73.664490889361389, -53.069212988033456 ] ], [ [ 73.664490889361389, -53.069212988033456 ], [ 73.664430301656239, -53.069240171562441 ] ], [ [ 73.664430301656239, -53.069240171562441 ], [ 73.664400937632195, -53.069279788121982 ] ], [ [ 73.664400937632195, -53.069279788121982 ], [ 73.664377287638118, -53.069322332132749 ] ], [ [ 73.664377287638118, -53.069322332132749 ], [ 73.66435718238607, -53.069361888997101 ] ], [ [ 73.66435718238607, -53.069361888997101 ], [ 73.664325980166467, -53.069398729467608 ] ], [ [ 73.664325980166467, -53.069398729467608 ], [ 73.66428358830828, -53.069426490270978 ] ], [ [ 73.66428358830828, -53.069426490270978 ], [ 73.664238870543102, -53.069451128790703 ] ], [ [ 73.664238870543102, -53.069451128790703 ], [ 73.664185202800411, -53.069469363921741 ] ], [ [ 73.664185202800411, -53.069469363921741 ], [ 73.66412131130889, -53.069479527190211 ] ], [ [ 73.66412131130889, -53.069479527190211 ], [ 73.664067900309846, -53.069500073783807 ] ], [ [ 73.664067900309846, -53.069500073783807 ], [ 73.66400746849655, -53.069528853676154 ] ], [ [ 73.66400746849655, -53.069528853676154 ], [ 73.663973361733539, -53.069553044872478 ] ], [ [ 73.663973361733539, -53.069553044872478 ], [ 73.663933985529894, -53.069585402739726 ] ], [ [ 73.663933985529894, -53.069585402739726 ], [ 73.663891359281919, -53.069610257900976 ] ], [ [ 73.663891359281919, -53.069610257900976 ], [ 73.6638436542504, -53.069634274781663 ] ], [ [ 73.6638436542504, -53.069634274781663 ], [ 73.663796705247577, -53.069662700739876 ] ], [ [ 73.663796705247577, -53.069662700739876 ], [ 73.663750218943974, -53.069690112409937 ] ], [ [ 73.663750218943974, -53.069690112409937 ], [ 73.663682789412078, -53.069713442023087 ] ], [ [ 73.663682789412078, -53.069713442023087 ], [ 73.663634729629251, -53.0697452455723 ] ], [ [ 73.663634729629251, -53.0697452455723 ], [ 73.663587814834329, -53.069775547147479 ] ], [ [ 73.663587814834329, -53.069775547147479 ], [ 73.663539054516178, -53.069809001445364 ] ], [ [ 73.663539054516178, -53.069809001445364 ], [ 73.66348609921944, -53.069841079879424 ] ], [ [ 73.66348609921944, -53.069841079879424 ], [ 73.663440213540525, -53.069873761822471 ] ], [ [ 73.663440213540525, -53.069873761822471 ], [ 73.663403443895504, -53.069912203562438 ] ], [ [ 73.663403443895504, -53.069912203562438 ], [ 73.663359195859798, -53.069947186432678 ] ], [ [ 73.663359195859798, -53.069947186432678 ], [ 73.663329153339177, -53.06997497415432 ] ], [ [ 73.663329153339177, -53.06997497415432 ], [ 73.663288893114725, -53.070000617135229 ] ], [ [ 73.663288893114725, -53.070000617135229 ], [ 73.663234044184335, -53.070025870550424 ] ], [ [ 73.663234044184335, -53.070025870550424 ], [ 73.663174617238568, -53.070049922683083 ] ], [ [ 73.663174617238568, -53.070049922683083 ], [ 73.663142603288549, -53.070086561340254 ] ], [ [ 73.663142603288549, -53.070086561340254 ], [ 73.663105834214676, -53.07011807889586 ] ], [ [ 73.663105834214676, -53.07011807889586 ], [ 73.663063473747741, -53.070150801203418 ] ], [ [ 73.663063473747741, -53.070150801203418 ], [ 73.663000711632336, -53.070166433496581 ] ], [ [ 73.663000711632336, -53.070166433496581 ], [ 73.662938121649987, -53.070180603219804 ] ], [ [ 73.662938121649987, -53.070180603219804 ], [ 73.66289302021103, -53.070217431864663 ] ], [ [ 73.66289302021103, -53.070217431864663 ], [ 73.662851698027509, -53.070252718027255 ] ], [ [ 73.662851698027509, -53.070252718027255 ], [ 73.662792944287119, -53.0702730421906 ] ], [ [ 73.662792944287119, -53.0702730421906 ], [ 73.662737603739075, -53.070302387496788 ] ], [ [ 73.662737603739075, -53.070302387496788 ], [ 73.662703760369823, -53.070333209621545 ] ], [ [ 73.662703760369823, -53.070333209621545 ], [ 73.662657928016145, -53.070362833466291 ] ], [ [ 73.662657928016145, -53.070362833466291 ], [ 73.66260350702531, -53.070388170515294 ] ], [ [ 73.66260350702531, -53.070388170515294 ], [ 73.662552925493969, -53.070415370274283 ] ], [ [ 73.662552925493969, -53.070415370274283 ], [ 73.662514129645132, -53.070442522695359 ] ], [ [ 73.662514129645132, -53.070442522695359 ], [ 73.662496876726522, -53.070459514941419 ] ], [ [ 73.662496876726522, -53.070459514941419 ], [ 73.662474582467922, -53.070478938946337 ] ], [ [ 73.662474582467922, -53.070478938946337 ], [ 73.662436383014139, -53.070511262802889 ] ], [ [ 73.662436383014139, -53.070511262802889 ], [ 73.662384240664494, -53.07053771675448 ] ], [ [ 73.662384240664494, -53.07053771675448 ], [ 73.662353223985576, -53.070563286234979 ] ], [ [ 73.662353223985576, -53.070563286234979 ], [ 73.662305079821024, -53.07057968932849 ] ], [ [ 73.662305079821024, -53.07057968932849 ], [ 73.662260336092331, -53.070606293831844 ] ], [ [ 73.662260336092331, -53.070606293831844 ], [ 73.662219353709673, -53.070623990162794 ] ], [ [ 73.662219353709673, -53.070623990162794 ], [ 73.662168682739065, -53.070646979635193 ] ], [ [ 73.662168682739065, -53.070646979635193 ], [ 73.662123948484052, -53.070666242958303 ] ], [ [ 73.662123948484052, -53.070666242958303 ], [ 73.662081396483686, -53.070687093265754 ] ], [ [ 73.662081396483686, -53.070687093265754 ], [ 73.662045743643489, -53.070717373438214 ] ], [ [ 73.662045743643489, -53.070717373438214 ], [ 73.662022719073576, -53.070744118695934 ] ], [ [ 73.662022719073576, -53.070744118695934 ], [ 73.661987236508352, -53.070764088334087 ] ], [ [ 73.661987236508352, -53.070764088334087 ], [ 73.661942768850665, -53.070781341726139 ] ], [ [ 73.661942768850665, -53.070781341726139 ], [ 73.661892931852918, -53.070795185941314 ] ], [ [ 73.661892931852918, -53.070795185941314 ], [ 73.661851096943366, -53.070810519875174 ] ], [ [ 73.661851096943366, -53.070810519875174 ], [ 73.661804425670965, -53.070835632664988 ] ], [ [ 73.661804425670965, -53.070835632664988 ], [ 73.661766617780984, -53.070855300991042 ] ], [ [ 73.661766617780984, -53.070855300991042 ], [ 73.661767465128221, -53.070888726360394 ] ], [ [ 73.661767465128221, -53.070888726360394 ], [ 73.661726133412444, -53.07088696063262 ] ], [ [ 73.661726133412444, -53.07088696063262 ], [ 73.661674102859848, -53.070908528567792 ] ], [ [ 73.661674102859848, -53.070908528567792 ], [ 73.661642965948332, -53.07093487234976 ] ], [ [ 73.661642965948332, -53.07093487234976 ], [ 73.661596975282933, -53.070955838434443 ] ], [ [ 73.661596975282933, -53.070955838434443 ], [ 73.66155145168905, -53.070976710865558 ] ], [ [ 73.66155145168905, -53.070976710865558 ], [ 73.661490109492092, -53.070994775752581 ] ], [ [ 73.661490109492092, -53.070994775752581 ], [ 73.661454496789162, -53.071023932450835 ] ], [ [ 73.661454496789162, -53.071023932450835 ], [ 73.661477489622399, -53.071057716631657 ] ], [ [ 73.661477489622399, -53.071057716631657 ], [ 73.661458596320628, -53.071081520878757 ] ], [ [ 73.661458596320628, -53.071081520878757 ], [ 73.661461541357085, -53.071110830851687 ] ], [ [ 73.661461541357085, -53.071110830851687 ], [ 73.661478242973956, -53.071134980692243 ] ], [ [ 73.661478242973956, -53.071134980692243 ], [ 73.661464664091056, -53.071162759871314 ] ], [ [ 73.661464664091056, -53.071162759871314 ], [ 73.661456743997974, -53.07118307358229 ] ], [ [ 73.661456743997974, -53.07118307358229 ], [ 73.661467697292494, -53.071215458326357 ] ], [ [ 73.661467697292494, -53.071215458326357 ], [ 73.661450931859235, -53.071244286749135 ] ], [ [ 73.661450931859235, -53.071244286749135 ], [ 73.661462417989824, -53.071275133005273 ] ], [ [ 73.661462417989824, -53.071275133005273 ], [ 73.661484184132249, -53.071293222122115 ] ], [ [ 73.661484184132249, -53.071293222122115 ], [ 73.661526054563097, -53.071310551190678 ] ], [ [ 73.661526054563097, -53.071310551190678 ], [ 73.661532754727958, -53.071349646766784 ] ], [ [ 73.661532754727958, -53.071349646766784 ], [ 73.661540035213321, -53.071392603783103 ] ], [ [ 73.661540035213321, -53.071392603783103 ], [ 73.661524241604795, -53.07142648204367 ] ], [ [ 73.661524241604795, -53.07142648204367 ], [ 73.661519704796518, -53.071459520507922 ] ], [ [ 73.661519704796518, -53.071459520507922 ], [ 73.661517000070774, -53.071484261132788 ] ], [ [ 73.661517000070774, -53.071484261132788 ], [ 73.661515337514174, -53.071507259531813 ] ], [ [ 73.661515337514174, -53.071507259531813 ], [ 73.661485792957066, -53.071530082720855 ] ], [ [ 73.661485792957066, -53.071530082720855 ], [ 73.661434495053129, -53.071517650517436 ] ], [ [ 73.661434495053129, -53.071517650517436 ], [ 73.661416689861113, -53.07150183907023 ] ], [ [ 73.661416689861113, -53.07150183907023 ], [ 73.66138114080438, -53.071494902503829 ] ], [ [ 73.66138114080438, -53.071494902503829 ], [ 73.661346132923541, -53.071501510958321 ] ], [ [ 73.661346132923541, -53.071501510958321 ], [ 73.661308511818689, -53.071515901413861 ] ], [ [ 73.661308511818689, -53.071515901413861 ], [ 73.661276482973349, -53.071518958152289 ] ], [ [ 73.661276482973349, -53.071518958152289 ], [ 73.661242386701304, -53.071524760540974 ] ], [ [ 73.661242386701304, -53.071524760540974 ], [ 73.66120777162007, -53.071541561743871 ] ], [ [ 73.66120777162007, -53.071541561743871 ], [ 73.661196897475662, -53.07155287287361 ] ], [ [ 73.661196897475662, -53.07155287287361 ], [ 73.661199082580708, -53.071550664343775 ] ], [ [ 73.661199082580708, -53.071550664343775 ], [ 73.661199051126957, -53.071551100903967 ] ], [ [ 73.661199051126957, -53.071551100903967 ], [ 73.661198622049739, -53.071550497341882 ] ], [ [ 73.661198622049739, -53.071550497341882 ], [ 73.661198955538694, -53.071550621560306 ] ], [ [ 73.661198955538694, -53.071550621560306 ], [ 73.661198602208827, -53.071550703888683 ] ], [ [ 73.661198602208827, -53.071550703888683 ], [ 73.661198916477389, -53.071550581564772 ] ], [ [ 73.661198916477389, -53.071550581564772 ], [ 73.661196798869483, -53.071552923906111 ] ], [ [ 73.661196798869483, -53.071552923906111 ], [ 73.661197719137363, -53.071551503052596 ] ], [ [ 73.661197719137363, -53.071551503052596 ], [ 73.661197656805001, -53.071552598232472 ] ], [ [ 73.661197656805001, -53.071552598232472 ], [ 73.661151174069744, -53.071552299053373 ] ], [ [ 73.661151174069744, -53.071552299053373 ], [ 73.661102543135968, -53.071549794708488 ] ], [ [ 73.661102543135968, -53.071549794708488 ], [ 73.661053382267539, -53.071553643008791 ] ], [ [ 73.661053382267539, -53.071553643008791 ], [ 73.661030656566552, -53.071570816188029 ] ], [ [ 73.661030656566552, -53.071570816188029 ], [ 73.660990661484163, -53.071588493543295 ] ], [ [ 73.660990661484163, -53.071588493543295 ], [ 73.660997286804417, -53.071603043803833 ] ], [ [ 73.660997286804417, -53.071603043803833 ], [ 73.661017300104604, -53.071625043708401 ] ], [ [ 73.661017300104604, -53.071625043708401 ], [ 73.661068511850956, -53.071636885377821 ] ], [ [ 73.661068511850956, -53.071636885377821 ], [ 73.661131646024074, -53.071625182416348 ] ], [ [ 73.661131646024074, -53.071625182416348 ], [ 73.661178357325852, -53.071617682650853 ] ], [ [ 73.661178357325852, -53.071617682650853 ], [ 73.661208152200388, -53.071602917395694 ] ], [ [ 73.661208152200388, -53.071602917395694 ], [ 73.661231530123558, -53.071582231935736 ] ], [ [ 73.661231530123558, -53.071582231935736 ], [ 73.661270154757375, -53.071567011331126 ] ], [ [ 73.661270154757375, -53.071567011331126 ], [ 73.661281572668372, -53.071566946512242 ] ], [ [ 73.661281572668372, -53.071566946512242 ], [ 73.661281999005126, -53.071567060987086 ] ], [ [ 73.661281999005126, -53.071567060987086 ], [ 73.661281696573752, -53.071567042301346 ] ], [ [ 73.661281696573752, -53.071567042301346 ], [ 73.661281646767137, -53.071566578755863 ] ], [ [ 73.661281646767137, -53.071566578755863 ], [ 73.661280253841269, -53.071568031151031 ] ], [ [ 73.660860005667729, -53.071756625797505 ], [ 73.660815187348902, -53.071770027105003 ] ], [ [ 73.660815187348902, -53.071770027105003 ], [ 73.660804590334806, -53.071777212210449 ] ], [ [ 73.660804590334806, -53.071777212210449 ], [ 73.660804567090508, -53.071777624589934 ] ], [ [ 73.660804567090508, -53.071777624589934 ], [ 73.660805100025755, -53.071777671043236 ] ], [ [ 73.660805100025755, -53.071777671043236 ], [ 73.660805385289407, -53.071777329037864 ] ], [ [ 73.660805385289407, -53.071777329037864 ], [ 73.660796579167382, -53.07177192042748 ] ], [ [ 73.660796579167382, -53.07177192042748 ], [ 73.660779155061903, -53.071750470149759 ] ], [ [ 73.660779155061903, -53.071750470149759 ], [ 73.660725370659037, -53.071767321556869 ] ], [ [ 73.660725370659037, -53.071767321556869 ], [ 73.660651689260945, -53.071790654613501 ] ], [ [ 73.660651689260945, -53.071790654613501 ], [ 73.660588443642737, -53.071800790008808 ] ], [ [ 73.660588443642737, -53.071800790008808 ], [ 73.660532853098118, -53.071808402649197 ] ], [ [ 73.660532853098118, -53.071808402649197 ], [ 73.660507840355734, -53.071842839555593 ] ], [ [ 73.660507840355734, -53.071842839555593 ], [ 73.660489694321569, -53.071870192325541 ] ], [ [ 73.660489694321569, -53.071870192325541 ], [ 73.660474202582421, -53.07189921744817 ] ], [ [ 73.660474202582421, -53.07189921744817 ], [ 73.660474221080008, -53.071942820066276 ] ], [ [ 73.660474221080008, -53.071942820066276 ], [ 73.660478296855317, -53.071984300871229 ] ], [ [ 73.660478296855317, -53.071984300871229 ], [ 73.66047155470676, -53.072024498379825 ] ], [ [ 73.66047155470676, -53.072024498379825 ], [ 73.660454157081631, -53.072064093164428 ] ], [ [ 73.660454157081631, -53.072064093164428 ], [ 73.660466736567841, -53.072105673300591 ] ], [ [ 73.660466736567841, -53.072105673300591 ], [ 73.660505054468047, -53.072143116516152 ] ], [ [ 73.660505054468047, -53.072143116516152 ], [ 73.660523330034863, -53.072189941708075 ] ], [ [ 73.660523330034863, -53.072189941708075 ], [ 73.660559865630134, -53.072226909047394 ] ], [ [ 73.660559865630134, -53.072226909047394 ], [ 73.660549044415987, -53.072260648071435 ] ], [ [ 73.660549044415987, -53.072260648071435 ], [ 73.660558135968785, -53.072298129046374 ] ], [ [ 73.660558135968785, -53.072298129046374 ], [ 73.660613262978231, -53.072289792872681 ] ], [ [ 73.660613262978231, -53.072289792872681 ], [ 73.660663403282243, -53.072272353003974 ] ], [ [ 73.660663403282243, -53.072272353003974 ], [ 73.660654017644234, -53.072300142431317 ] ], [ [ 73.660654017644234, -53.072300142431317 ], [ 73.660639130472077, -53.072339410394584 ] ], [ [ 73.660639130472077, -53.072339410394584 ], [ 73.660638050564557, -53.072380750447181 ] ], [ [ 73.660638050564557, -53.072380750447181 ], [ 73.660619713961751, -53.072404426876581 ] ], [ [ 73.660619713961751, -53.072404426876581 ], [ 73.660588133084943, -53.072426598521368 ] ], [ [ 73.660588133084943, -53.072426598521368 ], [ 73.660588532420064, -53.072459760838719 ] ], [ [ 73.660588532420064, -53.072459760838719 ], [ 73.660652509311362, -53.072445572887645 ] ], [ [ 73.660652509311362, -53.072445572887645 ], [ 73.660696848927728, -53.072425543316974 ] ], [ [ 73.660696848927728, -53.072425543316974 ], [ 73.660709290265558, -53.072414729040098 ] ], [ [ 73.660709290265558, -53.072414729040098 ], [ 73.66070908681246, -53.07241431051299 ] ], [ [ 73.66070908681246, -53.07241431051299 ], [ 73.660709354635785, -53.07241409776757 ] ], [ [ 73.660709354635785, -53.07241409776757 ], [ 73.660709310679707, -53.072414167394811 ] ], [ [ 73.660709310679707, -53.072414167394811 ], [ 73.660718209997327, -53.072417201901153 ] ], [ [ 73.660718209997327, -53.072417201901153 ], [ 73.660780284881838, -53.072442370476296 ] ], [ [ 73.660780284881838, -53.072442370476296 ], [ 73.660772446021824, -53.072485783963515 ] ], [ [ 73.660772446021824, -53.072485783963515 ], [ 73.660786813503094, -53.072532388919107 ] ], [ [ 73.660786813503094, -53.072532388919107 ], [ 73.660800035436509, -53.072580843707335 ] ], [ [ 73.660800035436509, -53.072580843707335 ], [ 73.660813775437362, -53.072631749604682 ] ], [ [ 73.660813775437362, -53.072631749604682 ], [ 73.660869066563777, -53.072667013965045 ] ], [ [ 73.660869066563777, -53.072667013965045 ], [ 73.660946078118442, -53.072683707568778 ] ], [ [ 73.660946078118442, -53.072683707568778 ], [ 73.661020194099436, -53.072703858455796 ] ], [ [ 73.661020194099436, -53.072703858455796 ], [ 73.661096821771054, -53.072723739990458 ] ], [ [ 73.661096821771054, -53.072723739990458 ], [ 73.661159927148844, -53.072755889906084 ] ], [ [ 73.661159927148844, -53.072755889906084 ], [ 73.661220866055999, -53.072788397486349 ] ], [ [ 73.661220866055999, -53.072788397486349 ], [ 73.661269731158853, -53.072826996563819 ] ], [ [ 73.661269731158853, -53.072826996563819 ], [ 73.661315104377451, -53.07287119486211 ] ], [ [ 73.661315104377451, -53.07287119486211 ], [ 73.661366682469534, -53.07291328916763 ] ], [ [ 73.661366682469534, -53.07291328916763 ], [ 73.66141390675142, -53.072954602683865 ] ], [ [ 73.66141390675142, -53.072954602683865 ], [ 73.661445145548853, -53.072989758899084 ] ], [ [ 73.661445145548853, -53.072989758899084 ], [ 73.66145921336836, -53.073029545974521 ] ], [ [ 73.66145921336836, -53.073029545974521 ], [ 73.661463413608644, -53.073074988228356 ] ], [ [ 73.661463413608644, -53.073074988228356 ], [ 73.661461920065904, -53.073116550174589 ] ], [ [ 73.661461920065904, -53.073116550174589 ], [ 73.661469863570844, -53.073156569516783 ] ], [ [ 73.661469863570844, -53.073156569516783 ], [ 73.66149604108719, -53.07319440983057 ] ], [ [ 73.66149604108719, -53.07319440983057 ], [ 73.661520966312381, -53.073224595450675 ] ], [ [ 73.661520966312381, -53.073224595450675 ], [ 73.661533555357252, -53.073253011511277 ] ], [ [ 73.661533555357252, -53.073253011511277 ], [ 73.661536393408255, -53.073265705850169 ] ], [ [ 73.661536393408255, -53.073265705850169 ], [ 73.661537022547506, -53.073271940299755 ] ], [ [ 73.661537022547506, -53.073271940299755 ], [ 73.661536050320848, -53.073277153451819 ] ], [ [ 73.661536050320848, -53.073277153451819 ], [ 73.661540221327414, -53.073288501698968 ] ], [ [ 73.661540221327414, -53.073288501698968 ], [ 73.66153903662935, -53.073289110480403 ] ], [ [ 73.66153903662935, -53.073289110480403 ], [ 73.661543370425392, -53.07329607613601 ] ], [ [ 73.661543370425392, -53.07329607613601 ], [ 73.661544134375916, -53.073295990334579 ] ], [ [ 73.661544134375916, -53.073295990334579 ], [ 73.661550405356095, -53.073305182128742 ] ], [ [ 73.661550405356095, -53.073305182128742 ], [ 73.661556865047118, -53.073334039870382 ] ], [ [ 73.661556865047118, -53.073334039870382 ], [ 73.66156763640906, -53.073374716717687 ] ], [ [ 73.66156763640906, -53.073374716717687 ], [ 73.661578244175075, -53.07341884028704 ] ], [ [ 73.661578244175075, -53.07341884028704 ], [ 73.661586484317098, -53.073463691483866 ] ], [ [ 73.661586484317098, -53.073463691483866 ], [ 73.661579417620516, -53.073512453759079 ] ], [ [ 73.661579417620516, -53.073512453759079 ], [ 73.661584123597208, -53.073565179097052 ] ], [ [ 73.661584123597208, -53.073565179097052 ], [ 73.66158468507669, -53.073616145220534 ] ], [ [ 73.66158468507669, -53.073616145220534 ], [ 73.661577270446159, -53.073662167025233 ] ], [ [ 73.661577270446159, -53.073662167025233 ], [ 73.661567780356322, -53.073709794471021 ] ], [ [ 73.661567780356322, -53.073709794471021 ], [ 73.661549537734658, -53.073754937515616 ] ], [ [ 73.661549537734658, -53.073754937515616 ], [ 73.661531836864128, -53.073785162354909 ] ], [ [ 73.661531836864128, -53.073785162354909 ], [ 73.661516014652364, -53.073826430961702 ] ], [ [ 73.661516014652364, -53.073826430961702 ], [ 73.661539169236249, -53.073866792212272 ] ], [ [ 73.661539169236249, -53.073866792212272 ], [ 73.661538515198515, -53.073905496686933 ] ], [ [ 73.661538515198515, -53.073905496686933 ], [ 73.661535971344321, -53.073946030044809 ] ], [ [ 73.661535971344321, -53.073946030044809 ], [ 73.661531334414306, -53.073986330390753 ] ], [ [ 73.661531334414306, -53.073986330390753 ], [ 73.661517404571413, -53.074028573223522 ] ], [ [ 73.661517404571413, -53.074028573223522 ], [ 73.661501781679902, -53.074074962974386 ] ], [ [ 73.661501781679902, -53.074074962974386 ], [ 73.661496615813206, -53.074123893160412 ] ], [ [ 73.661496615813206, -53.074123893160412 ], [ 73.661495599402883, -53.07417211396492 ] ], [ [ 73.661495599402883, -53.07417211396492 ], [ 73.661503979362635, -53.074221121911627 ] ], [ [ 73.661503979362635, -53.074221121911627 ], [ 73.661544435526466, -53.074260221403186 ] ], [ [ 73.661544435526466, -53.074260221403186 ], [ 73.661565470088988, -53.074304932430934 ] ], [ [ 73.661565470088988, -53.074304932430934 ], [ 73.661568366148657, -53.074337851317821 ] ], [ [ 73.661568366148657, -53.074337851317821 ], [ 73.661564865849172, -53.074362583883129 ] ], [ [ 73.661564865849172, -53.074362583883129 ], [ 73.661563842385959, -53.074405017745278 ] ], [ [ 73.661563842385959, -53.074405017745278 ], [ 73.661547317541149, -53.074453869603396 ] ], [ [ 73.661547317541149, -53.074453869603396 ], [ 73.661536123931597, -53.074499429058882 ] ], [ [ 73.661536123931597, -53.074499429058882 ], [ 73.661509828773291, -53.074539764460582 ] ], [ [ 73.661509828773291, -53.074539764460582 ], [ 73.661498574107142, -53.074587001657882 ] ], [ [ 73.661498574107142, -53.074587001657882 ], [ 73.661504891936389, -53.074631411394201 ] ], [ [ 73.661504891936389, -53.074631411394201 ], [ 73.661509892245235, -53.074671903751266 ] ], [ [ 73.661509892245235, -53.074671903751266 ], [ 73.661496039002216, -53.074686834030246 ] ], [ [ 73.661496039002216, -53.074686834030246 ], [ 73.661512204568226, -53.074713631662462 ] ], [ [ 73.661512204568226, -53.074713631662462 ], [ 73.661531940691106, -53.074745825696979 ] ], [ [ 73.661531940691106, -53.074745825696979 ], [ 73.661524343641332, -53.074755462022168 ] ], [ [ 73.661524343641332, -53.074755462022168 ], [ 73.661496741800093, -53.074770299675741 ] ], [ [ 73.661496741800093, -53.074770299675741 ], [ 73.661443994753981, -53.074781411285734 ] ], [ [ 73.661443994753981, -53.074781411285734 ], [ 73.661423809275362, -53.074823334708022 ] ], [ [ 73.661423809275362, -53.074823334708022 ], [ 73.661406861557424, -53.074870697539247 ] ], [ [ 73.661406861557424, -53.074870697539247 ], [ 73.661402112895445, -53.074917143079226 ] ], [ [ 73.661402112895445, -53.074917143079226 ], [ 73.661416003353622, -53.074963965518926 ] ], [ [ 73.661416003353622, -53.074963965518926 ], [ 73.661411037603912, -53.075008410140107 ] ], [ [ 73.661411037603912, -53.075008410140107 ], [ 73.661384863991799, -53.075050588031687 ] ], [ [ 73.661384863991799, -53.075050588031687 ], [ 73.661356689316875, -53.075094664567459 ] ], [ [ 73.661356689316875, -53.075094664567459 ], [ 73.661327426135259, -53.075137929639631 ] ], [ [ 73.661327426135259, -53.075137929639631 ], [ 73.661296816869537, -53.075183008125563 ] ], [ [ 73.661296816869537, -53.075183008125563 ], [ 73.66126515084332, -53.075224422977392 ] ], [ [ 73.66126515084332, -53.075224422977392 ], [ 73.661229888662746, -53.07525178555084 ] ], [ [ 73.661229888662746, -53.07525178555084 ], [ 73.661221955556385, -53.075264453997519 ] ], [ [ 73.661221955556385, -53.075264453997519 ], [ 73.661197096683594, -53.075294604539756 ] ], [ [ 73.661197096683594, -53.075294604539756 ], [ 73.661145907523974, -53.075323418670209 ] ], [ [ 73.661145907523974, -53.075323418670209 ], [ 73.661172966827053, -53.075353943909505 ] ], [ [ 73.661172966827053, -53.075353943909505 ], [ 73.661181682770092, -53.075551241146457 ] ], [ [ 73.661181682770092, -53.075551241146457 ], [ 73.66118154094886, -53.075551337541697 ] ], [ [ 73.66118154094886, -53.075551337541697 ], [ 73.661183138585443, -53.075550508660029 ] ], [ [ 73.661183138585443, -53.075550508660029 ], [ 73.661129394290555, -53.075545951036915 ] ], [ [ 73.661129394290555, -53.075545951036915 ], [ 73.661065563259726, -53.075516707530625 ] ], [ [ 73.661065563259726, -53.075516707530625 ], [ 73.661029248917302, -53.075480830661093 ] ], [ [ 73.661029248917302, -53.075480830661093 ], [ 73.660997854104735, -53.075448154740229 ] ], [ [ 73.660997854104735, -53.075448154740229 ], [ 73.660948784228665, -53.075413903535555 ] ], [ [ 73.660948784228665, -53.075413903535555 ], [ 73.660908409524168, -53.075380869419881 ] ], [ [ 73.660908409524168, -53.075380869419881 ], [ 73.660899800118926, -53.075334027243194 ] ], [ [ 73.660899800118926, -53.075334027243194 ], [ 73.660891714736096, -53.075284249435803 ] ], [ [ 73.660891714736096, -53.075284249435803 ], [ 73.660842047567641, -53.075245538717347 ] ], [ [ 73.660842047567641, -53.075245538717347 ], [ 73.660822595867998, -53.075199666792983 ] ], [ [ 73.660822595867998, -53.075199666792983 ], [ 73.66080279350993, -53.075153358499421 ] ], [ [ 73.66080279350993, -53.075153358499421 ], [ 73.660735280941907, -53.075138292853772 ] ], [ [ 73.660735280941907, -53.075138292853772 ], [ 73.660658194059607, -53.075136971188861 ] ], [ [ 73.660658194059607, -53.075136971188861 ], [ 73.660601106555234, -53.07511148923134 ] ], [ [ 73.660601106555234, -53.07511148923134 ], [ 73.660530814260298, -53.075113506437162 ] ], [ [ 73.660530814260298, -53.075113506437162 ], [ 73.660451626850303, -53.075129072076805 ] ], [ [ 73.660451626850303, -53.075129072076805 ], [ 73.660417243591979, -53.075121181040792 ] ], [ [ 73.660417243591979, -53.075121181040792 ], [ 73.660417114685785, -53.075121053729589 ] ], [ [ 73.660417114685785, -53.075121053729589 ], [ 73.66041672545532, -53.075121041256594 ] ], [ [ 73.66041672545532, -53.075121041256594 ], [ 73.660416984090077, -53.075121413657229 ] ], [ [ 73.660416984090077, -53.075121413657229 ], [ 73.660419162135042, -53.075113188056967 ] ], [ [ 73.660419162135042, -53.075113188056967 ], [ 73.660429011385702, -53.075072604816476 ] ], [ [ 73.660429011385702, -53.075072604816476 ], [ 73.660446723876447, -53.075029832932067 ] ], [ [ 73.660446723876447, -53.075029832932067 ], [ 73.660424294958318, -53.074991547343515 ] ], [ [ 73.660424294958318, -53.074991547343515 ], [ 73.660358593429166, -53.074980235416731 ] ], [ [ 73.660358593429166, -53.074980235416731 ], [ 73.660307043019827, -53.074985913856601 ] ], [ [ 73.660307043019827, -53.074985913856601 ], [ 73.66023688211574, -53.074996014375444 ] ], [ [ 73.66023688211574, -53.074996014375444 ], [ 73.660151973793177, -53.075000446914217 ] ], [ [ 73.660151973793177, -53.075000446914217 ], [ 73.660073638971056, -53.075006921327422 ] ], [ [ 73.660073638971056, -53.075006921327422 ], [ 73.659999640581745, -53.075019792362262 ] ], [ [ 73.659993122979216, -53.073621521456346 ], [ 73.659993073565815, -53.073608113213417 ] ], [ [ 73.659993073565815, -53.073608113213417 ], [ 73.65999323370707, -53.073608099733917 ] ], [ [ 73.65999323370707, -53.073608099733917 ], [ 73.659993120471356, -53.073607708292649 ] ], [ [ 73.659993120471356, -53.073607708292649 ], [ 73.659992805296, -53.073601224750988 ] ], [ [ 73.659992805296, -53.073601224750988 ], [ 73.659999847791099, -53.073560944354689 ] ], [ [ 73.659999847791099, -53.073560944354689 ], [ 73.660048822601041, -53.073528934107031 ] ], [ [ 73.660048822601041, -53.073528934107031 ], [ 73.660118137543236, -53.07352398534114 ] ], [ [ 73.660118137543236, -53.07352398534114 ], [ 73.660190706831145, -53.073513981243359 ] ], [ [ 73.660190706831145, -53.073513981243359 ], [ 73.660267711544662, -53.073508719822485 ] ], [ [ 73.660267711544662, -53.073508719822485 ], [ 73.660344835189861, -53.073502463598892 ] ], [ [ 73.660344835189861, -53.073502463598892 ], [ 73.660415337654754, -53.073479692769261 ] ], [ [ 73.660415337654754, -53.073479692769261 ], [ 73.660455138961638, -53.073440621716394 ] ], [ [ 73.660455138961638, -53.073440621716394 ], [ 73.660466327892522, -53.073395625072031 ] ], [ [ 73.660466327892522, -53.073395625072031 ], [ 73.660498983716849, -53.073352888349277 ] ], [ [ 73.660498983716849, -53.073352888349277 ], [ 73.660533743890525, -53.07330597787584 ] ], [ [ 73.660533743890525, -53.07330597787584 ], [ 73.660571116709733, -53.073264920525034 ] ], [ [ 73.660571116709733, -53.073264920525034 ], [ 73.66062414867001, -53.073224133826848 ] ], [ [ 73.66062414867001, -53.073224133826848 ], [ 73.660681190960389, -53.073187548323091 ] ], [ [ 73.660681190960389, -53.073187548323091 ], [ 73.660698841653712, -53.073138075450437 ] ], [ [ 73.660698841653712, -53.073138075450437 ], [ 73.660712796115007, -53.073090678115925 ] ], [ [ 73.660712796115007, -53.073090678115925 ], [ 73.660741055163356, -53.073045111230329 ] ], [ [ 73.660741055163356, -53.073045111230329 ], [ 73.660777673215222, -53.073003589526586 ] ], [ [ 73.660777673215222, -53.073003589526586 ], [ 73.660753517277556, -53.072959841999563 ] ], [ [ 73.660753517277556, -53.072959841999563 ], [ 73.660738485834599, -53.072918323304648 ] ], [ [ 73.660738485834599, -53.072918323304648 ], [ 73.660717890875162, -53.07288181414394 ] ], [ [ 73.660717890875162, -53.07288181414394 ], [ 73.660678876130163, -53.07284938677406 ] ], [ [ 73.660678876130163, -53.07284938677406 ], [ 73.660657427616798, -53.072803828548551 ] ], [ [ 73.660657427616798, -53.072803828548551 ], [ 73.660660792656273, -53.072761677251741 ] ], [ [ 73.660660792656273, -53.072761677251741 ], [ 73.660624251493431, -53.072715540984554 ] ], [ [ 73.660624251493431, -53.072715540984554 ], [ 73.660589555662284, -53.072666317634855 ] ], [ [ 73.660589555662284, -53.072666317634855 ], [ 73.660569084092515, -53.07261434523474 ] ], [ [ 73.660569084092515, -53.07261434523474 ], [ 73.66056179362154, -53.072563751045223 ] ], [ [ 73.66056179362154, -53.072563751045223 ], [ 73.660567226537253, -53.07251619935974 ] ], [ [ 73.660567226537253, -53.07251619935974 ], [ 73.660578897326801, -53.072501645571677 ] ], [ [ 73.660578897326801, -53.072501645571677 ], [ 73.66057894686142, -53.072501588593276 ] ], [ [ 73.66057894686142, -53.072501588593276 ], [ 73.660578731332393, -53.072501270618005 ] ], [ [ 73.660578731332393, -53.072501270618005 ], [ 73.660581932200017, -53.072497309695684 ] ], [ [ 73.660581932200017, -53.072497309695684 ], [ 73.660649812917441, -53.072465745765754 ] ], [ [ 73.660649812917441, -53.072465745765754 ], [ 73.660697595143191, -53.072430453964117 ] ] ] } }
]
}
