{
"type": "FeatureCollection",
"name": "Brown_lagoon_2000_soundings",
"crs": { "type": "name", "properties": { "name": "urn:ogc:def:crs:OGC:1.3:CRS84" } },
"features": [
{ "type": "Feature", "properties": { "E": 410362.453, "N": 4118905.58, "depth_m": 10.15, "survey_year": 2000, "name_1": "Brown" }, "geometry": { "type": "Point", "coordinates": [ 73.662072222247602, -53.071800001746197 ] } },
{ "type": "Feature", "properties": { "E": 410359.7092, "N": 4118912.947, "depth_m": 10.3, "survey_year": 2000, "name_1": "Brown" }, "geometry": { "type": "Point", "coordinates": [ 73.662033332972911, -53.071733335110544 ] } },
{ "type": "Feature", "properties": { "E": 410418.9219, "N": 4118912.198, "depth_m": 9.5, "survey_year": 2000, "name_1": "Brown" }, "geometry": { "type": "Point", "coordinates": [ 73.662916667175409, -53.07174999834109 ] } },
{ "type": "Feature", "properties": { "E": 410455.2052, "N": 4118883.202, "depth_m": 12.8, "survey_year": 2000, "name_1": "Brown" }, "geometry": { "type": "Point", "coordinates": [ 73.663449999452723, -53.072016664467846 ] } },
{ "type": "Feature", "properties": { "E": 410625.568, "N": 4118971.686, "depth_m": 14.4, "survey_year": 2000, "name_1": "Brown" }, "geometry": { "type": "Point", "coordinates": [ 73.666016666675574, -53.071249997127069 ] } },
{ "type": "Feature", "properties": { "E": 410669.2961, "N": 4118842.681, "depth_m": 27.4, "survey_year": 2000, "name_1": "Brown" }, "geometry": { "type": "Point", "coordinates": [ 73.666633333371166, -53.072416663710605 ] } },
{ "type": "Feature", "properties": { "E": 410625.6212, "N": 4118548.848, "depth_m": 50.2, "survey_year": 2000, "name_1": "Brown" }, "geometry": { "type": "Point", "coordinates": [ 73.665899999751076, -53.075050000552494 ] } },
{ "type": "Feature", "properties": { "E": 410637.5919, "N": 4118565.762, "depth_m": 49.2, "survey_year": 2000, "name_1": "Brown" }, "geometry": { "type": "Point", "coordinates": [ 73.666083333046018, -53.074899999218133 ] } },
{ "type": "Feature", "properties": { "E": 410606.5492, "N": 4118613.402, "depth_m": 49.6, "survey_year": 2000, "name_1": "Brown" }, "geometry": { "type": "Point", "coordinates": [ 73.665633332643083, -53.074466670377141 ] } },
{ "type": "Feature", "properties": { "E": 410666.9091, "N": 4118610.817, "depth_m": 52.7, "survey_year": 2000, "name_1": "Brown" }, "geometry": { "type": "Point", "coordinates": [ 73.666533333871129, -53.074499998999819 ] } },
{ "type": "Feature", "properties": { "E": 410706.5037, "N": 4118583.735, "depth_m": 52.4, "survey_year": 2000, "name_1": "Brown" }, "geometry": { "type": "Point", "coordinates": [ 73.667116666876737, -53.074750001786121 ] } },
{ "type": "Feature", "properties": { "E": 410743.9338, "N": 4118552.904, "depth_m": 50.8, "survey_year": 2000, "name_1": "Brown" }, "geometry": { "type": "Point", "coordinates": [ 73.667666666377627, -53.075033331907612 ] } },
{ "type": "Feature", "properties": { "E": 410788.9721, "N": 4118533.341, "depth_m": 52.6, "survey_year": 2000, "name_1": "Brown" }, "geometry": { "type": "Point", "coordinates": [ 73.66833333343115, -53.07521666598155 ] } },
{ "type": "Feature", "properties": { "E": 410821.8665, "N": 4118506.134, "depth_m": 49.6, "survey_year": 2000, "name_1": "Brown" }, "geometry": { "type": "Point", "coordinates": [ 73.668816666003778, -53.075466664857117 ] } },
{ "type": "Feature", "properties": { "E": 410846.8077, "N": 4118486.197, "depth_m": 42.2, "survey_year": 2000, "name_1": "Brown" }, "geometry": { "type": "Point", "coordinates": [ 73.669183334040071, -53.075649999761964 ] } },
{ "type": "Feature", "properties": { "E": 410857.9379, "N": 4118488.258, "depth_m": 33.3, "survey_year": 2000, "name_1": "Brown" }, "geometry": { "type": "Point", "coordinates": [ 73.669350000038264, -53.075633335328448 ] } },
{ "type": "Feature", "properties": { "E": 410791.4667, "N": 4118459.205, "depth_m": 34.1, "survey_year": 2000, "name_1": "Brown" }, "geometry": { "type": "Point", "coordinates": [ 73.668350000649156, -53.075883334338521 ] } },
{ "type": "Feature", "properties": { "E": 410733.2728, "N": 4118465.542, "depth_m": 37.4, "survey_year": 2000, "name_1": "Brown" }, "geometry": { "type": "Point", "coordinates": [ 73.667483333259298, -53.075816662470629 ] } },
{ "type": "Feature", "properties": { "E": 410672.5845, "N": 4118445.867, "depth_m": 32.6, "survey_year": 2000, "name_1": "Brown" }, "geometry": { "type": "Point", "coordinates": [ 73.666572221648082, -53.075983333858929 ] } },
{ "type": "Feature", "properties": { "E": 410629.5109, "N": 4118459.902, "depth_m": 36.9, "survey_year": 2000, "name_1": "Brown" }, "geometry": { "type": "Point", "coordinates": [ 73.665933333739275, -53.075849998083243 ] } }
]
}
