{
"type": "FeatureCollection",
"name": "Brown_interpreted_bed_2000",
"crs": { "type": "name", "properties": { "name": "urn:ogc:def:crs:OGC:1.3:CRS84" } },
"features": [
{ "type": "Feature", "properties": { "profile": "BG30", "survey_year": 2000, "name_1": "Brown", "RGIId": "RGI60-19.00023", "vertical_reference": "approximate metres above sea level; original field convention", "geometry_status": "registered_archive_section", "use_primary_metrics": true }, "geometry": { "type": "LineString", "coordinates": [ [ 73.625417785440234, -53.082428485770535, 524.32521 ], [ 73.62550779500387, -53.082663754220654, 526.51039 ], [ 73.625559079952382, -53.082797802493189, 528.69557 ], [ 73.62560513200809, -53.082918172350112, 531.50508 ] ] } },
{ "type": "Feature", "properties": { "profile": "BG35", "survey_year": 2000, "name_1": "Brown", "RGIId": "RGI60-19.00023", "vertical_reference": "approximate metres above sea level; original field convention", "geometry_status": "provisional_archive_geometry", "use_primary_metrics": false }, "geometry": { "type": "LineString", "coordinates": [ [ 73.630340560483205, -53.077890235505613, 479.94466 ], [ 73.630526840368461, -53.078171491088654, 455.12213 ], [ 73.63077922339744, -53.078552546578862, 428.39018 ], [ 73.631061657233047, -53.078978965163266, 415.0242 ], [ 73.631284002657608, -53.07931465594023, 411.20535 ], [ 73.631494332565424, -53.079632200901337, 415.0242 ], [ 73.631680627339861, -53.079913454723972, 422.6619 ], [ 73.63182485716689, -53.080131199368424, 426.48075 ], [ 73.631969088496049, -53.08034894393473, 433.16374 ], [ 73.632095292042493, -53.080539470216983, 442.71086 ], [ 73.632197457637247, -53.080693705699794, 449.39385 ], [ 73.632329672989812, -53.080893304402991, 451.30328 ], [ 73.632479919168091, -53.081120120921611, 452.25799 ], [ 73.632600117247776, -53.081301574020209, 454.16742 ], [ 73.632684256517166, -53.081428591146185, 452.25799 ], [ 73.632774406273398, -53.081564680851841, 446.52972 ], [ 73.632930667136634, -53.081800569445072, 444.62029 ], [ 73.633044858852713, -53.081972949467925, 439.84673 ], [ 73.633135010858027, -53.082109038903006, 436.02788 ], [ 73.633267234786871, -53.082308636574417, 434.11845 ], [ 73.633381429161957, -53.08248101627737, 423.61661 ], [ 73.633459562695137, -53.082598960252113, 416.93362 ], [ 73.633579768921621, -53.082780412370603, 413.11477 ], [ 73.633681945009556, -53.082934646590978, 406.43178 ], [ 73.633784121819772, -53.083088880724468, 395.92995 ], [ 73.633892309814158, -53.083252187353722, 389.24696 ], [ 73.633982467105213, -53.083388276152867, 385.42811 ], [ 73.634102677680403, -53.08356972774812, 381.60926 ], [ 73.634210868059156, -53.083733034090528, 378.74512 ], [ 73.634343101830041, -53.083932630577806, 376.83569 ], [ 73.634439272622217, -53.084077791593955, 373.97155 ], [ 73.634547465520384, -53.08424109763321, 373.01684 ], [ 73.634679702370619, -53.084440693749997, 373.97155 ], [ 73.634829973041448, -53.084667507424435, 375.88098 ], [ 73.634998277969444, -53.084921538398859, 377.7904 ], [ 73.635160573928317, -53.085166496713541, 384.47339 ], [ 73.635298827434468, -53.085375164667767, 392.11109 ], [ 73.63543107115872, -53.085574759957474, 399.7488 ], [ 73.635545282630105, -53.085747137603484, 408.34121 ], [ 73.635611405499887, -53.085846935178381, 415.0242 ], [ 73.635689551025195, -53.085964877607722, 432.20903 ], [ 73.635785730776192, -53.086110037545943, 455.12213 ], [ 73.635839832194904, -53.086191690018929, 477.08052 ], [ 73.635911967650912, -53.086300559818348, 496.17477 ], [ 73.635942024260117, -53.086345922316987, 509.54075 ] ] } },
{ "type": "Feature", "properties": { "profile": "BG45", "survey_year": 2000, "name_1": "Brown", "RGIId": "RGI60-19.00023", "vertical_reference": "approximate metres above sea level; original field convention", "geometry_status": "registered_archive_section", "use_primary_metrics": true }, "geometry": { "type": "LineString", "coordinates": [ [ 73.646340010906741, -53.079408321566881, 225.79581 ], [ 73.646645773973702, -53.079587345259718, 225.26699 ], [ 73.646804318782245, -53.079680172052889, 224.73818 ], [ 73.647127072830131, -53.079869140242742, 217.86353 ], [ 73.647398867924053, -53.080028270691088, 213.10416 ] ] } },
{ "type": "Feature", "properties": { "profile": "BG50", "survey_year": 2000, "name_1": "Brown", "RGIId": "RGI60-19.00023", "vertical_reference": "approximate metres above sea level; original field convention", "geometry_status": "registered_archive_section", "use_primary_metrics": true }, "geometry": { "type": "LineString", "coordinates": [ [ 73.653557122698686, -53.078877412882505, 136.72539 ], [ 73.653770766262966, -53.079011055059233, 140.98639 ], [ 73.653917066424484, -53.079102570680249, 143.67755 ], [ 73.654105167545197, -53.079220233361994, 145.24739 ], [ 73.654283980680219, -53.079332085274096, 145.02313 ], [ 73.654497628786714, -53.07946572619047, 145.92018 ], [ 73.654650898848203, -53.079561598759334, 147.26576 ], [ 73.654753079267451, -53.07962551369711, 148.38707 ] ] } }
]
}
