{
"type": "FeatureCollection",
"name": "lagoon_soundings_2004",
"crs": { "type": "name", "properties": { "name": "urn:ogc:def:crs:OGC:1.3:CRS84" } },
"features": [
{ "type": "Feature", "properties": { "E": 411025, "N": 4118540, "depth": -4.5, "WP": null, "name_1": "Brown", "survey_year": 2004, "depth_m": 4.5, "point_id": "Brown_2004_001", "source_csv": "Copy of brown_lagoon.csv", "coverage_note": "Available survey soundings" }, "geometry": { "type": "Point", "coordinates": [ 73.671857363561983, -53.075196188743348 ] } },
{ "type": "Feature", "properties": { "E": 410995, "N": 4118580, "depth": -15.0, "WP": null, "name_1": "Brown", "survey_year": 2004, "depth_m": 15.0, "point_id": "Brown_2004_002", "source_csv": "Copy of brown_lagoon.csv", "coverage_note": "Available survey soundings" }, "geometry": { "type": "Point", "coordinates": [ 73.671420747803452, -53.074831715010241 ] } },
{ "type": "Feature", "properties": { "E": 410979, "N": 4118599, "depth": -15.0, "WP": null, "name_1": "Brown", "survey_year": 2004, "depth_m": 15.0, "point_id": "Brown_2004_003", "source_csv": "Copy of brown_lagoon.csv", "coverage_note": "Available survey soundings" }, "geometry": { "type": "Point", "coordinates": [ 73.671187243395849, -53.074658297801037 ] } },
{ "type": "Feature", "properties": { "E": 410962, "N": 4118619, "depth": -16.0, "WP": null, "name_1": "Brown", "survey_year": 2004, "depth_m": 16.0, "point_id": "Brown_2004_004", "source_csv": "Copy of brown_lagoon.csv", "coverage_note": "Available survey soundings" }, "geometry": { "type": "Point", "coordinates": [ 73.670939095120531, -53.074475726564835 ] } },
{ "type": "Feature", "properties": { "E": 410944, "N": 4118641, "depth": -17.0, "WP": null, "name_1": "Brown", "survey_year": 2004, "depth_m": 17.0, "point_id": "Brown_2004_005", "source_csv": "Copy of brown_lagoon.csv", "coverage_note": "Available survey soundings" }, "geometry": { "type": "Point", "coordinates": [ 73.670676580141318, -53.074275014315496 ] } },
{ "type": "Feature", "properties": { "E": 410924, "N": 4118669, "depth": -22.0, "WP": null, "name_1": "Brown", "survey_year": 2004, "depth_m": 22.0, "point_id": "Brown_2004_006", "source_csv": "Copy of brown_lagoon.csv", "coverage_note": "Available survey soundings" }, "geometry": { "type": "Point", "coordinates": [ 73.670385884145134, -53.074020046631041 ] } },
{ "type": "Feature", "properties": { "E": 410905, "N": 4118689, "depth": -28.0, "WP": null, "name_1": "Brown", "survey_year": 2004, "depth_m": 28.0, "point_id": "Brown_2004_007", "source_csv": "Copy of brown_lagoon.csv", "coverage_note": "Available survey soundings" }, "geometry": { "type": "Point", "coordinates": [ 73.670107898353521, -53.073837140187088 ] } },
{ "type": "Feature", "properties": { "E": 410888, "N": 4118708, "depth": -30.0, "WP": null, "name_1": "Brown", "survey_year": 2004, "depth_m": 30.0, "point_id": "Brown_2004_008", "source_csv": "Copy of brown_lagoon.csv", "coverage_note": "Available survey soundings" }, "geometry": { "type": "Point", "coordinates": [ 73.669859482360422, -53.073663553627846 ] } },
{ "type": "Feature", "properties": { "E": 410868, "N": 4118738, "depth": -19.0, "WP": null, "name_1": "Brown", "survey_year": 2004, "depth_m": 19.0, "point_id": "Brown_2004_009", "source_csv": "Copy of brown_lagoon.csv", "coverage_note": "Available survey soundings" }, "geometry": { "type": "Point", "coordinates": [ 73.669569349366597, -53.073390610191723 ] } },
{ "type": "Feature", "properties": { "E": 410852, "N": 4118762, "depth": -15.0, "WP": null, "name_1": "Brown", "survey_year": 2004, "depth_m": 15.0, "point_id": "Brown_2004_010", "source_csv": "Copy of brown_lagoon.csv", "coverage_note": "Available survey soundings" }, "geometry": { "type": "Point", "coordinates": [ 73.669337245601042, -53.073172254941369 ] } },
{ "type": "Feature", "properties": { "E": 410831, "N": 4118795, "depth": -13.0, "WP": null, "name_1": "Brown", "survey_year": 2004, "depth_m": 13.0, "point_id": "Brown_2004_011", "source_csv": "Copy of brown_lagoon.csv", "coverage_note": "Available survey soundings" }, "geometry": { "type": "Point", "coordinates": [ 73.669033028678697, -53.072872182660781 ] } },
{ "type": "Feature", "properties": { "E": 410812, "N": 4118824, "depth": -14.0, "WP": null, "name_1": "Brown", "survey_year": 2004, "depth_m": 14.0, "point_id": "Brown_2004_012", "source_csv": "Copy of brown_lagoon.csv", "coverage_note": "Available survey soundings" }, "geometry": { "type": "Point", "coordinates": [ 73.668757550819421, -53.072608391082539 ] } },
{ "type": "Feature", "properties": { "E": 410785, "N": 4118862, "depth": -12.0, "WP": null, "name_1": "Brown", "survey_year": 2004, "depth_m": 12.0, "point_id": "Brown_2004_013", "source_csv": "Copy of brown_lagoon.csv", "coverage_note": "Available survey soundings" }, "geometry": { "type": "Point", "coordinates": [ 73.668365197827711, -53.072262380934504 ] } },
{ "type": "Feature", "properties": { "E": 410759, "N": 4118899, "depth": -12.0, "WP": null, "name_1": "Brown", "survey_year": 2004, "depth_m": 12.0, "point_id": "Brown_2004_014", "source_csv": "Copy of brown_lagoon.csv", "coverage_note": "Available survey soundings" }, "geometry": { "type": "Point", "coordinates": [ 73.667987495346935, -53.071925523447973 ] } },
{ "type": "Feature", "properties": { "E": 410736, "N": 4118940, "depth": -5.7, "WP": null, "name_1": "Brown", "survey_year": 2004, "depth_m": 5.7, "point_id": "Brown_2004_015", "source_csv": "Copy of brown_lagoon.csv", "coverage_note": "Available survey soundings" }, "geometry": { "type": "Point", "coordinates": [ 73.667655672887022, -53.071553218490521 ] } },
{ "type": "Feature", "properties": { "E": 410711, "N": 4118981, "depth": -5.6, "WP": null, "name_1": "Brown", "survey_year": 2004, "depth_m": 5.6, "point_id": "Brown_2004_016", "source_csv": "Copy of brown_lagoon.csv", "coverage_note": "Available survey soundings" }, "geometry": { "type": "Point", "coordinates": [ 73.667294013424083, -53.071180578365023 ] } },
{ "type": "Feature", "properties": { "E": 410691, "N": 4119012, "depth": -6.2, "WP": null, "name_1": "Brown", "survey_year": 2004, "depth_m": 6.2, "point_id": "Brown_2004_017", "source_csv": "Copy of brown_lagoon.csv", "coverage_note": "Available survey soundings" }, "geometry": { "type": "Point", "coordinates": [ 73.667004190731902, -53.070898641882941 ] } },
{ "type": "Feature", "properties": { "E": 410665, "N": 4119049, "depth": -4.5, "WP": null, "name_1": "Brown", "survey_year": 2004, "depth_m": 4.5, "point_id": "Brown_2004_018", "source_csv": "Copy of brown_lagoon.csv", "coverage_note": "Available survey soundings" }, "geometry": { "type": "Point", "coordinates": [ 73.666626510697171, -53.070561780143521 ] } },
{ "type": "Feature", "properties": { "E": 410636, "N": 4119073, "depth": -2.8, "WP": null, "name_1": "Brown", "survey_year": 2004, "depth_m": 2.8, "point_id": "Brown_2004_019", "source_csv": "Copy of brown_lagoon.csv", "coverage_note": "Available survey soundings" }, "geometry": { "type": "Point", "coordinates": [ 73.666200463259344, -53.070341244951933 ] } },
{ "type": "Feature", "properties": { "E": 410588, "N": 4119105, "depth": -1.6, "WP": null, "name_1": "Brown", "survey_year": 2004, "depth_m": 1.6, "point_id": "Brown_2004_020", "source_csv": "Copy of brown_lagoon.csv", "coverage_note": "Available survey soundings" }, "geometry": { "type": "Point", "coordinates": [ 73.665493144674244, -53.070045633804739 ] } },
{ "type": "Feature", "properties": { "E": 410562, "N": 4119109, "depth": -1.6, "WP": null, "name_1": "Brown", "survey_year": 2004, "depth_m": 1.6, "point_id": "Brown_2004_021", "source_csv": "Copy of brown_lagoon.csv", "coverage_note": "Available survey soundings" }, "geometry": { "type": "Point", "coordinates": [ 73.665106312020356, -53.070005334459168 ] } },
{ "type": "Feature", "properties": { "E": 410566, "N": 4119091, "depth": -2.0, "WP": null, "name_1": "Brown", "survey_year": 2004, "depth_m": 2.0, "point_id": "Brown_2004_022", "source_csv": "Copy of brown_lagoon.csv", "coverage_note": "Available survey soundings" }, "geometry": { "type": "Point", "coordinates": [ 73.665160993050009, -53.070167767929213 ] } },
{ "type": "Feature", "properties": { "E": 410574, "N": 4119074, "depth": -3.7, "WP": null, "name_1": "Brown", "survey_year": 2004, "depth_m": 3.7, "point_id": "Brown_2004_023", "source_csv": "Copy of brown_lagoon.csv", "coverage_note": "Available survey soundings" }, "geometry": { "type": "Point", "coordinates": [ 73.665275636536109, -53.070321884030037 ] } },
{ "type": "Feature", "properties": { "E": 410586, "N": 4119051, "depth": -4.2, "WP": null, "name_1": "Brown", "survey_year": 2004, "depth_m": 4.2, "point_id": "Brown_2004_024", "source_csv": "Copy of brown_lagoon.csv", "coverage_note": "Available survey soundings" }, "geometry": { "type": "Point", "coordinates": [ 73.665448297964375, -53.070530590770367 ] } },
{ "type": "Feature", "properties": { "E": 410605, "N": 4119024, "depth": -6.7, "WP": null, "name_1": "Brown", "survey_year": 2004, "depth_m": 6.7, "point_id": "Brown_2004_025", "source_csv": "Copy of brown_lagoon.csv", "coverage_note": "Available survey soundings" }, "geometry": { "type": "Point", "coordinates": [ 73.665724298056489, -53.070776416121689 ] } },
{ "type": "Feature", "properties": { "E": 410617, "N": 4119010, "depth": -8.3, "WP": null, "name_1": "Brown", "survey_year": 2004, "depth_m": 8.3, "point_id": "Brown_2004_026", "source_csv": "Copy of brown_lagoon.csv", "coverage_note": "Available survey soundings" }, "geometry": { "type": "Point", "coordinates": [ 73.665899463481082, -53.070904240269066 ] } },
{ "type": "Feature", "properties": { "E": 410631, "N": 4118987, "depth": -9.7, "WP": null, "name_1": "Brown", "survey_year": 2004, "depth_m": 9.7, "point_id": "Brown_2004_027", "source_csv": "Copy of brown_lagoon.csv", "coverage_note": "Available survey soundings" }, "geometry": { "type": "Point", "coordinates": [ 73.666101972848367, -53.071113280680315 ] } },
{ "type": "Feature", "properties": { "E": 410643, "N": 4118967, "depth": -11.0, "WP": null, "name_1": "Brown", "survey_year": 2004, "depth_m": 11.0, "point_id": "Brown_2004_028", "source_csv": "Copy of brown_lagoon.csv", "coverage_note": "Available survey soundings" }, "geometry": { "type": "Point", "coordinates": [ 73.666275474513284, -53.071295025586764 ] } },
{ "type": "Feature", "properties": { "E": 410665, "N": 4118933, "depth": -15.0, "WP": null, "name_1": "Brown", "survey_year": 2004, "depth_m": 15.0, "point_id": "Brown_2004_029", "source_csv": "Copy of brown_lagoon.csv", "coverage_note": "Available survey soundings" }, "geometry": { "type": "Point", "coordinates": [ 73.666594305053906, -53.071604258908003 ] } },
{ "type": "Feature", "properties": { "E": 410682, "N": 4118908, "depth": -18.0, "WP": null, "name_1": "Brown", "survey_year": 2004, "depth_m": 18.0, "point_id": "Brown_2004_030", "source_csv": "Copy of brown_lagoon.csv", "coverage_note": "Available survey soundings" }, "geometry": { "type": "Point", "coordinates": [ 73.666841030523031, -53.071831773498488 ] } },
{ "type": "Feature", "properties": { "E": 410696, "N": 4118897, "depth": -18.0, "WP": null, "name_1": "Brown", "survey_year": 2004, "depth_m": 18.0, "point_id": "Brown_2004_031", "source_csv": "Copy of brown_lagoon.csv", "coverage_note": "Available survey soundings" }, "geometry": { "type": "Point", "coordinates": [ 73.667046879393624, -53.071932969698373 ] } },
{ "type": "Feature", "properties": { "E": 410709, "N": 4118889, "depth": -18.0, "WP": null, "name_1": "Brown", "survey_year": 2004, "depth_m": 18.0, "point_id": "Brown_2004_032", "source_csv": "Copy of brown_lagoon.csv", "coverage_note": "Available survey soundings" }, "geometry": { "type": "Point", "coordinates": [ 73.667238640133917, -53.072007037748342 ] } },
{ "type": "Feature", "properties": { "E": 410718, "N": 4118871, "depth": -20.0, "WP": null, "name_1": "Brown", "survey_year": 2004, "depth_m": 20.0, "point_id": "Brown_2004_033", "source_csv": "Copy of brown_lagoon.csv", "coverage_note": "Available survey soundings" }, "geometry": { "type": "Point", "coordinates": [ 73.667367940039838, -53.072170305889301 ] } },
{ "type": "Feature", "properties": { "E": 410722, "N": 4118863, "depth": -20.0, "WP": null, "name_1": "Brown", "survey_year": 2004, "depth_m": 20.0, "point_id": "Brown_2004_034", "source_csv": "Copy of brown_lagoon.csv", "coverage_note": "Available survey soundings" }, "geometry": { "type": "Point", "coordinates": [ 73.667425406976022, -53.07224286946299 ] } },
{ "type": "Feature", "properties": { "E": 410730, "N": 4118851, "depth": -20.0, "WP": null, "name_1": "Brown", "survey_year": 2004, "depth_m": 20.0, "point_id": "Brown_2004_035", "source_csv": "Copy of brown_lagoon.csv", "coverage_note": "Available survey soundings" }, "geometry": { "type": "Point", "coordinates": [ 73.6675414512396, -53.072352048978793 ] } },
{ "type": "Feature", "properties": { "E": 410753, "N": 4118800, "depth": -21.0, "WP": null, "name_1": "Brown", "survey_year": 2004, "depth_m": 21.0, "point_id": "Brown_2004_036", "source_csv": "Copy of brown_lagoon.csv", "coverage_note": "Available survey soundings" }, "geometry": { "type": "Point", "coordinates": [ 73.667870504837936, -53.072814223117994 ] } },
{ "type": "Feature", "properties": { "E": 410775, "N": 4118765, "depth": -25.0, "WP": null, "name_1": "Brown", "survey_year": 2004, "depth_m": 25.0, "point_id": "Brown_2004_037", "source_csv": "Copy of brown_lagoon.csv", "coverage_note": "Available survey soundings" }, "geometry": { "type": "Point", "coordinates": [ 73.66818908058805, -53.073132439119838 ] } },
{ "type": "Feature", "properties": { "E": 410786, "N": 4118739, "depth": -27.0, "WP": null, "name_1": "Brown", "survey_year": 2004, "depth_m": 27.0, "point_id": "Brown_2004_038", "source_csv": "Copy of brown_lagoon.csv", "coverage_note": "Available survey soundings" }, "geometry": { "type": "Point", "coordinates": [ 73.668346013199979, -53.073367935360857 ] } },
{ "type": "Feature", "properties": { "E": 410800, "N": 4118712, "depth": -32.0, "WP": null, "name_1": "Brown", "survey_year": 2004, "depth_m": 32.0, "point_id": "Brown_2004_039", "source_csv": "Copy of brown_lagoon.csv", "coverage_note": "Available survey soundings" }, "geometry": { "type": "Point", "coordinates": [ 73.668547436815203, -53.07361291922814 ] } },
{ "type": "Feature", "properties": { "E": 410816, "N": 4118684, "depth": -37.0, "WP": null, "name_1": "Brown", "survey_year": 2004, "depth_m": 37.0, "point_id": "Brown_2004_040", "source_csv": "Copy of brown_lagoon.csv", "coverage_note": "Available survey soundings" }, "geometry": { "type": "Point", "coordinates": [ 73.668778430043886, -53.07386722355151 ] } },
{ "type": "Feature", "properties": { "E": 410827, "N": 4118669, "depth": -42.0, "WP": null, "name_1": "Brown", "survey_year": 2004, "depth_m": 42.0, "point_id": "Brown_2004_041", "source_csv": "Copy of brown_lagoon.csv", "coverage_note": "Available survey soundings" }, "geometry": { "type": "Point", "coordinates": [ 73.668938417471736, -53.074003863235319 ] } },
{ "type": "Feature", "properties": { "E": 410839, "N": 4118648, "depth": -49.0, "WP": null, "name_1": "Brown", "survey_year": 2004, "depth_m": 49.0, "point_id": "Brown_2004_042", "source_csv": "Copy of brown_lagoon.csv", "coverage_note": "Available survey soundings" }, "geometry": { "type": "Point", "coordinates": [ 73.669111665416892, -53.074194590958612 ] } },
{ "type": "Feature", "properties": { "E": 410853, "N": 4118625, "depth": -47.0, "WP": null, "name_1": "Brown", "survey_year": 2004, "depth_m": 47.0, "point_id": "Brown_2004_043", "source_csv": "Copy of brown_lagoon.csv", "coverage_note": "Available survey soundings" }, "geometry": { "type": "Point", "coordinates": [ 73.66931420560023, -53.07440362598556 ] } },
{ "type": "Feature", "properties": { "E": 410864, "N": 4118605, "depth": -45.0, "WP": null, "name_1": "Brown", "survey_year": 2004, "depth_m": 45.0, "point_id": "Brown_2004_044", "source_csv": "Copy of brown_lagoon.csv", "coverage_note": "Available survey soundings" }, "geometry": { "type": "Point", "coordinates": [ 73.669472811326983, -53.074585199415537 ] } },
{ "type": "Feature", "properties": { "E": 410880, "N": 4118579, "depth": -44.0, "WP": null, "name_1": "Brown", "survey_year": 2004, "depth_m": 44.0, "point_id": "Brown_2004_045", "source_csv": "Copy of brown_lagoon.csv", "coverage_note": "Available survey soundings" }, "geometry": { "type": "Point", "coordinates": [ 73.669704369201355, -53.074821528186149 ] } },
{ "type": "Feature", "properties": { "E": 410890, "N": 4118559, "depth": -45.0, "WP": null, "name_1": "Brown", "survey_year": 2004, "depth_m": 45.0, "point_id": "Brown_2004_046", "source_csv": "Copy of brown_lagoon.csv", "coverage_note": "Available survey soundings" }, "geometry": { "type": "Point", "coordinates": [ 73.669848055403406, -53.075002934286658 ] } },
{ "type": "Feature", "properties": { "E": 410902, "N": 4118540, "depth": -42.0, "WP": null, "name_1": "Brown", "survey_year": 2004, "depth_m": 42.0, "point_id": "Brown_2004_047", "source_csv": "Copy of brown_lagoon.csv", "coverage_note": "Available survey soundings" }, "geometry": { "type": "Point", "coordinates": [ 73.670021865257681, -53.075175686920666 ] } },
{ "type": "Feature", "properties": { "E": 410915, "N": 4118525, "depth": -35.0, "WP": null, "name_1": "Brown", "survey_year": 2004, "depth_m": 35.0, "point_id": "Brown_2004_048", "source_csv": "Copy of brown_lagoon.csv", "coverage_note": "Available survey soundings" }, "geometry": { "type": "Point", "coordinates": [ 73.670211707009813, -53.075312658508516 ] } },
{ "type": "Feature", "properties": { "E": 410923, "N": 4118518, "depth": -30.0, "WP": null, "name_1": "Brown", "survey_year": 2004, "depth_m": 30.0, "point_id": "Brown_2004_049", "source_csv": "Copy of brown_lagoon.csv", "coverage_note": "Available survey soundings" }, "geometry": { "type": "Point", "coordinates": [ 73.670329151010193, -53.075376900883889 ] } },
{ "type": "Feature", "properties": { "E": 410941, "N": 4118513, "depth": -25.0, "WP": null, "name_1": "Brown", "survey_year": 2004, "depth_m": 25.0, "point_id": "Brown_2004_050", "source_csv": "Copy of brown_lagoon.csv", "coverage_note": "Available survey soundings" }, "geometry": { "type": "Point", "coordinates": [ 73.670596377422555, -53.075424836702219 ] } },
{ "type": "Feature", "properties": { "E": 410961, "N": 4118509, "depth": -20.0, "WP": null, "name_1": "Brown", "survey_year": 2004, "depth_m": 20.0, "point_id": "Brown_2004_051", "source_csv": "Copy of brown_lagoon.csv", "coverage_note": "Available survey soundings" }, "geometry": { "type": "Point", "coordinates": [ 73.670893726923964, -53.075464118408448 ] } },
{ "type": "Feature", "properties": { "E": 410973, "N": 4118505, "depth": -8.4, "WP": null, "name_1": "Brown", "survey_year": 2004, "depth_m": 8.4, "point_id": "Brown_2004_052", "source_csv": "Copy of brown_lagoon.csv", "coverage_note": "Available survey soundings" }, "geometry": { "type": "Point", "coordinates": [ 73.671071694089974, -53.075502066109784 ] } },
{ "type": "Feature", "properties": { "E": 410989, "N": 4118497, "depth": -3.8, "WP": null, "name_1": "Brown", "survey_year": 2004, "depth_m": 3.8, "point_id": "Brown_2004_053", "source_csv": "Copy of brown_lagoon.csv", "coverage_note": "Available survey soundings" }, "geometry": { "type": "Point", "coordinates": [ 73.671308246266477, -53.075576627690168 ] } },
{ "type": "Feature", "properties": { "E": 411005, "N": 4118491, "depth": -1.8, "WP": null, "name_1": "Brown", "survey_year": 2004, "depth_m": 1.8, "point_id": "Brown_2004_054", "source_csv": "Copy of brown_lagoon.csv", "coverage_note": "Available survey soundings" }, "geometry": { "type": "Point", "coordinates": [ 73.671545352572991, -53.075633215010569 ] } },
{ "type": "Feature", "properties": { "E": 411020, "N": 4118487, "depth": -1.2, "WP": null, "name_1": "Brown", "survey_year": 2004, "depth_m": 1.2, "point_id": "Brown_2004_055", "source_csv": "Copy of brown_lagoon.csv", "coverage_note": "Available survey soundings" }, "geometry": { "type": "Point", "coordinates": [ 73.671768089793275, -53.075671661488627 ] } },
{ "type": "Feature", "properties": { "E": 411023, "N": 4118508, "depth": -2.8, "WP": null, "name_1": "Brown", "survey_year": 2004, "depth_m": 2.8, "point_id": "Brown_2004_056", "source_csv": "Copy of brown_lagoon.csv", "coverage_note": "Available survey soundings" }, "geometry": { "type": "Point", "coordinates": [ 73.671818667086612, -53.075483436356976 ] } },
{ "type": "Feature", "properties": { "E": 410995, "N": 4118525, "depth": -11.0, "WP": null, "name_1": "Brown", "survey_year": 2004, "depth_m": 11.0, "point_id": "Brown_2004_057", "source_csv": "Copy of brown_lagoon.csv", "coverage_note": "Available survey soundings" }, "geometry": { "type": "Point", "coordinates": [ 73.671405530671123, -53.075325994364405 ] } },
{ "type": "Feature", "properties": { "E": 410959, "N": 4118527, "depth": -22.0, "WP": null, "name_1": "Brown", "survey_year": 2004, "depth_m": 22.0, "point_id": "Brown_2004_058", "source_csv": "Copy of brown_lagoon.csv", "coverage_note": "Available survey soundings" }, "geometry": { "type": "Point", "coordinates": [ 73.670868863488096, -53.075302020920923 ] } },
{ "type": "Feature", "properties": { "E": 410935, "N": 4118522, "depth": -26.0, "WP": null, "name_1": "Brown", "survey_year": 2004, "depth_m": 26.0, "point_id": "Brown_2004_059", "source_csv": "Copy of brown_lagoon.csv", "coverage_note": "Available survey soundings" }, "geometry": { "type": "Point", "coordinates": [ 73.670509332239149, -53.07534295427601 ] } },
{ "type": "Feature", "properties": { "E": 410920, "N": 4118510, "depth": -24.0, "WP": null, "name_1": "Brown", "survey_year": 2004, "depth_m": 24.0, "point_id": "Brown_2004_060", "source_csv": "Copy of brown_lagoon.csv", "coverage_note": "Available survey soundings" }, "geometry": { "type": "Point", "coordinates": [ 73.670282167262684, -53.07544829574195 ] } },
{ "type": "Feature", "properties": { "E": 410915, "N": 4118500, "depth": -25.0, "WP": null, "name_1": "Brown", "survey_year": 2004, "depth_m": 25.0, "point_id": "Brown_2004_061", "source_csv": "Copy of brown_lagoon.csv", "coverage_note": "Available survey soundings" }, "geometry": { "type": "Point", "coordinates": [ 73.670204783772746, -53.075537330819351 ] } },
{ "type": "Feature", "properties": { "E": 410903, "N": 4118489, "depth": -21.0, "WP": null, "name_1": "Brown", "survey_year": 2004, "depth_m": 21.0, "point_id": "Brown_2004_062", "source_csv": "Copy of brown_lagoon.csv", "coverage_note": "Available survey soundings" }, "geometry": { "type": "Point", "coordinates": [ 73.670022662710039, -53.075634185198759 ] } },
{ "type": "Feature", "properties": { "E": 410881, "N": 4118503, "depth": -34.0, "WP": null, "name_1": "Brown", "survey_year": 2004, "depth_m": 34.0, "point_id": "Brown_2004_063", "source_csv": "Copy of brown_lagoon.csv", "coverage_note": "Available survey soundings" }, "geometry": { "type": "Point", "coordinates": [ 73.669698237473838, -53.075504698737632 ] } },
{ "type": "Feature", "properties": { "E": 410868, "N": 4118518, "depth": -47.0, "WP": null, "name_1": "Brown", "survey_year": 2004, "depth_m": 47.0, "point_id": "Brown_2004_064", "source_csv": "Copy of brown_lagoon.csv", "coverage_note": "Available survey soundings" }, "geometry": { "type": "Point", "coordinates": [ 73.669508396531583, -53.075367726339849 ] } },
{ "type": "Feature", "properties": { "E": 410857, "N": 4118530, "depth": -46.0, "WP": null, "name_1": "Brown", "survey_year": 2004, "depth_m": 46.0, "point_id": "Brown_2004_065", "source_csv": "Copy of brown_lagoon.csv", "coverage_note": "Available survey soundings" }, "geometry": { "type": "Point", "coordinates": [ 73.669347570984343, -53.075258048078396 ] } },
{ "type": "Feature", "properties": { "E": 410841, "N": 4118550, "depth": -51.0, "WP": null, "name_1": "Brown", "survey_year": 2004, "depth_m": 51.0, "point_id": "Brown_2004_066", "source_csv": "Copy of brown_lagoon.csv", "coverage_note": "Available survey soundings" }, "geometry": { "type": "Point", "coordinates": [ 73.669114349855747, -53.075075639962051 ] } },
{ "type": "Feature", "properties": { "E": 410823, "N": 4118571, "depth": -51.0, "WP": null, "name_1": "Brown", "survey_year": 2004, "depth_m": 51.0, "point_id": "Brown_2004_067", "source_csv": "Copy of brown_lagoon.csv", "coverage_note": "Available survey soundings" }, "geometry": { "type": "Point", "coordinates": [ 73.668851562626614, -53.074883910625601 ] } },
{ "type": "Feature", "properties": { "E": 410802, "N": 4118596, "depth": -52.0, "WP": null, "name_1": "Brown", "survey_year": 2004, "depth_m": 52.0, "point_id": "Brown_2004_068", "source_csv": "Copy of brown_lagoon.csv", "coverage_note": "Available survey soundings" }, "geometry": { "type": "Point", "coordinates": [ 73.668545119105218, -53.074655732233502 ] } },
{ "type": "Feature", "properties": { "E": 410774, "N": 4118630, "depth": -52.0, "WP": null, "name_1": "Brown", "survey_year": 2004, "depth_m": 52.0, "point_id": "Brown_2004_069", "source_csv": "Copy of brown_lagoon.csv", "coverage_note": "Available survey soundings" }, "geometry": { "type": "Point", "coordinates": [ 73.668136717672951, -53.074345501910599 ] } },
{ "type": "Feature", "properties": { "E": 410748, "N": 4118663, "depth": -52.0, "WP": null, "name_1": "Brown", "survey_year": 2004, "depth_m": 52.0, "point_id": "Brown_2004_070", "source_csv": "Copy of brown_lagoon.csv", "coverage_note": "Available survey soundings" }, "geometry": { "type": "Point", "coordinates": [ 73.667757889338873, -53.074044591252473 ] } },
{ "type": "Feature", "properties": { "E": 410724, "N": 4118689, "depth": -56.0, "WP": null, "name_1": "Brown", "survey_year": 2004, "depth_m": 56.0, "point_id": "Brown_2004_071", "source_csv": "Copy of brown_lagoon.csv", "coverage_note": "Available survey soundings" }, "geometry": { "type": "Point", "coordinates": [ 73.667406968261375, -53.073806921845801 ] } },
{ "type": "Feature", "properties": { "E": 410706, "N": 4118709, "depth": -46.0, "WP": null, "name_1": "Brown", "survey_year": 2004, "depth_m": 46.0, "point_id": "Brown_2004_072", "source_csv": "Copy of brown_lagoon.csv", "coverage_note": "Available survey soundings" }, "geometry": { "type": "Point", "coordinates": [ 73.66714391876134, -53.073624175679583 ] } },
{ "type": "Feature", "properties": { "E": 410694, "N": 4118723, "depth": -41.0, "WP": null, "name_1": "Brown", "survey_year": 2004, "depth_m": 41.0, "point_id": "Brown_2004_073", "source_csv": "Copy of brown_lagoon.csv", "coverage_note": "Available survey soundings" }, "geometry": { "type": "Point", "coordinates": [ 73.666968738720172, -53.073496353328125 ] } },
{ "type": "Feature", "properties": { "E": 410675, "N": 4118744, "depth": -34.0, "WP": null, "name_1": "Brown", "survey_year": 2004, "depth_m": 34.0, "point_id": "Brown_2004_074", "source_csv": "Copy of brown_lagoon.csv", "coverage_note": "Available survey soundings" }, "geometry": { "type": "Point", "coordinates": [ 73.666691048525848, -53.073304452115451 ] } },
{ "type": "Feature", "properties": { "E": 410635, "N": 4118791, "depth": -30.0, "WP": null, "name_1": "Brown", "survey_year": 2004, "depth_m": 30.0, "point_id": "Brown_2004_075", "source_csv": "Copy of brown_lagoon.csv", "coverage_note": "Available survey soundings" }, "geometry": { "type": "Point", "coordinates": [ 73.666107220449121, -53.072875378806522 ] } },
{ "type": "Feature", "properties": { "E": 410598, "N": 4118837, "depth": -27.0, "WP": null, "name_1": "Brown", "survey_year": 2004, "depth_m": 27.0, "point_id": "Brown_2004_076", "source_csv": "Copy of brown_lagoon.csv", "coverage_note": "Available survey soundings" }, "geometry": { "type": "Point", "coordinates": [ 73.665567891403214, -53.072455791611979 ] } },
{ "type": "Feature", "properties": { "E": 410564, "N": 4118878, "depth": -20.0, "WP": null, "name_1": "Brown", "survey_year": 2004, "depth_m": 20.0, "point_id": "Brown_2004_077", "source_csv": "Copy of brown_lagoon.csv", "coverage_note": "Available survey soundings" }, "geometry": { "type": "Point", "coordinates": [ 73.665071947869166, -53.072081638643489 ] } },
{ "type": "Feature", "properties": { "E": 410539, "N": 4118907, "depth": -16.0, "WP": null, "name_1": "Brown", "survey_year": 2004, "depth_m": 16.0, "point_id": "Brown_2004_078", "source_csv": "Copy of brown_lagoon.csv", "coverage_note": "Available survey soundings" }, "geometry": { "type": "Point", "coordinates": [ 73.664706970052166, -53.071816833345515 ] } },
{ "type": "Feature", "properties": { "E": 410511, "N": 4118941, "depth": -15.0, "WP": null, "name_1": "Brown", "survey_year": 2004, "depth_m": 15.0, "point_id": "Brown_2004_079", "source_csv": "Copy of brown_lagoon.csv", "coverage_note": "Available survey soundings" }, "geometry": { "type": "Point", "coordinates": [ 73.664298622946873, -53.071506590050014 ] } },
{ "type": "Feature", "properties": { "E": 410487, "N": 4118968, "depth": -11.0, "WP": null, "name_1": "Brown", "survey_year": 2004, "depth_m": 11.0, "point_id": "Brown_2004_080", "source_csv": "Copy of brown_lagoon.csv", "coverage_note": "Available survey soundings" }, "geometry": { "type": "Point", "coordinates": [ 73.663948019680277, -53.071259923718195 ] } },
{ "type": "Feature", "properties": { "E": 410469, "N": 4118991, "depth": -9.8, "WP": null, "name_1": "Brown", "survey_year": 2004, "depth_m": 9.8, "point_id": "Brown_2004_081", "source_csv": "Copy of brown_lagoon.csv", "coverage_note": "Available survey soundings" }, "geometry": { "type": "Point", "coordinates": [ 73.663685835025731, -53.071050209394599 ] } },
{ "type": "Feature", "properties": { "E": 410452, "N": 4119015, "depth": -7.4, "WP": null, "name_1": "Brown", "survey_year": 2004, "depth_m": 7.4, "point_id": "Brown_2004_082", "source_csv": "Copy of brown_lagoon.csv", "coverage_note": "Available survey soundings" }, "geometry": { "type": "Point", "coordinates": [ 73.663438852406728, -53.070831675241109 ] } },
{ "type": "Feature", "properties": { "E": 410434, "N": 4119033, "depth": -3.8, "WP": null, "name_1": "Brown", "survey_year": 2004, "depth_m": 3.8, "point_id": "Brown_2004_083", "source_csv": "Copy of brown_lagoon.csv", "coverage_note": "Available survey soundings" }, "geometry": { "type": "Point", "coordinates": [ 73.663175281083781, -53.070666894183049 ] } },
{ "type": "Feature", "properties": { "E": 410419, "N": 4119049, "depth": -2.0, "WP": null, "name_1": "Brown", "survey_year": 2004, "depth_m": 2.0, "point_id": "Brown_2004_084", "source_csv": "Copy of brown_lagoon.csv", "coverage_note": "Available survey soundings" }, "geometry": { "type": "Point", "coordinates": [ 73.662955918241451, -53.070520589321646 ] } },
{ "type": "Feature", "properties": { "E": 410409, "N": 4119049, "depth": -1.6, "WP": null, "name_1": "Brown", "survey_year": 2004, "depth_m": 1.6, "point_id": "Brown_2004_085", "source_csv": "Copy of brown_lagoon.csv", "coverage_note": "Available survey soundings" }, "geometry": { "type": "Point", "coordinates": [ 73.662806707356211, -53.070518912503772 ] } },
{ "type": "Feature", "properties": { "E": 410398, "N": 4119035, "depth": -2.1, "WP": null, "name_1": "Brown", "survey_year": 2004, "depth_m": 2.1, "point_id": "Brown_2004_086", "source_csv": "Copy of brown_lagoon.csv", "coverage_note": "Available survey soundings" }, "geometry": { "type": "Point", "coordinates": [ 73.662638677012822, -53.070642883997991 ] } },
{ "type": "Feature", "properties": { "E": 410398, "N": 4119015, "depth": -2.9, "WP": null, "name_1": "Brown", "survey_year": 2004, "depth_m": 2.9, "point_id": "Brown_2004_087", "source_csv": "Copy of brown_lagoon.csv", "coverage_note": "Available survey soundings" }, "geometry": { "type": "Point", "coordinates": [ 73.662633107838204, -53.070822621435752 ] } },
{ "type": "Feature", "properties": { "E": 410415, "N": 4118991, "depth": -5.4, "WP": null, "name_1": "Brown", "survey_year": 2004, "depth_m": 5.4, "point_id": "Brown_2004_088", "source_csv": "Copy of brown_lagoon.csv", "coverage_note": "Available survey soundings" }, "geometry": { "type": "Point", "coordinates": [ 73.662880086297164, -53.071041157235861 ] } },
{ "type": "Feature", "properties": { "E": 410463, "N": 4118929, "depth": -11.0, "WP": null, "name_1": "Brown", "survey_year": 2004, "depth_m": 11.0, "point_id": "Brown_2004_089", "source_csv": "Copy of brown_lagoon.csv", "coverage_note": "Available survey soundings" }, "geometry": { "type": "Point", "coordinates": [ 73.663579054838763, -53.071606390085741 ] } },
{ "type": "Feature", "properties": { "E": 410474, "N": 4118903, "depth": -13.0, "WP": null, "name_1": "Brown", "survey_year": 2004, "depth_m": 13.0, "point_id": "Brown_2004_090", "source_csv": "Copy of brown_lagoon.csv", "coverage_note": "Available survey soundings" }, "geometry": { "type": "Point", "coordinates": [ 73.663735956786098, -53.071841892270861 ] } },
{ "type": "Feature", "properties": { "E": 410488, "N": 4118870, "depth": -16.0, "WP": null, "name_1": "Brown", "survey_year": 2004, "depth_m": 16.0, "point_id": "Brown_2004_091", "source_csv": "Copy of brown_lagoon.csv", "coverage_note": "Available survey soundings" }, "geometry": { "type": "Point", "coordinates": [ 73.663935677913898, -53.072140805039361 ] } },
{ "type": "Feature", "properties": { "E": 410497, "N": 4118850, "depth": -17.0, "WP": null, "name_1": "Brown", "survey_year": 2004, "depth_m": 17.0, "point_id": "Brown_2004_092", "source_csv": "Copy of brown_lagoon.csv", "coverage_note": "Available survey soundings" }, "geometry": { "type": "Point", "coordinates": [ 73.664064409299229, -53.072322050438586 ] } },
{ "type": "Feature", "properties": { "E": 410507, "N": 4118830, "depth": -19.0, "WP": null, "name_1": "Brown", "survey_year": 2004, "depth_m": 19.0, "point_id": "Brown_2004_093", "source_csv": "Copy of brown_lagoon.csv", "coverage_note": "Available survey soundings" }, "geometry": { "type": "Point", "coordinates": [ 73.664208063537131, -53.072503463220713 ] } },
{ "type": "Feature", "properties": { "E": 410518, "N": 4118809, "depth": -22.0, "WP": null, "name_1": "Brown", "survey_year": 2004, "depth_m": 22.0, "point_id": "Brown_2004_094", "source_csv": "Copy of brown_lagoon.csv", "coverage_note": "Available survey soundings" }, "geometry": { "type": "Point", "coordinates": [ 73.664366362700122, -53.072694030208069 ] } },
{ "type": "Feature", "properties": { "E": 410529, "N": 4118790, "depth": -26.0, "WP": null, "name_1": "Brown", "survey_year": 2004, "depth_m": 26.0, "point_id": "Brown_2004_095", "source_csv": "Copy of brown_lagoon.csv", "coverage_note": "Available survey soundings" }, "geometry": { "type": "Point", "coordinates": [ 73.664525219424235, -53.072866623236628 ] } },
{ "type": "Feature", "properties": { "E": 410541, "N": 4118767, "depth": -29.0, "WP": null, "name_1": "Brown", "survey_year": 2004, "depth_m": 29.0, "point_id": "Brown_2004_096", "source_csv": "Copy of brown_lagoon.csv", "coverage_note": "Available survey soundings" }, "geometry": { "type": "Point", "coordinates": [ 73.664697887169766, -53.073075331020185 ] } },
{ "type": "Feature", "properties": { "E": 410555, "N": 4118744, "depth": -32.0, "WP": null, "name_1": "Brown", "survey_year": 2004, "depth_m": 32.0, "point_id": "Brown_2004_097", "source_csv": "Copy of brown_lagoon.csv", "coverage_note": "Available survey soundings" }, "geometry": { "type": "Point", "coordinates": [ 73.664900400684644, -53.073284373429601 ] } },
{ "type": "Feature", "properties": { "E": 410568, "N": 4118720, "depth": -35.0, "WP": null, "name_1": "Brown", "survey_year": 2004, "depth_m": 35.0, "point_id": "Brown_2004_098", "source_csv": "Copy of brown_lagoon.csv", "coverage_note": "Available survey soundings" }, "geometry": { "type": "Point", "coordinates": [ 73.665087716043672, -53.073502234965659 ] } },
{ "type": "Feature", "properties": { "E": 410584, "N": 4118697, "depth": -38.0, "WP": null, "name_1": "Brown", "survey_year": 2004, "depth_m": 38.0, "point_id": "Brown_2004_099", "source_csv": "Copy of brown_lagoon.csv", "coverage_note": "Available survey soundings" }, "geometry": { "type": "Point", "coordinates": [ 73.665320077838544, -53.073711611491177 ] } },
{ "type": "Feature", "properties": { "E": 410614, "N": 4118659, "depth": -51.0, "WP": null, "name_1": "Brown", "survey_year": 2004, "depth_m": 51.0, "point_id": "Brown_2004_100", "source_csv": "Copy of brown_lagoon.csv", "coverage_note": "Available survey soundings" }, "geometry": { "type": "Point", "coordinates": [ 73.665757186199087, -53.074058133521703 ] } },
{ "type": "Feature", "properties": { "E": 410627, "N": 4118643, "depth": -52.0, "WP": null, "name_1": "Brown", "survey_year": 2004, "depth_m": 52.0, "point_id": "Brown_2004_101", "source_csv": "Copy of brown_lagoon.csv", "coverage_note": "Available survey soundings" }, "geometry": { "type": "Point", "coordinates": [ 73.665946731637675, -53.074204098700534 ] } },
{ "type": "Feature", "properties": { "E": 410642, "N": 4118625, "depth": -52.0, "WP": null, "name_1": "Brown", "survey_year": 2004, "depth_m": 52.0, "point_id": "Brown_2004_102", "source_csv": "Copy of brown_lagoon.csv", "coverage_note": "Available survey soundings" }, "geometry": { "type": "Point", "coordinates": [ 73.666165567699281, -53.074368371900832 ] } },
{ "type": "Feature", "properties": { "E": 410659, "N": 4118607, "depth": -53.0, "WP": null, "name_1": "Brown", "survey_year": 2004, "depth_m": 53.0, "point_id": "Brown_2004_103", "source_csv": "Copy of brown_lagoon.csv", "coverage_note": "Available survey soundings" }, "geometry": { "type": "Point", "coordinates": [ 73.666414250417276, -53.074532979203539 ] } },
{ "type": "Feature", "properties": { "E": 410680, "N": 4118587, "depth": -52.0, "WP": null, "name_1": "Brown", "survey_year": 2004, "depth_m": 52.0, "point_id": "Brown_2004_104", "source_csv": "Copy of brown_lagoon.csv", "coverage_note": "Available survey soundings" }, "geometry": { "type": "Point", "coordinates": [ 73.666722069958368, -53.074716228607436 ] } },
{ "type": "Feature", "properties": { "E": 410701, "N": 4118553, "depth": -52.0, "WP": null, "name_1": "Brown", "survey_year": 2004, "depth_m": 52.0, "point_id": "Brown_2004_105", "source_csv": "Copy of brown_lagoon.csv", "coverage_note": "Available survey soundings" }, "geometry": { "type": "Point", "coordinates": [ 73.667026005895949, -53.075025293567506 ] } },
{ "type": "Feature", "properties": { "E": 410715, "N": 4118526, "depth": -52.0, "WP": null, "name_1": "Brown", "survey_year": 2004, "depth_m": 52.0, "point_id": "Brown_2004_106", "source_csv": "Copy of brown_lagoon.csv", "coverage_note": "Available survey soundings" }, "geometry": { "type": "Point", "coordinates": [ 73.667227429549953, -53.075270279604084 ] } },
{ "type": "Feature", "properties": { "E": 410729, "N": 4118494, "depth": -54.0, "WP": null, "name_1": "Brown", "survey_year": 2004, "depth_m": 54.0, "point_id": "Brown_2004_107", "source_csv": "Copy of brown_lagoon.csv", "coverage_note": "Available survey soundings" }, "geometry": { "type": "Point", "coordinates": [ 73.667427467925251, -53.0755601997149 ] } },
{ "type": "Feature", "properties": { "E": 410738, "N": 4118473, "depth": -53.0, "WP": null, "name_1": "Brown", "survey_year": 2004, "depth_m": 53.0, "point_id": "Brown_2004_108", "source_csv": "Copy of brown_lagoon.csv", "coverage_note": "Available survey soundings" }, "geometry": { "type": "Point", "coordinates": [ 73.667555946506027, -53.075750428274063 ] } },
{ "type": "Feature", "properties": { "E": 410747, "N": 4118458, "depth": -40.0, "WP": null, "name_1": "Brown", "survey_year": 2004, "depth_m": 40.0, "point_id": "Brown_2004_109", "source_csv": "Copy of brown_lagoon.csv", "coverage_note": "Available survey soundings" }, "geometry": { "type": "Point", "coordinates": [ 73.667686090965631, -53.0758867354008 ] } },
{ "type": "Feature", "properties": { "E": 410757, "N": 4118445, "depth": -34.0, "WP": null, "name_1": "Brown", "survey_year": 2004, "depth_m": 34.0, "point_id": "Brown_2004_110", "source_csv": "Copy of brown_lagoon.csv", "coverage_note": "Available survey soundings" }, "geometry": { "type": "Point", "coordinates": [ 73.667831714123992, -53.076005235695604 ] } },
{ "type": "Feature", "properties": { "E": 410767, "N": 4118433, "depth": -26.0, "WP": null, "name_1": "Brown", "survey_year": 2004, "depth_m": 26.0, "point_id": "Brown_2004_111", "source_csv": "Copy of brown_lagoon.csv", "coverage_note": "Available survey soundings" }, "geometry": { "type": "Point", "coordinates": [ 73.66797761548051, -53.076114748931715 ] } },
{ "type": "Feature", "properties": { "E": 410774, "N": 4118423, "depth": -20.0, "WP": null, "name_1": "Brown", "survey_year": 2004, "depth_m": 20.0, "point_id": "Brown_2004_112", "source_csv": "Copy of brown_lagoon.csv", "coverage_note": "Available survey soundings" }, "geometry": { "type": "Point", "coordinates": [ 73.668079303060878, -53.076205787105742 ] } },
{ "type": "Feature", "properties": { "E": 410774, "N": 4118414, "depth": -3.0, "WP": null, "name_1": "Brown", "survey_year": 2004, "depth_m": 3.0, "point_id": "Brown_2004_113", "source_csv": "Copy of brown_lagoon.csv", "coverage_note": "Available survey soundings" }, "geometry": { "type": "Point", "coordinates": [ 73.668076806629344, -53.076286669056486 ] } },
{ "type": "Feature", "properties": { "E": 410759, "N": 4118405, "depth": -4.6, "WP": null, "name_1": "Brown", "survey_year": 2004, "depth_m": 4.6, "point_id": "Brown_2004_114", "source_csv": "Copy of brown_lagoon.csv", "coverage_note": "Available survey soundings" }, "geometry": { "type": "Point", "coordinates": [ 73.667850463078011, -53.076365045145728 ] } },
{ "type": "Feature", "properties": { "E": 410734, "N": 4118399, "depth": -6.7, "WP": null, "name_1": "Brown", "survey_year": 2004, "depth_m": 6.7, "point_id": "Brown_2004_115", "source_csv": "Copy of brown_lagoon.csv", "coverage_note": "Available survey soundings" }, "geometry": { "type": "Point", "coordinates": [ 73.667475719591394, -53.076414789062476 ] } },
{ "type": "Feature", "properties": { "E": 410715, "N": 4118410, "depth": -14.0, "WP": null, "name_1": "Brown", "survey_year": 2004, "depth_m": 14.0, "point_id": "Brown_2004_116", "source_csv": "Copy of brown_lagoon.csv", "coverage_note": "Available survey soundings" }, "geometry": { "type": "Point", "coordinates": [ 73.667195232918232, -53.07631275779346 ] } },
{ "type": "Feature", "properties": { "E": 410700, "N": 4118426, "depth": -23.0, "WP": null, "name_1": "Brown", "survey_year": 2004, "depth_m": 23.0, "point_id": "Brown_2004_117", "source_csv": "Copy of brown_lagoon.csv", "coverage_note": "Available survey soundings" }, "geometry": { "type": "Point", "coordinates": [ 73.666975827953266, -53.076166460211148 ] } },
{ "type": "Feature", "properties": { "E": 410685, "N": 4118444, "depth": -32.0, "WP": null, "name_1": "Brown", "survey_year": 2004, "depth_m": 32.0, "point_id": "Brown_2004_118", "source_csv": "Copy of brown_lagoon.csv", "coverage_note": "Available survey soundings" }, "geometry": { "type": "Point", "coordinates": [ 73.666756979782448, -53.076002188472287 ] } },
{ "type": "Feature", "properties": { "E": 410668, "N": 4118466, "depth": -37.0, "WP": null, "name_1": "Brown", "survey_year": 2004, "depth_m": 37.0, "point_id": "Brown_2004_119", "source_csv": "Copy of brown_lagoon.csv", "coverage_note": "Available survey soundings" }, "geometry": { "type": "Point", "coordinates": [ 73.66650939819074, -53.07580163435037 ] } },
{ "type": "Feature", "properties": { "E": 410648, "N": 4118489, "depth": -44.0, "WP": null, "name_1": "Brown", "survey_year": 2004, "depth_m": 44.0, "point_id": "Brown_2004_120", "source_csv": "Copy of brown_lagoon.csv", "coverage_note": "Available survey soundings" }, "geometry": { "type": "Point", "coordinates": [ 73.666217328058991, -53.075591591028427 ] } },
{ "type": "Feature", "properties": { "E": 410632, "N": 4118507, "depth": -49.0, "WP": null, "name_1": "Brown", "survey_year": 2004, "depth_m": 49.0, "point_id": "Brown_2004_121", "source_csv": "Copy of brown_lagoon.csv", "coverage_note": "Available survey soundings" }, "geometry": { "type": "Point", "coordinates": [ 73.665983562873208, -53.075427150613258 ] } },
{ "type": "Feature", "properties": { "E": 410616, "N": 4118527, "depth": -51.0, "WP": null, "name_1": "Brown", "survey_year": 2004, "depth_m": 51.0, "point_id": "Brown_2004_122", "source_csv": "Copy of brown_lagoon.csv", "coverage_note": "Available survey soundings" }, "geometry": { "type": "Point", "coordinates": [ 73.665750355178091, -53.075244735992847 ] } },
{ "type": "Feature", "properties": { "E": 410568, "N": 4118583, "depth": -51.0, "WP": null, "name_1": "Brown", "survey_year": 2004, "depth_m": 51.0, "point_id": "Brown_2004_123", "source_csv": "Copy of brown_lagoon.csv", "coverage_note": "Available survey soundings" }, "geometry": { "type": "Point", "coordinates": [ 73.665049631903855, -53.074733436930153 ] } },
{ "type": "Feature", "properties": { "E": 410543, "N": 4118610, "depth": -51.0, "WP": null, "name_1": "Brown", "survey_year": 2004, "depth_m": 51.0, "point_id": "Brown_2004_124", "source_csv": "Copy of brown_lagoon.csv", "coverage_note": "Available survey soundings" }, "geometry": { "type": "Point", "coordinates": [ 73.664684075942844, -53.074486605285067 ] } },
{ "type": "Feature", "properties": { "E": 410518, "N": 4118639, "depth": -48.0, "WP": null, "name_1": "Brown", "survey_year": 2004, "depth_m": 48.0, "point_id": "Brown_2004_125", "source_csv": "Copy of brown_lagoon.csv", "coverage_note": "Available survey soundings" }, "geometry": { "type": "Point", "coordinates": [ 73.664319080445864, -53.074221798787967 ] } },
{ "type": "Feature", "properties": { "E": 410495, "N": 4118669, "depth": -45.0, "WP": null, "name_1": "Brown", "survey_year": 2004, "depth_m": 45.0, "point_id": "Brown_2004_126", "source_csv": "Copy of brown_lagoon.csv", "coverage_note": "Available survey soundings" }, "geometry": { "type": "Point", "coordinates": [ 73.663984212196596, -53.073948339421953 ] } },
{ "type": "Feature", "properties": { "E": 410469, "N": 4118708, "depth": -37.0, "WP": null, "name_1": "Brown", "survey_year": 2004, "depth_m": 37.0, "point_id": "Brown_2004_127", "source_csv": "Copy of brown_lagoon.csv", "coverage_note": "Available survey soundings" }, "geometry": { "type": "Point", "coordinates": [ 73.663607086201395, -53.073593494503434 ] } },
{ "type": "Feature", "properties": { "E": 410444, "N": 4118742, "depth": -37.0, "WP": null, "name_1": "Brown", "survey_year": 2004, "depth_m": 37.0, "point_id": "Brown_2004_128", "source_csv": "Copy of brown_lagoon.csv", "coverage_note": "Available survey soundings" }, "geometry": { "type": "Point", "coordinates": [ 73.663243496620055, -53.073283750402751 ] } },
{ "type": "Feature", "properties": { "E": 410425, "N": 4118768, "depth": -30.0, "WP": null, "name_1": "Brown", "survey_year": 2004, "depth_m": 30.0, "point_id": "Brown_2004_129", "source_csv": "Copy of brown_lagoon.csv", "coverage_note": "Available survey soundings" }, "geometry": { "type": "Point", "coordinates": [ 73.662967216561825, -53.073046906255684 ] } },
{ "type": "Feature", "properties": { "E": 410408, "N": 4118796, "depth": -20.0, "WP": null, "name_1": "Brown", "survey_year": 2004, "depth_m": 20.0, "point_id": "Brown_2004_130", "source_csv": "Copy of brown_lagoon.csv", "coverage_note": "Available survey soundings" }, "geometry": { "type": "Point", "coordinates": [ 73.662721340206602, -53.072792423156535 ] } },
{ "type": "Feature", "properties": { "E": 410385, "N": 4118835, "depth": -12.0, "WP": null, "name_1": "Brown", "survey_year": 2004, "depth_m": 12.0, "point_id": "Brown_2004_131", "source_csv": "Copy of brown_lagoon.csv", "coverage_note": "Available survey soundings" }, "geometry": { "type": "Point", "coordinates": [ 73.662388999844353, -53.072438077549663 ] } },
{ "type": "Feature", "properties": { "E": 410366, "N": 4118865, "depth": -11.0, "WP": null, "name_1": "Brown", "survey_year": 2004, "depth_m": 11.0, "point_id": "Brown_2004_132", "source_csv": "Copy of brown_lagoon.csv", "coverage_note": "Available survey soundings" }, "geometry": { "type": "Point", "coordinates": [ 73.662113844171216, -53.072165283978734 ] } },
{ "type": "Feature", "properties": { "E": 410350, "N": 4118892, "depth": -9.5, "WP": null, "name_1": "Brown", "survey_year": 2004, "depth_m": 9.5, "point_id": "Brown_2004_133", "source_csv": "Copy of brown_lagoon.csv", "coverage_note": "Available survey soundings" }, "geometry": { "type": "Point", "coordinates": [ 73.661882620746042, -53.071919953821499 ] } },
{ "type": "Feature", "properties": { "E": 410338, "N": 4118909, "depth": -9.1, "WP": null, "name_1": "Brown", "survey_year": 2004, "depth_m": 9.1, "point_id": "Brown_2004_134", "source_csv": "Copy of brown_lagoon.csv", "coverage_note": "Available survey soundings" }, "geometry": { "type": "Point", "coordinates": [ 73.661708299239763, -53.071765163230744 ] } },
{ "type": "Feature", "properties": { "E": 410323, "N": 4118914, "depth": -6.1, "WP": null, "name_1": "Brown", "survey_year": 2004, "depth_m": 6.1, "point_id": "Brown_2004_135", "source_csv": "Copy of brown_lagoon.csv", "coverage_note": "Available survey soundings" }, "geometry": { "type": "Point", "coordinates": [ 73.661485870120956, -53.071717711216067 ] } },
{ "type": "Feature", "properties": { "E": 410313, "N": 4118914, "depth": -5.1, "WP": null, "name_1": "Brown", "survey_year": 2004, "depth_m": 5.1, "point_id": "Brown_2004_136", "source_csv": "Copy of brown_lagoon.csv", "coverage_note": "Available survey soundings" }, "geometry": { "type": "Point", "coordinates": [ 73.661336655187355, -53.071716032528983 ] } },
{ "type": "Feature", "properties": { "E": 410304, "N": 4118904, "depth": -4.5, "WP": null, "name_1": "Brown", "survey_year": 2004, "depth_m": 4.5, "point_id": "Brown_2004_137", "source_csv": "Copy of brown_lagoon.csv", "coverage_note": "Available survey soundings" }, "geometry": { "type": "Point", "coordinates": [ 73.661199574081536, -53.071804390201351 ] } },
{ "type": "Feature", "properties": { "E": 410302, "N": 4118888, "depth": -5.5, "WP": null, "name_1": "Brown", "survey_year": 2004, "depth_m": 5.5, "point_id": "Brown_2004_138", "source_csv": "Copy of brown_lagoon.csv", "coverage_note": "Available survey soundings" }, "geometry": { "type": "Point", "coordinates": [ 73.661165270621538, -53.071947844242985 ] } },
{ "type": "Feature", "properties": { "E": 410320, "N": 4118862, "depth": -9.0, "WP": null, "name_1": "Brown", "survey_year": 2004, "depth_m": 9.0, "point_id": "Brown_2004_139", "source_csv": "Copy of brown_lagoon.csv", "coverage_note": "Available survey soundings" }, "geometry": { "type": "Point", "coordinates": [ 73.66142661213253, -53.072184524642346 ] } },
{ "type": "Feature", "properties": { "E": 410343, "N": 4118832, "depth": -9.7, "WP": null, "name_1": "Brown", "survey_year": 2004, "depth_m": 9.7, "point_id": "Brown_2004_140", "source_csv": "Copy of brown_lagoon.csv", "coverage_note": "Available survey soundings" }, "geometry": { "type": "Point", "coordinates": [ 73.661761450559979, -53.072457991095412 ] } },
{ "type": "Feature", "properties": { "E": 410366, "N": 4118794, "depth": -15.0, "WP": null, "name_1": "Brown", "survey_year": 2004, "depth_m": 15.0, "point_id": "Brown_2004_141", "source_csv": "Copy of brown_lagoon.csv", "coverage_note": "Available survey soundings" }, "geometry": { "type": "Point", "coordinates": [ 73.662094064482019, -53.072803351555407 ] } },
{ "type": "Feature", "properties": { "E": 410389, "N": 4118755, "depth": -26.0, "WP": null, "name_1": "Brown", "survey_year": 2004, "depth_m": 26.0, "point_id": "Brown_2004_142", "source_csv": "Copy of brown_lagoon.csv", "coverage_note": "Available survey soundings" }, "geometry": { "type": "Point", "coordinates": [ 73.662426405168489, -53.073157697967275 ] } },
{ "type": "Feature", "properties": { "E": 410405, "N": 4118730, "depth": -30.0, "WP": null, "name_1": "Brown", "survey_year": 2004, "depth_m": 30.0, "point_id": "Brown_2004_143", "source_csv": "Copy of brown_lagoon.csv", "coverage_note": "Available survey soundings" }, "geometry": { "type": "Point", "coordinates": [ 73.662658195173506, -53.073385053343792 ] } },
{ "type": "Feature", "properties": { "E": 410416, "N": 4118711, "depth": -32.0, "WP": null, "name_1": "Brown", "survey_year": 2004, "depth_m": 32.0, "point_id": "Brown_2004_144", "source_csv": "Copy of brown_lagoon.csv", "coverage_note": "Available survey soundings" }, "geometry": { "type": "Point", "coordinates": [ 73.662817047521457, -53.073557648606048 ] } },
{ "type": "Feature", "properties": { "E": 410430, "N": 4118680, "depth": -36.0, "WP": null, "name_1": "Brown", "survey_year": 2004, "depth_m": 36.0, "point_id": "Brown_2004_145", "source_csv": "Copy of brown_lagoon.csv", "coverage_note": "Available survey soundings" }, "geometry": { "type": "Point", "coordinates": [ 73.663017326811257, -53.073838589105542 ] } },
{ "type": "Feature", "properties": { "E": 410440, "N": 4118642, "depth": -41.0, "WP": null, "name_1": "Brown", "survey_year": 2004, "depth_m": 41.0, "point_id": "Brown_2004_146", "source_csv": "Copy of brown_lagoon.csv", "coverage_note": "Available survey soundings" }, "geometry": { "type": "Point", "coordinates": [ 73.663155970650578, -53.074181766747039 ] } },
{ "type": "Feature", "properties": { "E": 410456, "N": 4118599, "depth": -45.0, "WP": null, "name_1": "Brown", "survey_year": 2004, "depth_m": 45.0, "point_id": "Brown_2004_147", "source_csv": "Copy of brown_lagoon.csv", "coverage_note": "Available survey soundings" }, "geometry": { "type": "Point", "coordinates": [ 73.663382759797713, -53.074570884364064 ] } },
{ "type": "Feature", "properties": { "E": 410476, "N": 4118562, "depth": -48.0, "WP": null, "name_1": "Brown", "survey_year": 2004, "depth_m": 48.0, "point_id": "Brown_2004_148", "source_csv": "Copy of brown_lagoon.csv", "coverage_note": "Available survey soundings" }, "geometry": { "type": "Point", "coordinates": [ 73.663670913208563, -53.074906750719641 ] } },
{ "type": "Feature", "properties": { "E": 410493, "N": 4118538, "depth": -52.0, "WP": null, "name_1": "Brown", "survey_year": 2004, "depth_m": 52.0, "point_id": "Brown_2004_149", "source_csv": "Copy of brown_lagoon.csv", "coverage_note": "Available survey soundings" }, "geometry": { "type": "Point", "coordinates": [ 73.663917919971709, -53.075125284400585 ] } },
{ "type": "Feature", "properties": { "E": 410517, "N": 4118506, "depth": -50.0, "WP": null, "name_1": "Brown", "survey_year": 2004, "depth_m": 50.0, "point_id": "Brown_2004_150", "source_csv": "Copy of brown_lagoon.csv", "coverage_note": "Available survey soundings" }, "geometry": { "type": "Point", "coordinates": [ 73.664267163250926, -53.075416885216569 ] } },
{ "type": "Feature", "properties": { "E": 410540, "N": 4118468, "depth": -50.0, "WP": null, "name_1": "Brown", "survey_year": 2004, "depth_m": 50.0, "point_id": "Brown_2004_151", "source_csv": "Copy of brown_lagoon.csv", "coverage_note": "Available survey soundings" }, "geometry": { "type": "Point", "coordinates": [ 73.664599819739664, -53.075762238775937 ] } },
{ "type": "Feature", "properties": { "E": 410560, "N": 4118431, "depth": -48.0, "WP": null, "name_1": "Brown", "survey_year": 2004, "depth_m": 48.0, "point_id": "Brown_2004_152", "source_csv": "Copy of brown_lagoon.csv", "coverage_note": "Available survey soundings" }, "geometry": { "type": "Point", "coordinates": [ 73.664887990467548, -53.076098102228897 ] } },
{ "type": "Feature", "properties": { "E": 410566, "N": 4118416, "depth": -35.0, "WP": null, "name_1": "Brown", "survey_year": 2004, "depth_m": 35.0, "point_id": "Brown_2004_153", "source_csv": "Copy of brown_lagoon.csv", "coverage_note": "Available survey soundings" }, "geometry": { "type": "Point", "coordinates": [ 73.664973358247536, -53.076233909931887 ] } },
{ "type": "Feature", "properties": { "E": 410570, "N": 4118396, "depth": -21.0, "WP": null, "name_1": "Brown", "survey_year": 2004, "depth_m": 21.0, "point_id": "Brown_2004_154", "source_csv": "Copy of brown_lagoon.csv", "coverage_note": "Available survey soundings" }, "geometry": { "type": "Point", "coordinates": [ 73.665027490221618, -53.076414317087611 ] } },
{ "type": "Feature", "properties": { "E": 410568, "N": 4118388, "depth": -13.0, "WP": null, "name_1": "Brown", "survey_year": 2004, "depth_m": 13.0, "point_id": "Brown_2004_155", "source_csv": "Copy of brown_lagoon.csv", "coverage_note": "Available survey soundings" }, "geometry": { "type": "Point", "coordinates": [ 73.664995419743562, -53.076485877207695 ] } },
{ "type": "Feature", "properties": { "E": 410551, "N": 4118380, "depth": -9.0, "WP": null, "name_1": "Brown", "survey_year": 2004, "depth_m": 9.0, "point_id": "Brown_2004_156", "source_csv": "Copy of brown_lagoon.csv", "coverage_note": "Available survey soundings" }, "geometry": { "type": "Point", "coordinates": [ 73.664739501347768, -53.076554925599773 ] } },
{ "type": "Feature", "properties": { "E": 410535, "N": 4118371, "depth": -5.0, "WP": null, "name_1": "Brown", "survey_year": 2004, "depth_m": 5.0, "point_id": "Brown_2004_157", "source_csv": "Copy of brown_lagoon.csv", "coverage_note": "Available survey soundings" }, "geometry": { "type": "Point", "coordinates": [ 73.664498227218729, -53.076633127798395 ] } },
{ "type": "Feature", "properties": { "E": 410521, "N": 4118369, "depth": -9.3, "WP": null, "name_1": "Brown", "survey_year": 2004, "depth_m": 9.3, "point_id": "Brown_2004_158", "source_csv": "Copy of brown_lagoon.csv", "coverage_note": "Available survey soundings" }, "geometry": { "type": "Point", "coordinates": [ 73.664288745920345, -53.076648756460621 ] } },
{ "type": "Feature", "properties": { "E": 410550, "N": 4118390, "depth": -16.0, "WP": null, "name_1": "Brown", "survey_year": 2004, "depth_m": 16.0, "point_id": "Brown_2004_159", "source_csv": "Copy of brown_lagoon.csv", "coverage_note": "Available survey soundings" }, "geometry": { "type": "Point", "coordinates": [ 73.664727358980727, -53.076464889429296 ] } },
{ "type": "Feature", "properties": { "E": 410536, "N": 4118379, "depth": -11.0, "WP": null, "name_1": "Brown", "survey_year": 2004, "depth_m": 11.0, "point_id": "Brown_2004_160", "source_csv": "Copy of brown_lagoon.csv", "coverage_note": "Available survey soundings" }, "geometry": { "type": "Point", "coordinates": [ 73.664515375445546, -53.076561400330903 ] } },
{ "type": "Feature", "properties": { "E": 410515, "N": 4118373, "depth": -9.1, "WP": null, "name_1": "Brown", "survey_year": 2004, "depth_m": 9.1, "point_id": "Brown_2004_161", "source_csv": "Copy of brown_lagoon.csv", "coverage_note": "Available survey soundings" }, "geometry": { "type": "Point", "coordinates": [ 73.664200319398446, -53.076611803840649 ] } },
{ "type": "Feature", "properties": { "E": 410503, "N": 4118385, "depth": -16.0, "WP": null, "name_1": "Brown", "survey_year": 2004, "depth_m": 16.0, "point_id": "Brown_2004_162", "source_csv": "Copy of brown_lagoon.csv", "coverage_note": "Available survey soundings" }, "geometry": { "type": "Point", "coordinates": [ 73.664024579723488, -53.076501950933014 ] } },
{ "type": "Feature", "properties": { "E": 410492, "N": 4118403, "depth": -24.0, "WP": null, "name_1": "Brown", "survey_year": 2004, "depth_m": 24.0, "point_id": "Brown_2004_163", "source_csv": "Copy of brown_lagoon.csv", "coverage_note": "Available survey soundings" }, "geometry": { "type": "Point", "coordinates": [ 73.663865433626299, -53.076338344134825 ] } },
{ "type": "Feature", "properties": { "E": 410474, "N": 4118435, "depth": -26.0, "WP": null, "name_1": "Brown", "survey_year": 2004, "depth_m": 26.0, "point_id": "Brown_2004_164", "source_csv": "Copy of brown_lagoon.csv", "coverage_note": "Available survey soundings" }, "geometry": { "type": "Point", "coordinates": [ 73.663605723754841, -53.07604774780517 ] } },
{ "type": "Feature", "properties": { "E": 410457, "N": 4118463, "depth": -25.0, "WP": null, "name_1": "Brown", "survey_year": 2004, "depth_m": 25.0, "point_id": "Brown_2004_165", "source_csv": "Copy of brown_lagoon.csv", "coverage_note": "Available survey soundings" }, "geometry": { "type": "Point", "coordinates": [ 73.663359826823466, -53.075793266018479 ] } },
{ "type": "Feature", "properties": { "E": 410438, "N": 4118499, "depth": -28.0, "WP": null, "name_1": "Brown", "survey_year": 2004, "depth_m": 28.0, "point_id": "Brown_2004_166", "source_csv": "Copy of brown_lagoon.csv", "coverage_note": "Available survey soundings" }, "geometry": { "type": "Point", "coordinates": [ 73.663086314432263, -53.075466553470328 ] } },
{ "type": "Feature", "properties": { "E": 410418, "N": 4118537, "depth": -35.0, "WP": null, "name_1": "Brown", "survey_year": 2004, "depth_m": 35.0, "point_id": "Brown_2004_167", "source_csv": "Copy of brown_lagoon.csv", "coverage_note": "Available survey soundings" }, "geometry": { "type": "Point", "coordinates": [ 73.662798440403833, -53.075121698869289 ] } },
{ "type": "Feature", "properties": { "E": 410402, "N": 4118570, "depth": -28.0, "WP": null, "name_1": "Brown", "survey_year": 2004, "depth_m": 28.0, "point_id": "Brown_2004_168", "source_csv": "Copy of brown_lagoon.csv", "coverage_note": "Available survey soundings" }, "geometry": { "type": "Point", "coordinates": [ 73.66256886860468, -53.074822448843918 ] } },
{ "type": "Feature", "properties": { "E": 410387, "N": 4118598, "depth": -22.0, "WP": null, "name_1": "Brown", "survey_year": 2004, "depth_m": 22.0, "point_id": "Brown_2004_169", "source_csv": "Copy of brown_lagoon.csv", "coverage_note": "Available survey soundings" }, "geometry": { "type": "Point", "coordinates": [ 73.662352829649734, -53.074568300463959 ] } },
{ "type": "Feature", "properties": { "E": 410367, "N": 4118629, "depth": -14.0, "WP": null, "name_1": "Brown", "survey_year": 2004, "depth_m": 14.0, "point_id": "Brown_2004_170", "source_csv": "Copy of brown_lagoon.csv", "coverage_note": "Available survey soundings" }, "geometry": { "type": "Point", "coordinates": [ 73.662063017086126, -53.074286352163917 ] } },
{ "type": "Feature", "properties": { "E": 410360, "N": 4118642, "depth": -11.0, "WP": null, "name_1": "Brown", "survey_year": 2004, "depth_m": 11.0, "point_id": "Brown_2004_171", "source_csv": "Copy of brown_lagoon.csv", "coverage_note": "Available survey soundings" }, "geometry": { "type": "Point", "coordinates": [ 73.661962182641631, -53.074168348336741 ] } },
{ "type": "Feature", "properties": { "E": 410356, "N": 4118661, "depth": -4.6, "WP": null, "name_1": "Brown", "survey_year": 2004, "depth_m": 4.6, "point_id": "Brown_2004_172", "source_csv": "Copy of brown_lagoon.csv", "coverage_note": "Available survey soundings" }, "geometry": { "type": "Point", "coordinates": [ 73.661907787515844, -53.073996926683662 ] } },
{ "type": "Feature", "properties": { "E": 410352, "N": 4118680, "depth": -6.9, "WP": null, "name_1": "Brown", "survey_year": 2004, "depth_m": 6.9, "point_id": "Brown_2004_173", "source_csv": "Copy of brown_lagoon.csv", "coverage_note": "Available survey soundings" }, "geometry": { "type": "Point", "coordinates": [ 73.661853392810656, -53.073825505003626 ] } },
{ "type": "Feature", "properties": { "E": 410360, "N": 4118684, "depth": -15.0, "WP": null, "name_1": "Brown", "survey_year": 2004, "depth_m": 15.0, "point_id": "Brown_2004_174", "source_csv": "Copy of brown_lagoon.csv", "coverage_note": "Available survey soundings" }, "geometry": { "type": "Point", "coordinates": [ 73.66197388512623, -53.07379090002744 ] } },
{ "type": "Feature", "properties": { "E": 410356, "N": 4118666, "depth": -7.1, "WP": null, "name_1": "Brown", "survey_year": 2004, "depth_m": 7.1, "point_id": "Brown_2004_175", "source_csv": "Copy of brown_lagoon.csv", "coverage_note": "Available survey soundings" }, "geometry": { "type": "Point", "coordinates": [ 73.661909180730504, -53.073951992362176 ] } },
{ "type": "Feature", "properties": { "E": 410353, "N": 4118653, "depth": -8.2, "WP": null, "name_1": "Brown", "survey_year": 2004, "depth_m": 8.2, "point_id": "Brown_2004_176", "source_csv": "Copy of brown_lagoon.csv", "coverage_note": "Available survey soundings" }, "geometry": { "type": "Point", "coordinates": [ 73.661860791437093, -53.074068318153316 ] } },
{ "type": "Feature", "properties": { "E": 410347, "N": 4118634, "depth": -6.6, "WP": null, "name_1": "Brown", "survey_year": 2004, "depth_m": 6.6, "point_id": "Brown_2004_177", "source_csv": "Copy of brown_lagoon.csv", "coverage_note": "Available survey soundings" }, "geometry": { "type": "Point", "coordinates": [ 73.661765962782752, -53.074238061621678 ] } },
{ "type": "Feature", "properties": { "E": 410350, "N": 4118603, "depth": -6.9, "WP": null, "name_1": "Brown", "survey_year": 2004, "depth_m": 6.9, "point_id": "Brown_2004_178", "source_csv": "Copy of brown_lagoon.csv", "coverage_note": "Available survey soundings" }, "geometry": { "type": "Point", "coordinates": [ 73.661802091168468, -53.074517157864982 ] } },
{ "type": "Feature", "properties": { "E": 410355, "N": 4118577, "depth": -12.0, "WP": null, "name_1": "Brown", "survey_year": 2004, "depth_m": 12.0, "point_id": "Brown_2004_179", "source_csv": "Copy of brown_lagoon.csv", "coverage_note": "Available survey soundings" }, "geometry": { "type": "Point", "coordinates": [ 73.661869458407736, -53.074751655412797 ] } },
{ "type": "Feature", "properties": { "E": 410350, "N": 4118537, "depth": -15.0, "WP": null, "name_1": "Brown", "survey_year": 2004, "depth_m": 15.0, "point_id": "Brown_2004_180", "source_csv": "Copy of brown_lagoon.csv", "coverage_note": "Available survey soundings" }, "geometry": { "type": "Point", "coordinates": [ 73.661783698586532, -53.075110290796424 ] } },
{ "type": "Feature", "properties": { "E": 410349, "N": 4118499, "depth": -13.0, "WP": null, "name_1": "Brown", "survey_year": 2004, "depth_m": 13.0, "point_id": "Brown_2004_181", "source_csv": "Copy of brown_lagoon.csv", "coverage_note": "Available survey soundings" }, "geometry": { "type": "Point", "coordinates": [ 73.661758185837286, -53.075451623713739 ] } },
{ "type": "Feature", "properties": { "E": 410358, "N": 4118478, "depth": -6.8, "WP": null, "name_1": "Brown", "survey_year": 2004, "depth_m": 6.8, "point_id": "Brown_2004_182", "source_csv": "Copy of brown_lagoon.csv", "coverage_note": "Available survey soundings" }, "geometry": { "type": "Point", "coordinates": [ 73.661886639004223, -53.075641858236487 ] } },
{ "type": "Feature", "properties": { "E": 410381, "N": 4118473, "depth": -8.1, "WP": null, "name_1": "Brown", "survey_year": 2004, "depth_m": 8.1, "point_id": "Brown_2004_183", "source_csv": "Copy of brown_lagoon.csv", "coverage_note": "Available survey soundings" }, "geometry": { "type": "Point", "coordinates": [ 73.662228471699208, -53.07569065186167 ] } },
{ "type": "Feature", "properties": { "E": 410398, "N": 4118464, "depth": -5.7, "WP": null, "name_1": "Brown", "survey_year": 2004, "depth_m": 5.7, "point_id": "Brown_2004_184", "source_csv": "Copy of brown_lagoon.csv", "coverage_note": "Available survey soundings" }, "geometry": { "type": "Point", "coordinates": [ 73.662479653672335, -53.075774385537727 ] } },
{ "type": "Feature", "properties": { "E": 410422, "N": 4118448, "depth": -6.7, "WP": null, "name_1": "Brown", "survey_year": 2004, "depth_m": 6.7, "point_id": "Brown_2004_185", "source_csv": "Copy of brown_lagoon.csv", "coverage_note": "Available survey soundings" }, "geometry": { "type": "Point", "coordinates": [ 73.662833347874894, -53.075922200681902 ] } },
{ "type": "Feature", "properties": { "E": 410430, "N": 4118425, "depth": -4.3, "WP": null, "name_1": "Brown", "survey_year": 2004, "depth_m": 4.3, "point_id": "Brown_2004_186", "source_csv": "Copy of brown_lagoon.csv", "coverage_note": "Available survey soundings" }, "geometry": { "type": "Point", "coordinates": [ 73.662946327247056, -53.076130240113159 ] } },
{ "type": "Feature", "properties": { "E": 410439, "N": 4118402, "depth": -8.2, "WP": null, "name_1": "Brown", "survey_year": 2004, "depth_m": 8.2, "point_id": "Brown_2004_187", "source_csv": "Copy of brown_lagoon.csv", "coverage_note": "Available survey soundings" }, "geometry": { "type": "Point", "coordinates": [ 73.663074230794024, -53.076338447108121 ] } },
{ "type": "Feature", "properties": { "E": 410472, "N": 4118387, "depth": -19.0, "WP": null, "name_1": "Brown", "survey_year": 2004, "depth_m": 19.0, "point_id": "Brown_2004_188", "source_csv": "Copy of brown_lagoon.csv", "coverage_note": "Available survey soundings" }, "geometry": { "type": "Point", "coordinates": [ 73.663562518373823, -53.076478782206983 ] } },
{ "type": "Feature", "properties": { "E": 410474, "N": 4118406, "depth": -20.0, "WP": null, "name_1": "Brown", "survey_year": 2004, "depth_m": 20.0, "point_id": "Brown_2004_189", "source_csv": "Copy of brown_lagoon.csv", "coverage_note": "Available survey soundings" }, "geometry": { "type": "Point", "coordinates": [ 73.663597652687798, -53.076308366952631 ] } },
{ "type": "Feature", "properties": { "E": 410461, "N": 4118427, "depth": -18.0, "WP": null, "name_1": "Brown", "survey_year": 2004, "depth_m": 18.0, "point_id": "Brown_2004_190", "source_csv": "Copy of brown_lagoon.csv", "coverage_note": "Available survey soundings" }, "geometry": { "type": "Point", "coordinates": [ 73.663409497904595, -53.076117463741468 ] } },
{ "type": "Feature", "properties": { "E": 410427, "N": 4118493, "depth": -24.0, "WP": null, "name_1": "Brown", "survey_year": 2004, "depth_m": 24.0, "point_id": "Brown_2004_191", "source_csv": "Copy of brown_lagoon.csv", "coverage_note": "Available survey soundings" }, "geometry": { "type": "Point", "coordinates": [ 73.662920492958889, -53.075518630216322 ] } },
{ "type": "Feature", "properties": { "E": 410424, "N": 4118528, "depth": -37.0, "WP": null, "name_1": "Brown", "survey_year": 2004, "depth_m": 37.0, "point_id": "Brown_2004_192", "source_csv": "Copy of brown_lagoon.csv", "coverage_note": "Available survey soundings" }, "geometry": { "type": "Point", "coordinates": [ 73.662885470418146, -53.07520358684333 ] } },
{ "type": "Feature", "properties": { "E": 410446, "N": 4118538, "depth": -41.0, "WP": null, "name_1": "Brown", "survey_year": 2004, "depth_m": 41.0, "point_id": "Brown_2004_193", "source_csv": "Copy of brown_lagoon.csv", "coverage_note": "Available survey soundings" }, "geometry": { "type": "Point", "coordinates": [ 73.663216553851981, -53.075117406929365 ] } },
{ "type": "Feature", "properties": { "E": 410482, "N": 4118549, "depth": -48.0, "WP": null, "name_1": "Brown", "survey_year": 2004, "depth_m": 48.0, "point_id": "Brown_2004_194", "source_csv": "Copy of brown_lagoon.csv", "coverage_note": "Available survey soundings" }, "geometry": { "type": "Point", "coordinates": [ 73.663756831389648, -53.075024585544206 ] } },
{ "type": "Feature", "properties": { "E": 410518, "N": 4118560, "depth": -45.0, "WP": null, "name_1": "Brown", "survey_year": 2004, "depth_m": 45.0, "point_id": "Brown_2004_195", "source_csv": "Copy of brown_lagoon.csv", "coverage_note": "Available survey soundings" }, "geometry": { "type": "Point", "coordinates": [ 73.664297106642579, -53.074931761689633 ] } },
{ "type": "Feature", "properties": { "E": 410551, "N": 4118567, "depth": -52.0, "WP": null, "name_1": "Brown", "survey_year": 2004, "depth_m": 52.0, "point_id": "Brown_2004_196", "source_csv": "Copy of brown_lagoon.csv", "coverage_note": "Available survey soundings" }, "geometry": { "type": "Point", "coordinates": [ 73.664791499625068, -53.074874380513656 ] } },
{ "type": "Feature", "properties": { "E": 410578, "N": 4118572, "depth": -51.0, "WP": null, "name_1": "Brown", "survey_year": 2004, "depth_m": 51.0, "point_id": "Brown_2004_197", "source_csv": "Copy of brown_lagoon.csv", "coverage_note": "Available survey soundings" }, "geometry": { "type": "Point", "coordinates": [ 73.665195799864293, -53.074833966653351 ] } },
{ "type": "Feature", "properties": { "E": 410614, "N": 4118583, "depth": -53.0, "WP": null, "name_1": "Brown", "survey_year": 2004, "depth_m": 53.0, "point_id": "Brown_2004_198", "source_csv": "Copy of brown_lagoon.csv", "coverage_note": "Available survey soundings" }, "geometry": { "type": "Point", "coordinates": [ 73.665736069742636, -53.074741136227274 ] } },
{ "type": "Feature", "properties": { "E": 410640, "N": 4118589, "depth": -54.0, "WP": null, "name_1": "Brown", "survey_year": 2004, "depth_m": 54.0, "point_id": "Brown_2004_199", "source_csv": "Copy of brown_lagoon.csv", "coverage_note": "Available survey soundings" }, "geometry": { "type": "Point", "coordinates": [ 73.666125723121553, -53.074691564981237 ] } },
{ "type": "Feature", "properties": { "E": 410661, "N": 4118592, "depth": -53.0, "WP": null, "name_1": "Brown", "survey_year": 2004, "depth_m": 53.0, "point_id": "Brown_2004_200", "source_csv": "Copy of brown_lagoon.csv", "coverage_note": "Available survey soundings" }, "geometry": { "type": "Point", "coordinates": [ 73.66643992983181, -53.074668116893932 ] } },
{ "type": "Feature", "properties": { "E": 410685, "N": 4118597, "depth": -52.0, "WP": null, "name_1": "Brown", "survey_year": 2004, "depth_m": 52.0, "point_id": "Brown_2004_201", "source_csv": "Copy of brown_lagoon.csv", "coverage_note": "Available survey soundings" }, "geometry": { "type": "Point", "coordinates": [ 73.666799459092132, -53.074627195819261 ] } },
{ "type": "Feature", "properties": { "E": 410705, "N": 4118601, "depth": -52.0, "WP": null, "name_1": "Brown", "survey_year": 2004, "depth_m": 52.0, "point_id": "Brown_2004_202", "source_csv": "Copy of brown_lagoon.csv", "coverage_note": "Available survey soundings" }, "geometry": { "type": "Point", "coordinates": [ 73.66709902004078, -53.074594591904045 ] } },
{ "type": "Feature", "properties": { "E": 410758, "N": 4118619, "depth": -52.0, "WP": null, "name_1": "Brown", "survey_year": 2004, "depth_m": 52.0, "point_id": "Brown_2004_203", "source_csv": "Copy of brown_lagoon.csv", "coverage_note": "Available survey soundings" }, "geometry": { "type": "Point", "coordinates": [ 73.667894907200534, -53.074441684914426 ] } },
{ "type": "Feature", "properties": { "E": 410791, "N": 4118613, "depth": -53.0, "WP": null, "name_1": "Brown", "survey_year": 2004, "depth_m": 53.0, "point_id": "Brown_2004_204", "source_csv": "Copy of brown_lagoon.csv", "coverage_note": "Available survey soundings" }, "geometry": { "type": "Point", "coordinates": [ 73.668385685150909, -53.07450111825375 ] } },
{ "type": "Feature", "properties": { "E": 410824, "N": 4118602, "depth": -52.0, "WP": null, "name_1": "Brown", "survey_year": 2004, "depth_m": 52.0, "point_id": "Brown_2004_205", "source_csv": "Copy of brown_lagoon.csv", "coverage_note": "Available survey soundings" }, "geometry": { "type": "Point", "coordinates": [ 73.668875078494736, -53.074605484021014 ] } },
{ "type": "Feature", "properties": { "E": 410844, "N": 4118598, "depth": -53.0, "WP": null, "name_1": "Brown", "survey_year": 2004, "depth_m": 53.0, "point_id": "Brown_2004_206", "source_csv": "Copy of brown_lagoon.csv", "coverage_note": "Available survey soundings" }, "geometry": { "type": "Point", "coordinates": [ 73.669172420721623, -53.074644769988424 ] } },
{ "type": "Feature", "properties": { "E": 410869, "N": 4118593, "depth": -45.0, "WP": null, "name_1": "Brown", "survey_year": 2004, "depth_m": 45.0, "point_id": "Brown_2004_207", "source_csv": "Copy of brown_lagoon.csv", "coverage_note": "Available survey soundings" }, "geometry": { "type": "Point", "coordinates": [ 73.669544099283868, -53.074693876407252 ] } },
{ "type": "Feature", "properties": { "E": 410903, "N": 4118581, "depth": -38.0, "WP": null, "name_1": "Brown", "survey_year": 2004, "depth_m": 38.0, "point_id": "Brown_2004_208", "source_csv": "Copy of brown_lagoon.csv", "coverage_note": "Available survey soundings" }, "geometry": { "type": "Point", "coordinates": [ 73.670048143344545, -53.074807391124274 ] } },
{ "type": "Feature", "properties": { "E": 410939, "N": 4118574, "depth": -30.0, "WP": null, "name_1": "Brown", "survey_year": 2004, "depth_m": 30.0, "point_id": "Brown_2004_209", "source_csv": "Copy of brown_lagoon.csv", "coverage_note": "Available survey soundings" }, "geometry": { "type": "Point", "coordinates": [ 73.670583419633275, -53.074876302702997 ] } },
{ "type": "Feature", "properties": { "E": 410968, "N": 4118568, "depth": -25.0, "WP": null, "name_1": "Brown", "survey_year": 2004, "depth_m": 25.0, "point_id": "Brown_2004_210", "source_csv": "Copy of brown_lagoon.csv", "coverage_note": "Available survey soundings" }, "geometry": { "type": "Point", "coordinates": [ 73.671014515753868, -53.074935058332208 ] } },
{ "type": "Feature", "properties": { "E": 410997, "N": 4118556, "depth": -16.0, "WP": null, "name_1": "Brown", "survey_year": 2004, "depth_m": 16.0, "point_id": "Brown_2004_211", "source_csv": "Copy of brown_lagoon.csv", "coverage_note": "Available survey soundings" }, "geometry": { "type": "Point", "coordinates": [ 73.671443953066373, -53.075047733791699 ] } },
{ "type": "Feature", "properties": { "E": 413553, "N": 4115360, "depth": -43.0, "WP": 46, "name_1": "Stephenson", "survey_year": 2004, "depth_m": 43.0, "point_id": "Stephenson_2004_001", "source_csv": "Copy of stephenson_lagoon.csv", "coverage_note": "Partial table; see original survey map" }, "geometry": { "type": "Point", "coordinates": [ 73.70872726994601, -53.104189983324396 ] } },
{ "type": "Feature", "properties": { "E": 413390, "N": 4115299, "depth": -71.0, "WP": 47, "name_1": "Stephenson", "survey_year": 2004, "depth_m": 71.0, "point_id": "Stephenson_2004_002", "source_csv": "Copy of stephenson_lagoon.csv", "coverage_note": "Partial table; see original survey map" }, "geometry": { "type": "Point", "coordinates": [ 73.706276739061323, -53.10471175744982 ] } },
{ "type": "Feature", "properties": { "E": 413277, "N": 4115311, "depth": -57.0, "WP": 48, "name_1": "Stephenson", "survey_year": 2004, "depth_m": 57.0, "point_id": "Stephenson_2004_003", "source_csv": "Copy of stephenson_lagoon.csv", "coverage_note": "Partial table; see original survey map" }, "geometry": { "type": "Point", "coordinates": [ 73.704592531484906, -53.104585560517613 ] } },
{ "type": "Feature", "properties": { "E": 413072, "N": 4115321, "depth": -40.0, "WP": 49, "name_1": "Stephenson", "survey_year": 2004, "depth_m": 40.0, "point_id": "Stephenson_2004_004", "source_csv": "Copy of stephenson_lagoon.csv", "coverage_note": "Partial table; see original survey map" }, "geometry": { "type": "Point", "coordinates": [ 73.701533950839675, -53.104462334232728 ] } },
{ "type": "Feature", "properties": { "E": 413025, "N": 4115427, "depth": -30.0, "WP": 50, "name_1": "Stephenson", "survey_year": 2004, "depth_m": 30.0, "point_id": "Stephenson_2004_005", "source_csv": "Copy of stephenson_lagoon.csv", "coverage_note": "Partial table; see original survey map" }, "geometry": { "type": "Point", "coordinates": [ 73.70086080503286, -53.103502057839314 ] } },
{ "type": "Feature", "properties": { "E": 412964, "N": 4115512, "depth": -22.0, "WP": 51, "name_1": "Stephenson", "survey_year": 2004, "depth_m": 22.0, "point_id": "Stephenson_2004_006", "source_csv": "Copy of stephenson_lagoon.csv", "coverage_note": "Partial table; see original survey map" }, "geometry": { "type": "Point", "coordinates": [ 73.69997294447694, -53.102728220609762 ] } },
{ "type": "Feature", "properties": { "E": 412865, "N": 4115375, "depth": -29.0, "WP": 52, "name_1": "Stephenson", "survey_year": 2004, "depth_m": 29.0, "point_id": "Stephenson_2004_007", "source_csv": "Copy of stephenson_lagoon.csv", "coverage_note": "Partial table; see original survey map" }, "geometry": { "type": "Point", "coordinates": [ 73.698457461593847, -53.103943277043633 ] } },
{ "type": "Feature", "properties": { "E": 412816, "N": 4115286, "depth": -46.0, "WP": 53, "name_1": "Stephenson", "survey_year": 2004, "depth_m": 46.0, "point_id": "Stephenson_2004_008", "source_csv": "Copy of stephenson_lagoon.csv", "coverage_note": "Partial table; see original survey map" }, "geometry": { "type": "Point", "coordinates": [ 73.697701588968187, -53.104735111847063 ] } },
{ "type": "Feature", "properties": { "E": 412760, "N": 4115217, "depth": -73.0, "WP": 54, "name_1": "Stephenson", "survey_year": 2004, "depth_m": 73.0, "point_id": "Stephenson_2004_009", "source_csv": "Copy of stephenson_lagoon.csv", "coverage_note": "Partial table; see original survey map" }, "geometry": { "type": "Point", "coordinates": [ 73.69684658815639, -53.10534605827749 ] } },
{ "type": "Feature", "properties": { "E": 412710, "N": 4115118, "depth": -59.0, "WP": 55, "name_1": "Stephenson", "survey_year": 2004, "depth_m": 59.0, "point_id": "Stephenson_2004_010", "source_csv": "Copy of stephenson_lagoon.csv", "coverage_note": "Partial table; see original survey map" }, "geometry": { "type": "Point", "coordinates": [ 73.696073008994532, -53.106227588129066 ] } },
{ "type": "Feature", "properties": { "E": 412540, "N": 4114911, "depth": -107.0, "WP": 56, "name_1": "Stephenson", "survey_year": 2004, "depth_m": 107.0, "point_id": "Stephenson_2004_011", "source_csv": "Copy of stephenson_lagoon.csv", "coverage_note": "Partial table; see original survey map" }, "geometry": { "type": "Point", "coordinates": [ 73.693477906647914, -53.108060043985844 ] } },
{ "type": "Feature", "properties": { "E": 412463, "N": 4114805, "depth": -98.0, "WP": 57, "name_1": "Stephenson", "survey_year": 2004, "depth_m": 98.0, "point_id": "Stephenson_2004_012", "source_csv": "Copy of stephenson_lagoon.csv", "coverage_note": "Partial table; see original survey map" }, "geometry": { "type": "Point", "coordinates": [ 73.69229906751994, -53.109000029937619 ] } },
{ "type": "Feature", "properties": { "E": 412516, "N": 4114898, "depth": -105.0, "WP": 58, "name_1": "Stephenson", "survey_year": 2004, "depth_m": 105.0, "point_id": "Stephenson_2004_013", "source_csv": "Copy of stephenson_lagoon.csv", "coverage_note": "Partial table; see original survey map" }, "geometry": { "type": "Point", "coordinates": [ 73.693115942115924, -53.108172939276237 ] } },
{ "type": "Feature", "properties": { "E": 412390, "N": 4114682, "depth": -82.0, "WP": 59, "name_1": "Stephenson", "survey_year": 2004, "depth_m": 82.0, "point_id": "Stephenson_2004_014", "source_csv": "Copy of stephenson_lagoon.csv", "coverage_note": "Partial table; see original survey map" }, "geometry": { "type": "Point", "coordinates": [ 73.691175277024342, -53.110093438201005 ] } },
{ "type": "Feature", "properties": { "E": 412369, "N": 4114813, "depth": -94.0, "WP": 60, "name_1": "Stephenson", "survey_year": 2004, "depth_m": 94.0, "point_id": "Stephenson_2004_015", "source_csv": "Copy of stephenson_lagoon.csv", "coverage_note": "Partial table; see original survey map" }, "geometry": { "type": "Point", "coordinates": [ 73.690897401162516, -53.108912703284354 ] } },
{ "type": "Feature", "properties": { "E": 412396, "N": 4114830, "depth": -107.0, "WP": 61, "name_1": "Stephenson", "survey_year": 2004, "depth_m": 107.0, "point_id": "Stephenson_2004_016", "source_csv": "Copy of stephenson_lagoon.csv", "coverage_note": "Partial table; see original survey map" }, "geometry": { "type": "Point", "coordinates": [ 73.69130527262115, -53.108764359763285 ] } }
]
}
